{"type":"FeatureCollection","features":[{"type":"Feature","properties":{"id":"efeo-2756-west-enclosure","name":"王宫西侧围区（EFEO旧图）","nameEn":"Ta Don Hé enclosure","category":"walls","origin":"efeo","sourceUrl":"https://archives.efeo.fr/index.php/fca-2-dg-2756","sourceTitle":"EFEO FCA/2/DG/2756 · CAP/155 · 1:10000 吴哥城考古图","license":"CC BY-NC-SA 4.0","licenseUrl":"https://creativecommons.org/licenses/by-nc-sa/4.0/","referenceUrl":"https://archives.efeo.fr/index.php/fca-2-dg-2756","note":"旧图标注 Ta Don Hé 的西侧围区；仅描绘可辨认的历史围线，不据此确定各段现存墙体或将其解释为王宫范围。 依据公开480像素参考图辨读，以OSM城角作旋转、平移、统一比例近似定位；低分辨率旧图与现状矢量存在差异，虚线只作研究参照，不是精确考古GIS。","label":true,"labelCoordinates":[103.84846902319106,13.446601327777309]},"geometry":{"type":"Polygon","coordinates":[[[103.8455205467435,13.450071362592263],[103.85116598336413,13.450102163867127],[103.85153044596684,13.443207601817768],[103.84565911668976,13.443024182832078],[103.8455205467435,13.450071362592263]]]}},{"type":"Feature","properties":{"id":"efeo-2756-beng-tra","name":"本特拉池（EFEO旧图）","nameEn":"Beng Tra","category":"water","origin":"efeo","sourceUrl":"https://archives.efeo.fr/index.php/fca-2-dg-2756","sourceTitle":"EFEO FCA/2/DG/2756 · CAP/155 · 1:10000 吴哥城考古图","license":"CC BY-NC-SA 4.0","licenseUrl":"https://creativecommons.org/licenses/by-nc-sa/4.0/","referenceUrl":"https://archives.efeo.fr/index.php/fca-2-dg-2756","note":"旧图标注 Beng Tra，位于巴芳寺以南；反映历史水池图示，不能据此判断现今仍为开放水面。 依据公开480像素参考图辨读，以OSM城角作旋转、平移、统一比例近似定位；低分辨率旧图与现状矢量存在差异，虚线只作研究参照，不是精确考古GIS。","label":true,"labelCoordinates":[103.8524923339546,13.442515217341542]},"geometry":{"type":"Polygon","coordinates":[[[103.85229898021922,13.442925065231668],[103.85283287002905,13.442934995972223],[103.8530675144716,13.442642528645566],[103.85299999628485,13.442196024930858],[103.8523927537642,13.442036313833919],[103.85193075803417,13.442250344289329],[103.8519234648791,13.442621248487233],[103.85229898021922,13.442925065231668]]]}},{"type":"Feature","properties":{"id":"efeo-2756-beng-thom","name":"班通池（EFEO历史图示）","nameEn":"Beng Thom","category":"water","origin":"efeo","sourceUrl":"https://archives.efeo.fr/index.php/fca-2-dg-2756","sourceTitle":"EFEO FCA/2/DG/2756 · CAP/155 · 1:10000 吴哥城考古图","license":"CC BY-NC-SA 4.0","licenseUrl":"https://creativecommons.org/licenses/by-nc-sa/4.0/","referenceUrl":"https://archives.efeo.fr/index.php/fca-2-dg-2756","note":"旧图中的 Beng Thom 范围，与OSM现状班通池分别保留；形状为旧图历史图示，不是池岸的实测变化分析。 依据公开480像素参考图辨读，以OSM城角作旋转、平移、统一比例近似定位；低分辨率旧图与现状矢量存在差异，虚线只作研究参照，不是精确考古GIS。","label":true,"labelCoordinates":[103.846602784239,13.428014621573332]},"geometry":{"type":"Polygon","coordinates":[[[103.84440939849459,13.428975630606843],[103.8486057056314,13.428979477014483],[103.84887098132522,13.427129212056627],[103.84452505150479,13.42697416661538],[103.84440939849459,13.428975630606843]]]}}]}
