{"type":"FeatureCollection","features":[{"type":"Feature","properties":{"id":"osm-relation-5635159","name":"道梅池","nameEn":"Trapeang Daun Meas","category":"water","origin":"osm","sourceUrl":"https://www.openstreetmap.org/relation/5635159","sourceTitle":"OpenStreetMap 现状矢量","license":"ODbL","licenseUrl":"https://www.openstreetmap.org/copyright","referenceUrl":"https://archives.efeo.fr/index.php/fca-2-dg-2756","note":"保留现状标绘几何，建筑、围区和水体分别显示；不代表全部构件的考古实测或同一建设年代。","label":true,"labelCoordinates":[103.84900905,13.446078400000001]},"geometry":{"type":"Polygon","coordinates":[[[103.8468746,13.4467585],[103.8475067,13.4467735],[103.8476456,13.4469755],[103.8476363,13.4480023],[103.8480335,13.4479988],[103.8480407,13.4469984],[103.848146,13.4468973],[103.8511435,13.446909],[103.8511413,13.4453449],[103.8481859,13.44532],[103.8481234,13.4451501],[103.8481167,13.4441662],[103.8477191,13.4441545],[103.8477323,13.4453602],[103.8475931,13.4455263],[103.8468767,13.4455327],[103.8468746,13.4467585]],[[103.8470736,13.4465729],[103.8476385,13.4465828],[103.8476851,13.446413],[103.8476653,13.4458145],[103.8471454,13.4458017],[103.8470646,13.4458962],[103.8470736,13.4465729]]]}},{"type":"Feature","properties":{"id":"osm-relation-6990223","name":"巴戎寺","nameEn":"Bayon","category":"temples","origin":"osm","sourceUrl":"https://www.openstreetmap.org/relation/6990223","sourceTitle":"OpenStreetMap 现状矢量","license":"ODbL","licenseUrl":"https://www.openstreetmap.org/copyright","referenceUrl":"https://archives.efeo.fr/index.php/fca-2-dg-2756","note":"保留现状标绘几何，建筑、围区和水体分别显示；不代表全部构件的考古实测或同一建设年代。","label":true,"labelCoordinates":[103.85891914999999,13.441222849999999]},"geometry":{"type":"Polygon","coordinates":[[[103.8583519,13.4417248],[103.8594727,13.4417391],[103.8594864,13.4407209],[103.8583656,13.4407066],[103.8583519,13.4417248]],[[103.8585694,13.4412723],[103.8585654,13.4415144],[103.8587528,13.4415173],[103.8589733,13.4415207],[103.859244,13.4415249],[103.8592476,13.4413054],[103.8592506,13.4411295],[103.8592544,13.440931],[103.8589946,13.4409263],[103.8589076,13.4409252],[103.8587945,13.4409241],[103.858575,13.4409209],[103.8585694,13.4412723]]]}},{"type":"Feature","properties":{"id":"osm-relation-8130798","name":"吴哥王宫","nameEn":"Angkor Thom Royal Palace","category":"temples","origin":"osm","sourceUrl":"https://www.openstreetmap.org/relation/8130798","sourceTitle":"OpenStreetMap 现状矢量","license":"ODbL","licenseUrl":"https://www.openstreetmap.org/copyright","referenceUrl":"https://archives.efeo.fr/index.php/fca-2-dg-2756","note":"保留现状标绘几何，建筑、围区和水体分别显示；不代表全部构件的考古实测或同一建设年代。","label":true,"labelCoordinates":[103.85803805,13.4457163]},"geometry":{"type":"MultiPolygon","coordinates":[[[[103.8586128,13.4438018],[103.8580217,13.4437927],[103.857526,13.443785],[103.8575275,13.4436893],[103.8574829,13.4436886],[103.8574813,13.4437886],[103.8569318,13.4437723],[103.8569278,13.4437938],[103.8569311,13.4438138],[103.857481,13.4438302],[103.8574795,13.4439204],[103.8575219,13.4439211],[103.8575235,13.4438232],[103.8588017,13.443843],[103.858801,13.4438834],[103.8587976,13.4440932],[103.8587145,13.4440919],[103.8587136,13.4441445],[103.8587924,13.4441458],[103.8587916,13.4441973],[103.8588362,13.444198],[103.858837,13.4441484],[103.858914,13.4441496],[103.8589149,13.444095],[103.8588394,13.4440938],[103.8588435,13.4438383],[103.8590092,13.4438409],[103.8590094,13.4438227],[103.8590097,13.4438051],[103.8588493,13.4438026],[103.8588536,13.4435385],[103.8588942,13.4435391],[103.8588947,13.443511],[103.8588571,13.4435104],[103.8588585,13.4434233],[103.8588199,13.4434227],[103.8588185,13.4435102],[103.8587833,13.4435097],[103.8587828,13.4435352],[103.8588135,13.4435357],[103.8588091,13.4438048],[103.8586128,13.4438018]]],[[[103.8588777,13.4459407],[103.8588735,13.4462],[103.8589224,13.4462154],[103.8589211,13.4462977],[103.8588761,13.4463183],[103.8588749,13.4468785],[103.8588755,13.4470623],[103.8589696,13.4470752],[103.8589699,13.447151],[103.8590301,13.4471557],[103.8590296,13.4472522],[103.8589953,13.4472532],[103.8588825,13.4472516],[103.8586987,13.4472484],[103.8587016,13.4459477],[103.8585342,13.4459395],[103.8584492,13.445938],[103.8584475,13.4458579],[103.8584451,13.4457925],[103.8585198,13.4457921],[103.8586325,13.4457925],[103.8587158,13.4457742],[103.858688,13.4444565],[103.8586905,13.4443215],[103.858812,13.4443185],[103.8590081,13.4443295],[103.8591483,13.4443456],[103.8591432,13.444461],[103.8588636,13.4444721],[103.8588474,13.445398],[103.8588936,13.4454282],[103.8588967,13.4455373],[103.8588523,13.4455591],[103.8588525,13.4457406],[103.8589735,13.4457449],[103.8589763,13.4457727],[103.8590766,13.4457789],[103.859115,13.4458115],[103.8591263,13.4458572],[103.859125,13.445888],[103.8591167,13.4459188],[103.859051,13.4459466],[103.858986,13.4459461],[103.8588777,13.4459407]]],[[[103.8591167,13.4475065],[103.8590861,13.4475048],[103.8590869,13.4474711],[103.8590542,13.4474716],[103.8590553,13.4474372],[103.8589093,13.4474355],[103.8588414,13.447332],[103.8586722,13.4473327],[103.8586998,13.4480099],[103.8588902,13.4480072],[103.8589052,13.4477035],[103.8590577,13.4477007],[103.859058,13.4476686],[103.8590878,13.4476689],[103.8590876,13.4476418],[103.8591155,13.447642],[103.8591167,13.4475065]]]]}},{"type":"Feature","properties":{"id":"osm-relation-10925106","name":"寺庙遗迹构件","nameEn":"","category":"temples","origin":"osm","sourceUrl":"https://www.openstreetmap.org/relation/10925106","sourceTitle":"OpenStreetMap 现状矢量","license":"ODbL","licenseUrl":"https://www.openstreetmap.org/copyright","referenceUrl":"https://archives.efeo.fr/index.php/fca-2-dg-2756","note":"保留现状标绘几何，建筑、围区和水体分别显示；不代表全部构件的考古实测或同一建设年代。","label":false,"labelCoordinates":[103.8600013,13.44125845]},"geometry":{"type":"Polygon","coordinates":[[[103.8602452,13.4412638],[103.8602442,13.4412139],[103.8601799,13.4412152],[103.8601786,13.4411507],[103.8600431,13.4411533],[103.860044,13.4411969],[103.8597569,13.4412024],[103.8597597,13.4413384],[103.8600301,13.4413332],[103.8600307,13.4413662],[103.860161,13.4413636],[103.8601595,13.4412905],[103.8602457,13.4412889],[103.8602452,13.4412638]]]}},{"type":"Feature","properties":{"id":"osm-relation-10926014","name":"寺庙遗迹构件","nameEn":"","category":"temples","origin":"osm","sourceUrl":"https://www.openstreetmap.org/relation/10926014","sourceTitle":"OpenStreetMap 现状矢量","license":"ODbL","licenseUrl":"https://www.openstreetmap.org/copyright","referenceUrl":"https://archives.efeo.fr/index.php/fca-2-dg-2756","note":"保留现状标绘几何，建筑、围区和水体分别显示；不代表全部构件的考古实测或同一建设年代。","label":false,"labelCoordinates":[103.85796875,13.44381035]},"geometry":{"type":"Polygon","coordinates":[[[103.8586128,13.4438018],[103.8580217,13.4437927],[103.857526,13.443785],[103.8575275,13.4436893],[103.8574829,13.4436886],[103.8574813,13.4437886],[103.8569318,13.4437723],[103.8569278,13.4437938],[103.8569311,13.4438138],[103.857481,13.4438302],[103.8574795,13.4439204],[103.8575219,13.4439211],[103.8575235,13.4438232],[103.8588017,13.443843],[103.858801,13.4438834],[103.8587976,13.4440932],[103.8587145,13.4440919],[103.8587136,13.4441445],[103.8587924,13.4441458],[103.8587916,13.4441973],[103.8588362,13.444198],[103.858837,13.4441484],[103.858914,13.4441496],[103.8589149,13.444095],[103.8588394,13.4440938],[103.8588435,13.4438383],[103.8590092,13.4438409],[103.8590094,13.4438227],[103.8590097,13.4438051],[103.8588493,13.4438026],[103.8588536,13.4435385],[103.8588942,13.4435391],[103.8588947,13.443511],[103.8588571,13.4435104],[103.8588585,13.4434233],[103.8588199,13.4434227],[103.8588185,13.4435102],[103.8587833,13.4435097],[103.8587828,13.4435352],[103.8588135,13.4435357],[103.8588091,13.4438048],[103.8586128,13.4438018]]]}},{"type":"Feature","properties":{"id":"osm-relation-10928315","name":"战象平台","nameEn":"Terrace of the Elephants","category":"platforms","origin":"osm","sourceUrl":"https://www.openstreetmap.org/relation/10928315","sourceTitle":"OpenStreetMap 现状矢量","license":"ODbL","licenseUrl":"https://www.openstreetmap.org/copyright","referenceUrl":"https://archives.efeo.fr/index.php/fca-2-dg-2756","note":"保留现状标绘几何，建筑、围区和水体分别显示；不代表全部构件的考古实测或同一建设年代。","label":true,"labelCoordinates":[103.8587967,13.44578585]},"geometry":{"type":"Polygon","coordinates":[[[103.8588777,13.4459407],[103.8588735,13.4462],[103.8589224,13.4462154],[103.8589211,13.4462977],[103.8588761,13.4463183],[103.8588749,13.4468785],[103.8588755,13.4470623],[103.8589696,13.4470752],[103.8589699,13.447151],[103.8590301,13.4471557],[103.8590296,13.4472522],[103.8589953,13.4472532],[103.8588825,13.4472516],[103.8586987,13.4472484],[103.8587016,13.4459477],[103.8585342,13.4459395],[103.8584492,13.445938],[103.8584475,13.4458579],[103.8584451,13.4457925],[103.8585198,13.4457921],[103.8586325,13.4457925],[103.8587158,13.4457742],[103.858688,13.4444565],[103.8586905,13.4443215],[103.858812,13.4443185],[103.8590081,13.4443295],[103.8591483,13.4443456],[103.8591432,13.444461],[103.8588636,13.4444721],[103.8588474,13.445398],[103.8588936,13.4454282],[103.8588967,13.4455373],[103.8588523,13.4455591],[103.8588525,13.4457406],[103.8589735,13.4457449],[103.8589763,13.4457727],[103.8590766,13.4457789],[103.859115,13.4458115],[103.8591263,13.4458572],[103.859125,13.445888],[103.8591167,13.4459188],[103.859051,13.4459466],[103.858986,13.4459461],[103.8588777,13.4459407]]]}},{"type":"Feature","properties":{"id":"osm-relation-10928316","name":"癞王平台","nameEn":"Terrace of the Leper King","category":"platforms","origin":"osm","sourceUrl":"https://www.openstreetmap.org/relation/10928316","sourceTitle":"OpenStreetMap 现状矢量","license":"ODbL","licenseUrl":"https://www.openstreetmap.org/copyright","referenceUrl":"https://archives.efeo.fr/index.php/fca-2-dg-2756","note":"保留现状标绘几何，建筑、围区和水体分别显示；不代表全部构件的考古实测或同一建设年代。","label":true,"labelCoordinates":[103.85889445000001,13.44767095]},"geometry":{"type":"Polygon","coordinates":[[[103.8591167,13.4475065],[103.8590861,13.4475048],[103.8590869,13.4474711],[103.8590542,13.4474716],[103.8590553,13.4474372],[103.8589093,13.4474355],[103.8588414,13.447332],[103.8586722,13.4473327],[103.8586998,13.4480099],[103.8588902,13.4480072],[103.8589052,13.4477035],[103.8590577,13.4477007],[103.859058,13.4476686],[103.8590878,13.4476689],[103.8590876,13.4476418],[103.8591155,13.447642],[103.8591167,13.4475065]]]}},{"type":"Feature","properties":{"id":"osm-relation-10928400","name":"北仓","nameEn":"North Khleang temple","category":"temples","origin":"osm","sourceUrl":"https://www.openstreetmap.org/relation/10928400","sourceTitle":"OpenStreetMap 现状矢量","license":"ODbL","licenseUrl":"https://www.openstreetmap.org/copyright","referenceUrl":"https://archives.efeo.fr/index.php/fca-2-dg-2756","note":"保留现状标绘几何，建筑、围区和水体分别显示；不代表全部构件的考古实测或同一建设年代。","label":true,"labelCoordinates":[103.8608072,13.447204849999999]},"geometry":{"type":"Polygon","coordinates":[[[103.8607921,13.4471815],[103.8607921,13.4471643],[103.8607927,13.446885],[103.8608884,13.4468839],[103.860887,13.4475258],[103.8607904,13.4475252],[103.8607919,13.4472158],[103.860726,13.4472146],[103.8607261,13.4471637],[103.8607921,13.4471643],[103.8607921,13.4471815]]]}},{"type":"Feature","properties":{"id":"osm-way-19727850","name":"城内水池／沟渠","nameEn":"","category":"water","origin":"osm","sourceUrl":"https://www.openstreetmap.org/way/19727850","sourceTitle":"OpenStreetMap 现状矢量","license":"ODbL","licenseUrl":"https://www.openstreetmap.org/copyright","referenceUrl":"https://archives.efeo.fr/index.php/fca-2-dg-2756","note":"保留现状标绘几何，建筑、围区和水体分别显示；不代表全部构件的考古实测或同一建设年代。","label":false,"labelCoordinates":[103.8516018,13.43290135]},"geometry":{"type":"Polygon","coordinates":[[[103.8592823,13.4275117],[103.846087,13.4272321],[103.8452002,13.4272108],[103.8451747,13.4272173],[103.8451499,13.4272329],[103.8451418,13.4272571],[103.8446899,13.4409567],[103.8444405,13.4409534],[103.8437444,13.4409443],[103.8439509,13.4355181],[103.8442238,13.426265],[103.8455723,13.4262801],[103.8457104,13.4262631],[103.8457306,13.42619],[103.8457185,13.4261327],[103.8455066,13.426091],[103.8456541,13.4257609],[103.8456997,13.4256513],[103.8457963,13.425427],[103.8458868,13.42523],[103.8459465,13.4250591],[103.8459807,13.4249308],[103.8459866,13.4248657],[103.8459907,13.4248556],[103.8460016,13.4248475],[103.8460144,13.424846],[103.8460254,13.4248497],[103.8460347,13.4248566],[103.8460531,13.4248898],[103.8460621,13.4250564],[103.8460873,13.42529],[103.8461235,13.4260883],[103.845913,13.4261092],[103.8458473,13.4261745],[103.8458526,13.4262579],[103.8459612,13.4262996],[103.8487601,13.4263557],[103.8594592,13.4265255],[103.8594524,13.4265883],[103.8594526,13.4270761],[103.8594446,13.4274412],[103.8592824,13.4274371],[103.8592823,13.4275117]]]}},{"type":"Feature","properties":{"id":"osm-way-19835348","name":"城内水池／沟渠","nameEn":"","category":"water","origin":"osm","sourceUrl":"https://www.openstreetmap.org/way/19835348","sourceTitle":"OpenStreetMap 现状矢量","license":"ODbL","licenseUrl":"https://www.openstreetmap.org/copyright","referenceUrl":"https://archives.efeo.fr/index.php/fca-2-dg-2756","note":"保留现状标绘几何，建筑、围区和水体分别显示；不代表全部构件的考古实测或同一建设年代。","label":false,"labelCoordinates":[103.86705140000001,13.4339581]},"geometry":{"type":"Polygon","coordinates":[[[103.859776,13.4274476],[103.8597733,13.4275303],[103.8598779,13.427532],[103.8734363,13.4276799],[103.8735136,13.4276778],[103.8735581,13.4277047],[103.8735737,13.4277524],[103.8735721,13.4278512],[103.8733233,13.4412483],[103.8734743,13.4413875],[103.8738084,13.4413873],[103.8741434,13.4413885],[103.8745157,13.4267735],[103.8672648,13.4266511],[103.8596017,13.4265277],[103.8595974,13.427079],[103.8595871,13.4274433],[103.859776,13.4274476]]]}},{"type":"Feature","properties":{"id":"osm-way-28408928","name":"城内水池／沟渠","nameEn":"","category":"water","origin":"osm","sourceUrl":"https://www.openstreetmap.org/way/28408928","sourceTitle":"OpenStreetMap 现状矢量","license":"ODbL","licenseUrl":"https://www.openstreetmap.org/copyright","referenceUrl":"https://archives.efeo.fr/index.php/fca-2-dg-2756","note":"保留现状标绘几何，建筑、围区和水体分别显示；不代表全部构件的考古实测或同一建设年代。","label":false,"labelCoordinates":[103.8511502,13.44853795]},"geometry":{"type":"Polygon","coordinates":[[[103.8589713,13.455198],[103.8442618,13.454858],[103.8446892,13.4411159],[103.8444372,13.4411104],[103.8437329,13.4411],[103.8437235,13.4414303],[103.8433476,13.4551435],[103.8433291,13.4558427],[103.848964,13.4559102],[103.8505062,13.4559519],[103.8521412,13.4559495],[103.8527432,13.4559493],[103.8531241,13.4559441],[103.8555086,13.4559571],[103.8575363,13.4559623],[103.8589564,13.4559759],[103.8589713,13.455198]]]}},{"type":"Feature","properties":{"id":"osm-way-39849827","name":"城内水池／沟渠","nameEn":"","category":"water","origin":"osm","sourceUrl":"https://www.openstreetmap.org/way/39849827","sourceTitle":"OpenStreetMap 现状矢量","license":"ODbL","licenseUrl":"https://www.openstreetmap.org/copyright","referenceUrl":"https://archives.efeo.fr/index.php/fca-2-dg-2756","note":"保留现状标绘几何，建筑、围区和水体分别显示；不代表全部构件的考古实测或同一建设年代。","label":false,"labelCoordinates":[103.8582124,13.44403505]},"geometry":{"type":"Polygon","coordinates":[[[103.8578978,13.4438806],[103.8585197,13.4438927],[103.8586065,13.4439308],[103.8585937,13.4441165],[103.8584928,13.4441895],[103.858411,13.4441888],[103.8582549,13.4441765],[103.8581012,13.4441345],[103.8579489,13.4440995],[103.8578439,13.444048],[103.8578183,13.4439852],[103.8578263,13.443941],[103.8578596,13.4439032],[103.8578978,13.4438806]]]}},{"type":"Feature","properties":{"id":"osm-way-39849828","name":"城内水池／沟渠","nameEn":"","category":"water","origin":"osm","sourceUrl":"https://www.openstreetmap.org/way/39849828","sourceTitle":"OpenStreetMap 现状矢量","license":"ODbL","licenseUrl":"https://www.openstreetmap.org/copyright","referenceUrl":"https://archives.efeo.fr/index.php/fca-2-dg-2756","note":"保留现状标绘几何，建筑、围区和水体分别显示；不代表全部构件的考古实测或同一建设年代。","label":false,"labelCoordinates":[103.85822379999999,13.44357105]},"geometry":{"type":"Polygon","coordinates":[[[103.8583018,13.4434538],[103.8584987,13.4434887],[103.8586008,13.4435441],[103.8586347,13.4435824],[103.8586455,13.4436339],[103.8586241,13.4436679],[103.8585873,13.4436913],[103.8585282,13.4436921],[103.8581576,13.4436992],[103.8580094,13.4436901],[103.8579332,13.4436939],[103.857826,13.4436797],[103.8578021,13.4435974],[103.8578138,13.4435124],[103.8578699,13.4434495],[103.8580479,13.4434429],[103.8581597,13.4434468],[103.8583018,13.4434538]]]}},{"type":"Feature","properties":{"id":"osm-way-39849829","name":"城内水池／沟渠","nameEn":"","category":"water","origin":"osm","sourceUrl":"https://www.openstreetmap.org/way/39849829","sourceTitle":"OpenStreetMap 现状矢量","license":"ODbL","licenseUrl":"https://www.openstreetmap.org/copyright","referenceUrl":"https://archives.efeo.fr/index.php/fca-2-dg-2756","note":"保留现状标绘几何，建筑、围区和水体分别显示；不代表全部构件的考古实测或同一建设年代。","label":false,"labelCoordinates":[103.85750365,13.443491949999999]},"geometry":{"type":"Polygon","coordinates":[[[103.8573953,13.4436314],[103.8573998,13.4433493],[103.857612,13.4433526],[103.8576075,13.4436346],[103.8573953,13.4436314]]]}},{"type":"Feature","properties":{"id":"osm-way-39849830","name":"王宫男池","nameEn":"Srah Bros","category":"water","origin":"osm","sourceUrl":"https://www.openstreetmap.org/way/39849830","sourceTitle":"OpenStreetMap 现状矢量","license":"ODbL","licenseUrl":"https://www.openstreetmap.org/copyright","referenceUrl":"https://archives.efeo.fr/index.php/fca-2-dg-2756","note":"保留现状标绘几何，建筑、围区和水体分别显示；不代表全部构件的考古实测或同一建设年代。","label":true,"labelCoordinates":[103.8574823,13.446721700000001]},"geometry":{"type":"Polygon","coordinates":[[[103.8572802,13.4468195],[103.8572795,13.446623],[103.8576851,13.4466263],[103.857682,13.4468204],[103.8572802,13.4468195]]]}},{"type":"Feature","properties":{"id":"osm-way-40184883","name":"班通池","nameEn":"Boeung Thom","category":"water","origin":"osm","sourceUrl":"https://www.openstreetmap.org/way/40184883","sourceTitle":"OpenStreetMap 现状矢量","license":"ODbL","licenseUrl":"https://www.openstreetmap.org/copyright","referenceUrl":"https://archives.efeo.fr/index.php/fca-2-dg-2756","note":"保留现状标绘几何，建筑、围区和水体分别显示；不代表全部构件的考古实测或同一建设年代。","label":true,"labelCoordinates":[103.84790665,13.429086649999999]},"geometry":{"type":"Polygon","coordinates":[[[103.8462305,13.4299777],[103.8495404,13.429993],[103.8495514,13.4293821],[103.8495828,13.4282525],[103.846265,13.4281803],[103.8462305,13.4299777]]]}},{"type":"Feature","properties":{"id":"osm-way-194606854","name":"南仓","nameEn":"South Khleang temple","category":"temples","origin":"osm","sourceUrl":"https://www.openstreetmap.org/way/194606854","sourceTitle":"OpenStreetMap 现状矢量","license":"ODbL","licenseUrl":"https://www.openstreetmap.org/copyright","referenceUrl":"https://archives.efeo.fr/index.php/fca-2-dg-2756","note":"保留现状标绘几何，建筑、围区和水体分别显示；不代表全部构件的考古实测或同一建设年代。","label":true,"labelCoordinates":[103.8607471,13.4444628]},"geometry":{"type":"Polygon","coordinates":[[[103.8607952,13.4441762],[103.860867,13.4441791],[103.8608655,13.4444188],[103.8608622,13.4447494],[103.8607818,13.4447448],[103.8607862,13.4444826],[103.8607081,13.4444807],[103.8607076,13.4444629],[103.8606272,13.4444627],[103.8606275,13.444436],[103.8607074,13.4444381],[103.8607063,13.4444189],[103.8607903,13.4444209],[103.8607952,13.4441762]]]}},{"type":"Feature","properties":{"id":"osm-way-194606855","name":"吴哥城墙段","nameEn":"","category":"walls","origin":"osm","sourceUrl":"https://www.openstreetmap.org/way/194606855","sourceTitle":"OpenStreetMap 现状矢量","license":"ODbL","licenseUrl":"https://www.openstreetmap.org/copyright","referenceUrl":"https://archives.efeo.fr/index.php/fca-2-dg-2756","note":"保留现状标绘几何，建筑、围区和水体分别显示；不代表全部构件的考古实测或同一建设年代。","label":false,"labelCoordinates":[103.85586275,13.443546099999999],"role":"wall"},"geometry":{"type":"LineString","coordinates":[[103.8556061,13.4437674],[103.8556118,13.4433248],[103.8561194,13.4433309]]}},{"type":"Feature","properties":{"id":"osm-way-194606858","name":"普利莱寺","nameEn":"Preah Palilay","category":"temples","origin":"osm","sourceUrl":"https://www.openstreetmap.org/way/194606858","sourceTitle":"OpenStreetMap 现状矢量","license":"ODbL","licenseUrl":"https://www.openstreetmap.org/copyright","referenceUrl":"https://archives.efeo.fr/index.php/fca-2-dg-2756","note":"保留现状标绘几何，建筑、围区和水体分别显示；不代表全部构件的考古实测或同一建设年代。","label":true,"labelCoordinates":[103.8552289,13.448997349999999]},"geometry":{"type":"Polygon","coordinates":[[[103.8552714,13.4488826],[103.8552725,13.4488356],[103.8551956,13.4488339],[103.8551945,13.4488809],[103.8551182,13.4488792],[103.8551164,13.4489561],[103.8550691,13.448955],[103.8550673,13.4490312],[103.8551146,13.4490323],[103.8551129,13.4491043],[103.8551893,13.449106],[103.855188,13.4491591],[103.8552649,13.4491608],[103.8552662,13.4491077],[103.8553374,13.4491092],[103.855339,13.4490373],[103.8553888,13.4490384],[103.8553905,13.4489621],[103.8553408,13.448961],[103.8553426,13.4488842],[103.8552714,13.4488826]]]}},{"type":"Feature","properties":{"id":"osm-way-194606982","name":"圣琵琶寺群 · X寺","nameEn":"Preah Pithu X","category":"temples","origin":"osm","sourceUrl":"https://www.openstreetmap.org/way/194606982","sourceTitle":"OpenStreetMap 现状矢量","license":"ODbL","licenseUrl":"https://www.openstreetmap.org/copyright","referenceUrl":"https://archives.efeo.fr/index.php/fca-2-dg-2756","note":"保留现状标绘几何，建筑、围区和水体分别显示；不代表全部构件的考古实测或同一建设年代。","label":true,"labelCoordinates":[103.86195635,13.448717550000001]},"geometry":{"type":"Polygon","coordinates":[[[103.8618988,13.4485529],[103.8618296,13.4485526],[103.8618293,13.4485993],[103.8617875,13.4485991],[103.8617872,13.4486662],[103.8617568,13.4486661],[103.8617562,13.4487707],[103.8617866,13.4487708],[103.8617863,13.4488343],[103.8618281,13.4488345],[103.8618278,13.4488786],[103.861897,13.448879],[103.8618969,13.4489094],[103.8620129,13.4489099],[103.8620131,13.4488796],[103.8620823,13.4488799],[103.8620825,13.4488358],[103.862123,13.448836],[103.8621233,13.4487725],[103.8621559,13.4487727],[103.8621565,13.4486681],[103.8621239,13.4486679],[103.8621242,13.4486008],[103.8620838,13.4486006],[103.862084,13.4485539],[103.8620148,13.4485535],[103.862015,13.4485258],[103.8618989,13.4485252],[103.8618988,13.4485529]]]}},{"type":"Feature","properties":{"id":"osm-way-194607510","name":"寺庙遗迹构件","nameEn":"","category":"temples","origin":"osm","sourceUrl":"https://www.openstreetmap.org/way/194607510","sourceTitle":"OpenStreetMap 现状矢量","license":"ODbL","licenseUrl":"https://www.openstreetmap.org/copyright","referenceUrl":"https://archives.efeo.fr/index.php/fca-2-dg-2756","note":"保留现状标绘几何，建筑、围区和水体分别显示；不代表全部构件的考古实测或同一建设年代。","label":false,"labelCoordinates":[103.86092414999999,13.446261400000001]},"geometry":{"type":"Polygon","coordinates":[[[103.860841,13.4463346],[103.8608446,13.4461845],[103.8610073,13.4461883],[103.8610037,13.4463383],[103.860841,13.4463346]]]}},{"type":"Feature","properties":{"id":"osm-way-203914784","name":"王宫女池","nameEn":"Sras Srei","category":"water","origin":"osm","sourceUrl":"https://www.openstreetmap.org/way/203914784","sourceTitle":"OpenStreetMap 现状矢量","license":"ODbL","licenseUrl":"https://www.openstreetmap.org/copyright","referenceUrl":"https://archives.efeo.fr/index.php/fca-2-dg-2756","note":"保留现状标绘几何，建筑、围区和水体分别显示；不代表全部构件的考古实测或同一建设年代。","label":true,"labelCoordinates":[103.8563811,13.44654615]},"geometry":{"type":"Polygon","coordinates":[[[103.8557149,13.4467799],[103.8570445,13.4467871],[103.8570473,13.4463127],[103.8557177,13.4463052],[103.8557149,13.4467799]]]}},{"type":"Feature","properties":{"id":"osm-way-203914835","name":"王宫安东池","nameEn":"Srah Andong","category":"water","origin":"osm","sourceUrl":"https://www.openstreetmap.org/way/203914835","sourceTitle":"OpenStreetMap 现状矢量","license":"ODbL","licenseUrl":"https://www.openstreetmap.org/copyright","referenceUrl":"https://archives.efeo.fr/index.php/fca-2-dg-2756","note":"保留现状标绘几何，建筑、围区和水体分别显示；不代表全部构件的考古实测或同一建设年代。","label":true,"labelCoordinates":[103.8611742,13.4452253]},"geometry":{"type":"Polygon","coordinates":[[[103.860786,13.4454188],[103.8607891,13.4450261],[103.8615624,13.4450318],[103.8615593,13.4454245],[103.860786,13.4454188]]]}},{"type":"Feature","properties":{"id":"osm-way-222050839","name":"普利安贡寺","nameEn":"Wat Preah Angkong Chum","category":"temples","origin":"osm","sourceUrl":"https://www.openstreetmap.org/way/222050839","sourceTitle":"OpenStreetMap 现状矢量","license":"ODbL","licenseUrl":"https://www.openstreetmap.org/copyright","referenceUrl":"https://archives.efeo.fr/index.php/fca-2-dg-2756","note":"保留现状标绘几何，建筑、围区和水体分别显示；不代表全部构件的考古实测或同一建设年代。","label":true,"labelCoordinates":[103.85871359999999,13.4305104]},"geometry":{"type":"Polygon","coordinates":[[[103.8586211,13.4305649],[103.8588057,13.4305653],[103.8588061,13.4304559],[103.8586215,13.4304555],[103.8586211,13.4305649]]]}},{"type":"Feature","properties":{"id":"osm-way-240141751","name":"巴芳寺","nameEn":"Baphuon temple","category":"temples","origin":"osm","sourceUrl":"https://www.openstreetmap.org/way/240141751","sourceTitle":"OpenStreetMap 现状矢量","license":"ODbL","licenseUrl":"https://www.openstreetmap.org/copyright","referenceUrl":"https://archives.efeo.fr/index.php/fca-2-dg-2756","note":"保留现状标绘几何，建筑、围区和水体分别显示；不代表全部构件的考古实测或同一建设年代。","label":true,"labelCoordinates":[103.85621685000001,13.4437968]},"geometry":{"type":"Polygon","coordinates":[[[103.8558637,13.4439341],[103.8558613,13.4440794],[103.8561263,13.4440835],[103.8561256,13.4441223],[103.8561883,13.4441233],[103.8562435,13.4441245],[103.8562443,13.4440887],[103.8565075,13.4440942],[103.8565078,13.444],[103.8565127,13.4438461],[103.8565709,13.4438469],[103.8565724,13.4437409],[103.8565141,13.4437401],[103.8565149,13.4436076],[103.8565169,13.4434773],[103.8561935,13.443474],[103.8558717,13.4434691],[103.8558637,13.4439341]]]}},{"type":"Feature","properties":{"id":"osm-way-253036803","name":"城内水池／沟渠","nameEn":"","category":"water","origin":"osm","sourceUrl":"https://www.openstreetmap.org/way/253036803","sourceTitle":"OpenStreetMap 现状矢量","license":"ODbL","licenseUrl":"https://www.openstreetmap.org/copyright","referenceUrl":"https://archives.efeo.fr/index.php/fca-2-dg-2756","note":"保留现状标绘几何，建筑、围区和水体分别显示；不代表全部构件的考古实测或同一建设年代。","label":false,"labelCoordinates":[103.86118880000001,13.450116000000001]},"geometry":{"type":"Polygon","coordinates":[[[103.8608314,13.4497665],[103.8610392,13.4497809],[103.8612565,13.4497917],[103.8614389,13.4497991],[103.8616319,13.4498104],[103.8616522,13.4498751],[103.8616642,13.4499573],[103.8616571,13.4501126],[103.8616512,13.4502555],[103.8616397,13.4503578],[103.8616227,13.4504243],[103.8615878,13.4504543],[103.8615177,13.4504655],[103.8613368,13.4504506],[103.8611518,13.4504465],[103.860932,13.4504432],[103.8608368,13.4504256],[103.8607776,13.4503411],[103.8607385,13.4502193],[103.8607168,13.4500697],[103.8607134,13.4499221],[103.8607505,13.449778],[103.8608314,13.4497665]]]}},{"type":"Feature","properties":{"id":"osm-way-253123010","name":"寺庙遗迹构件","nameEn":"","category":"temples","origin":"osm","sourceUrl":"https://www.openstreetmap.org/way/253123010","sourceTitle":"OpenStreetMap 现状矢量","license":"ODbL","licenseUrl":"https://www.openstreetmap.org/copyright","referenceUrl":"https://archives.efeo.fr/index.php/fca-2-dg-2756","note":"保留现状标绘几何，建筑、围区和水体分别显示；不代表全部构件的考古实测或同一建设年代。","label":false,"labelCoordinates":[103.8605931,13.44837515]},"geometry":{"type":"Polygon","coordinates":[[[103.8603964,13.448563],[103.8603966,13.4481873],[103.8607898,13.4481892],[103.8607843,13.448562],[103.8603964,13.448563]]]}},{"type":"Feature","properties":{"id":"osm-way-253123012","name":"城内水池／沟渠","nameEn":"","category":"water","origin":"osm","sourceUrl":"https://www.openstreetmap.org/way/253123012","sourceTitle":"OpenStreetMap 现状矢量","license":"ODbL","licenseUrl":"https://www.openstreetmap.org/copyright","referenceUrl":"https://archives.efeo.fr/index.php/fca-2-dg-2756","note":"保留现状标绘几何，建筑、围区和水体分别显示；不代表全部构件的考古实测或同一建设年代。","label":false,"labelCoordinates":[103.8608792,13.448415050000001]},"geometry":{"type":"Polygon","coordinates":[[[103.8601902,13.4485185],[103.8602759,13.448519],[103.8602778,13.4487021],[103.8614683,13.4487025],[103.8614717,13.4481378],[103.8602752,13.448131],[103.8602742,13.4482915],[103.8601868,13.4482914],[103.8601887,13.4480429],[103.8615716,13.4480433],[103.8615671,13.4487872],[103.8601889,13.4487836],[103.8601902,13.4485185]]]}},{"type":"Feature","properties":{"id":"osm-way-253124615","name":"道梅寺","nameEn":"Prasat Daun Mea","category":"temples","origin":"osm","sourceUrl":"https://www.openstreetmap.org/way/253124615","sourceTitle":"OpenStreetMap 现状矢量","license":"ODbL","licenseUrl":"https://www.openstreetmap.org/copyright","referenceUrl":"https://archives.efeo.fr/index.php/fca-2-dg-2756","note":"保留现状标绘几何，建筑、围区和水体分别显示；不代表全部构件的考古实测或同一建设年代。","label":true,"labelCoordinates":[103.86118185000001,13.449020149999999]},"geometry":{"type":"Polygon","coordinates":[[[103.8610926,13.44899],[103.8610379,13.4489895],[103.8610374,13.4490444],[103.8610921,13.4490449],[103.8610916,13.4490965],[103.8611388,13.4490969],[103.8611385,13.4491278],[103.8612196,13.4491285],[103.8612199,13.4490976],[103.8612712,13.4490981],[103.8612717,13.4490465],[103.8613258,13.449047],[103.8613263,13.4489921],[103.8612722,13.4489916],[103.8612726,13.4489465],[103.8612213,13.448946],[103.8612217,13.4489126],[103.8611406,13.4489118],[103.8611403,13.4489453],[103.861093,13.4489448],[103.8610926,13.44899]]]}},{"type":"Feature","properties":{"id":"osm-way-253124616","name":"甘多耶寺","nameEn":"Kandork Yeak temple","category":"temples","origin":"osm","sourceUrl":"https://www.openstreetmap.org/way/253124616","sourceTitle":"OpenStreetMap 现状矢量","license":"ODbL","licenseUrl":"https://www.openstreetmap.org/copyright","referenceUrl":"https://archives.efeo.fr/index.php/fca-2-dg-2756","note":"保留现状标绘几何，建筑、围区和水体分别显示；不代表全部构件的考古实测或同一建设年代。","label":true,"labelCoordinates":[103.86127400000001,13.449327]},"geometry":{"type":"Polygon","coordinates":[[[103.861001,13.4493965],[103.8610017,13.4492551],[103.861547,13.4492574],[103.8615463,13.4493989],[103.861001,13.4493965]]]}},{"type":"Feature","properties":{"id":"osm-way-253126207","name":"城内水池／沟渠","nameEn":"","category":"water","origin":"osm","sourceUrl":"https://www.openstreetmap.org/way/253126207","sourceTitle":"OpenStreetMap 现状矢量","license":"ODbL","licenseUrl":"https://www.openstreetmap.org/copyright","referenceUrl":"https://archives.efeo.fr/index.php/fca-2-dg-2756","note":"保留现状标绘几何，建筑、围区和水体分别显示；不代表全部构件的考古实测或同一建设年代。","label":false,"labelCoordinates":[103.86336605,13.448543950000001]},"geometry":{"type":"Polygon","coordinates":[[[103.8616809,13.4484083],[103.8616826,13.4479561],[103.8619097,13.4479891],[103.8619164,13.4480673],[103.8623455,13.4480869],[103.8623482,13.4479826],[103.8636738,13.4480922],[103.8640229,13.4481446],[103.8642947,13.4481156],[103.8647922,13.4481127],[103.8650419,13.4481595],[103.8650512,13.4485798],[103.8650269,13.4488163],[103.8650053,13.449068],[103.864622,13.4491183],[103.8643688,13.4491318],[103.8639686,13.449126],[103.8637053,13.4490823],[103.8635206,13.4490022],[103.8634517,13.4488814],[103.8634098,13.4487395],[103.8633686,13.4486182],[103.8631916,13.4484836],[103.86243,13.4484221],[103.8616809,13.4484083]]]}},{"type":"Feature","properties":{"id":"osm-way-399367952","name":"寺庙遗迹构件","nameEn":"","category":"temples","origin":"osm","sourceUrl":"https://www.openstreetmap.org/way/399367952","sourceTitle":"OpenStreetMap 现状矢量","license":"ODbL","licenseUrl":"https://www.openstreetmap.org/copyright","referenceUrl":"https://archives.efeo.fr/index.php/fca-2-dg-2756","note":"保留现状标绘几何，建筑、围区和水体分别显示；不代表全部构件的考古实测或同一建设年代。","label":false,"labelCoordinates":[103.86064065,13.447088099999998]},"geometry":{"type":"Polygon","coordinates":[[[103.8605957,13.4471324],[103.8605945,13.447045],[103.8606855,13.4470438],[103.8606868,13.4471312],[103.8605957,13.4471324]]]}},{"type":"Feature","properties":{"id":"osm-way-447536478","name":"吴哥城墙段","nameEn":"","category":"walls","origin":"osm","sourceUrl":"https://www.openstreetmap.org/way/447536478","sourceTitle":"OpenStreetMap 现状矢量","license":"ODbL","licenseUrl":"https://www.openstreetmap.org/copyright","referenceUrl":"https://archives.efeo.fr/index.php/fca-2-dg-2756","note":"保留现状标绘几何，建筑、围区和水体分别显示；不代表全部构件的考古实测或同一建设年代。","label":false,"labelCoordinates":[103.8741262,13.460361299999999],"role":"wall"},"geometry":{"type":"LineString","coordinates":[[103.876299,13.4618627],[103.8763784,13.4589948],[103.871874,13.4588599]]}},{"type":"Feature","properties":{"id":"osm-way-447536482","name":"吴哥城墙段","nameEn":"","category":"walls","origin":"osm","sourceUrl":"https://www.openstreetmap.org/way/447536482","sourceTitle":"OpenStreetMap 现状矢量","license":"ODbL","licenseUrl":"https://www.openstreetmap.org/copyright","referenceUrl":"https://archives.efeo.fr/index.php/fca-2-dg-2756","note":"保留现状标绘几何，建筑、围区和水体分别显示；不代表全部构件的考古实测或同一建设年代。","label":false,"labelCoordinates":[103.87001715,13.46023275],"role":"wall"},"geometry":{"type":"LineString","coordinates":[[103.8715086,13.4588532],[103.8685942,13.4587646],[103.8685257,13.4617009]]}},{"type":"Feature","properties":{"id":"osm-way-471873113","name":"吴哥城西门","nameEn":"Angkor Thom West Gate","category":"walls","origin":"osm","sourceUrl":"https://www.openstreetmap.org/way/471873113","sourceTitle":"OpenStreetMap 现状矢量","license":"ODbL","licenseUrl":"https://www.openstreetmap.org/copyright","referenceUrl":"https://archives.efeo.fr/index.php/fca-2-dg-2756","note":"保留现状标绘几何，建筑、围区和水体分别显示；不代表全部构件的考古实测或同一建设年代。","label":true,"labelCoordinates":[103.84485585,13.44098455],"role":"gate"},"geometry":{"type":"Polygon","coordinates":[[[103.8447834,13.4411539],[103.8448525,13.4411546],[103.8449203,13.4411566],[103.8449283,13.4408159],[103.8448649,13.4408156],[103.8447893,13.4408125],[103.8447834,13.4411539]]]}},{"type":"Feature","properties":{"id":"osm-way-471873115","name":"吴哥城南门","nameEn":"Angkor Thom South Gate","category":"walls","origin":"osm","sourceUrl":"https://www.openstreetmap.org/way/471873115","sourceTitle":"OpenStreetMap 现状矢量","license":"ODbL","licenseUrl":"https://www.openstreetmap.org/copyright","referenceUrl":"https://archives.efeo.fr/index.php/fca-2-dg-2756","note":"保留现状标绘几何，建筑、围区和水体分别显示；不代表全部构件的考古实测或同一建设年代。","label":true,"labelCoordinates":[103.85951515,13.42755895],"role":"gate"},"geometry":{"type":"Polygon","coordinates":[[[103.8594649,13.4275302],[103.8593844,13.4275298],[103.8593841,13.4275857],[103.8594646,13.4275861],[103.8594643,13.4276238],[103.8595636,13.4276243],[103.8595638,13.4275866],[103.8596459,13.4275871],[103.8596462,13.4275312],[103.8595641,13.4275308],[103.8595643,13.4274941],[103.8594651,13.4274936],[103.8594649,13.4275302]]]}},{"type":"Feature","properties":{"id":"osm-way-471873117","name":"吴哥城北门","nameEn":"Angkor Thom North Gate","category":"walls","origin":"osm","sourceUrl":"https://www.openstreetmap.org/way/471873117","sourceTitle":"OpenStreetMap 现状矢量","license":"ODbL","licenseUrl":"https://www.openstreetmap.org/copyright","referenceUrl":"https://archives.efeo.fr/index.php/fca-2-dg-2756","note":"保留现状标绘几何，建筑、围区和水体分别显示；不代表全部构件的考古实测或同一建设年代。","label":true,"labelCoordinates":[103.85903429999999,13.4548853],"role":"gate"},"geometry":{"type":"Polygon","coordinates":[[[103.8587883,13.4547752],[103.8592832,13.4547817],[103.8592803,13.4549954],[103.8592743,13.4549954],[103.8588043,13.4549892],[103.8587854,13.454989],[103.8587883,13.4547752]]]}},{"type":"Feature","properties":{"id":"osm-way-472034797","name":"吴哥城墙段","nameEn":"","category":"walls","origin":"osm","sourceUrl":"https://www.openstreetmap.org/way/472034797","sourceTitle":"OpenStreetMap 现状矢量","license":"ODbL","licenseUrl":"https://www.openstreetmap.org/copyright","referenceUrl":"https://archives.efeo.fr/index.php/fca-2-dg-2756","note":"保留现状标绘几何，建筑、围区和水体分别显示；不代表全部构件的考古实测或同一建设年代。","label":false,"labelCoordinates":[103.8564882,13.4440761],"role":"wall"},"geometry":{"type":"LineString","coordinates":[[103.8567304,13.4439255],[103.8567352,13.4442267],[103.8562412,13.4442189]]}},{"type":"Feature","properties":{"id":"osm-way-472034798","name":"吴哥城墙段","nameEn":"","category":"walls","origin":"osm","sourceUrl":"https://www.openstreetmap.org/way/472034798","sourceTitle":"OpenStreetMap 现状矢量","license":"ODbL","licenseUrl":"https://www.openstreetmap.org/copyright","referenceUrl":"https://archives.efeo.fr/index.php/fca-2-dg-2756","note":"保留现状标绘几何，建筑、围区和水体分别显示；不代表全部构件的考古实测或同一建设年代。","label":false,"labelCoordinates":[103.85650745,13.443479199999999],"role":"wall"},"geometry":{"type":"LineString","coordinates":[[103.8562683,13.4433332],[103.8567466,13.4433386],[103.8567378,13.4436252]]}},{"type":"Feature","properties":{"id":"osm-way-472034799","name":"吴哥城墙段","nameEn":"","category":"walls","origin":"osm","sourceUrl":"https://www.openstreetmap.org/way/472034799","sourceTitle":"OpenStreetMap 现状矢量","license":"ODbL","licenseUrl":"https://www.openstreetmap.org/copyright","referenceUrl":"https://archives.efeo.fr/index.php/fca-2-dg-2756","note":"保留现状标绘几何，建筑、围区和水体分别显示；不代表全部构件的考古实测或同一建设年代。","label":false,"labelCoordinates":[103.8558581,13.444045500000001],"role":"wall"},"geometry":{"type":"LineString","coordinates":[[103.8561158,13.4442219],[103.8556004,13.4442129],[103.8556048,13.4438691]]}},{"type":"Feature","properties":{"id":"osm-way-472035505","name":"吴哥城墙段","nameEn":"","category":"walls","origin":"osm","sourceUrl":"https://www.openstreetmap.org/way/472035505","sourceTitle":"OpenStreetMap 现状矢量","license":"ODbL","licenseUrl":"https://www.openstreetmap.org/copyright","referenceUrl":"https://archives.efeo.fr/index.php/fca-2-dg-2756","note":"保留现状标绘几何，建筑、围区和水体分别显示；不代表全部构件的考古实测或同一建设年代。","label":false,"labelCoordinates":[103.8592242,13.44152195],"role":"wall"},"geometry":{"type":"LineString","coordinates":[[103.8589832,13.4417192],[103.8594592,13.4417256],[103.8594652,13.4413183]]}},{"type":"Feature","properties":{"id":"osm-way-472035506","name":"吴哥城墙段","nameEn":"","category":"walls","origin":"osm","sourceUrl":"https://www.openstreetmap.org/way/472035506","sourceTitle":"OpenStreetMap 现状矢量","license":"ODbL","licenseUrl":"https://www.openstreetmap.org/copyright","referenceUrl":"https://archives.efeo.fr/index.php/fca-2-dg-2756","note":"保留现状标绘几何，建筑、围区和水体分别显示；不代表全部构件的考古实测或同一建设年代。","label":false,"labelCoordinates":[103.8592241,13.44095435],"role":"wall"},"geometry":{"type":"LineString","coordinates":[[103.859467,13.4411807],[103.8594725,13.440734],[103.8589757,13.440728]]}},{"type":"Feature","properties":{"id":"osm-way-472035507","name":"吴哥城墙段","nameEn":"","category":"walls","origin":"osm","sourceUrl":"https://www.openstreetmap.org/way/472035507","sourceTitle":"OpenStreetMap 现状矢量","license":"ODbL","licenseUrl":"https://www.openstreetmap.org/copyright","referenceUrl":"https://archives.efeo.fr/index.php/fca-2-dg-2756","note":"保留现状标绘几何，建筑、围区和水体分别显示；不代表全部构件的考古实测或同一建设年代。","label":false,"labelCoordinates":[103.85858875,13.44093415],"role":"wall"},"geometry":{"type":"LineString","coordinates":[[103.8588042,13.4407256],[103.8583791,13.4407201],[103.8583733,13.4411482]]}},{"type":"Feature","properties":{"id":"osm-way-472035508","name":"吴哥城墙段","nameEn":"","category":"walls","origin":"osm","sourceUrl":"https://www.openstreetmap.org/way/472035508","sourceTitle":"OpenStreetMap 现状矢量","license":"ODbL","licenseUrl":"https://www.openstreetmap.org/copyright","referenceUrl":"https://archives.efeo.fr/index.php/fca-2-dg-2756","note":"保留现状标绘几何，建筑、围区和水体分别显示；不代表全部构件的考古实测或同一建设年代。","label":false,"labelCoordinates":[103.85860265,13.4415053],"role":"wall"},"geometry":{"type":"LineString","coordinates":[[103.8583714,13.4412917],[103.8583657,13.4417117],[103.8588396,13.4417189]]}},{"type":"Feature","properties":{"id":"osm-way-474802331","name":"西托普寺","nameEn":"Prasat Top West","category":"temples","origin":"osm","sourceUrl":"https://www.openstreetmap.org/way/474802331","sourceTitle":"OpenStreetMap 现状矢量","license":"ODbL","licenseUrl":"https://www.openstreetmap.org/copyright","referenceUrl":"https://archives.efeo.fr/index.php/fca-2-dg-2756","note":"保留现状标绘几何，建筑、围区和水体分别显示；不代表全部构件的考古实测或同一建设年代。","label":true,"labelCoordinates":[103.8518569,13.4391586]},"geometry":{"type":"Polygon","coordinates":[[[103.8517522,13.4391239],[103.851736,13.4391234],[103.8517337,13.4391926],[103.8517499,13.4391932],[103.8517474,13.4392658],[103.8518218,13.4392682],[103.8518243,13.4391955],[103.8519777,13.4392005],[103.8519801,13.4391312],[103.8518266,13.4391263],[103.8518292,13.4390514],[103.8517548,13.439049],[103.8517522,13.4391239]]]}},{"type":"Feature","properties":{"id":"osm-way-474805380","name":"寺庙遗迹构件","nameEn":"Prasat Tonle Sngout","category":"temples","origin":"osm","sourceUrl":"https://www.openstreetmap.org/way/474805380","sourceTitle":"OpenStreetMap 现状矢量","license":"ODbL","licenseUrl":"https://www.openstreetmap.org/copyright","referenceUrl":"https://archives.efeo.fr/index.php/fca-2-dg-2756","note":"保留现状标绘几何，建筑、围区和水体分别显示；不代表全部构件的考古实测或同一建设年代。","label":false,"labelCoordinates":[103.8612148,13.44460015]},"geometry":{"type":"Polygon","coordinates":[[[103.8612201,13.4446315],[103.8612201,13.4445688],[103.8612095,13.4445688],[103.8612095,13.4446315],[103.8612201,13.4446315]]]}},{"type":"Feature","properties":{"id":"osm-way-476283313","name":"吴哥城墙段","nameEn":"","category":"walls","origin":"osm","sourceUrl":"https://www.openstreetmap.org/way/476283313","sourceTitle":"OpenStreetMap 现状矢量","license":"ODbL","licenseUrl":"https://www.openstreetmap.org/copyright","referenceUrl":"https://archives.efeo.fr/index.php/fca-2-dg-2756","note":"保留现状标绘几何，建筑、围区和水体分别显示；不代表全部构件的考古实测或同一建设年代。","label":false,"labelCoordinates":[103.86931395,13.450671700000001],"role":"wall"},"geometry":{"type":"LineString","coordinates":[[103.8730859,13.4461873],[103.872893,13.4551561],[103.865542,13.4550599]]}},{"type":"Feature","properties":{"id":"osm-way-476283315","name":"吴哥城墙段","nameEn":"","category":"walls","origin":"osm","sourceUrl":"https://www.openstreetmap.org/way/476283315","sourceTitle":"OpenStreetMap 现状矢量","license":"ODbL","licenseUrl":"https://www.openstreetmap.org/copyright","referenceUrl":"https://archives.efeo.fr/index.php/fca-2-dg-2756","note":"保留现状标绘几何，建筑、围区和水体分别显示；不代表全部构件的考古实测或同一建设年代。","label":false,"labelCoordinates":[103.87312539999999,13.44374205],"role":"wall"},"geometry":{"type":"LineString","coordinates":[[103.8731643,13.4415463],[103.8730865,13.4459378]]}},{"type":"Feature","properties":{"id":"osm-way-476283316","name":"吴哥城墙段","nameEn":"","category":"walls","origin":"osm","sourceUrl":"https://www.openstreetmap.org/way/476283316","sourceTitle":"OpenStreetMap 现状矢量","license":"ODbL","licenseUrl":"https://www.openstreetmap.org/copyright","referenceUrl":"https://archives.efeo.fr/index.php/fca-2-dg-2756","note":"保留现状标绘几何，建筑、围区和水体分别显示；不代表全部构件的考古实测或同一建设年代。","label":false,"labelCoordinates":[103.84845535,13.44804075],"role":"wall"},"geometry":{"type":"LineString","coordinates":[[103.8525411,13.4549269],[103.8443696,13.4547884],[103.8448525,13.4411546]]}},{"type":"Feature","properties":{"id":"osm-way-476283317","name":"吴哥城墙段","nameEn":"","category":"walls","origin":"osm","sourceUrl":"https://www.openstreetmap.org/way/476283317","sourceTitle":"OpenStreetMap 现状矢量","license":"ODbL","licenseUrl":"https://www.openstreetmap.org/copyright","referenceUrl":"https://archives.efeo.fr/index.php/fca-2-dg-2756","note":"保留现状标绘几何，建筑、围区和水体分别显示；不代表全部构件的考古实测或同一建设年代。","label":false,"labelCoordinates":[103.8521245,13.43407505],"role":"wall"},"geometry":{"type":"LineString","coordinates":[[103.8448649,13.4408156],[103.8452853,13.4273345],[103.8593841,13.4275857]]}},{"type":"Feature","properties":{"id":"osm-way-476283318","name":"吴哥城墙段","nameEn":"","category":"walls","origin":"osm","sourceUrl":"https://www.openstreetmap.org/way/476283318","sourceTitle":"OpenStreetMap 现状矢量","license":"ODbL","licenseUrl":"https://www.openstreetmap.org/copyright","referenceUrl":"https://archives.efeo.fr/index.php/fca-2-dg-2756","note":"保留现状标绘几何，建筑、围区和水体分别显示；不代表全部构件的考古实测或同一建设年代。","label":false,"labelCoordinates":[103.86653375,13.434449950000001],"role":"wall"},"geometry":{"type":"LineString","coordinates":[[103.8596459,13.4275871],[103.8598524,13.4275904],[103.8734216,13.4277397],[103.8731701,13.4413128]]}},{"type":"Feature","properties":{"id":"osm-way-476283319","name":"吴哥城墙段","nameEn":"","category":"walls","origin":"osm","sourceUrl":"https://www.openstreetmap.org/way/476283319","sourceTitle":"OpenStreetMap 现状矢量","license":"ODbL","licenseUrl":"https://www.openstreetmap.org/copyright","referenceUrl":"https://archives.efeo.fr/index.php/fca-2-dg-2756","note":"保留现状标绘几何，建筑、围区和水体分别显示；不代表全部构件的考古实测或同一建设年代。","label":false,"labelCoordinates":[103.864393,13.4550542],"role":"wall"},"geometry":{"type":"LineString","coordinates":[[103.86538,13.4550597],[103.863406,13.4550487]]}},{"type":"Feature","properties":{"id":"osm-way-476329227","name":"城内水池／沟渠","nameEn":"","category":"water","origin":"osm","sourceUrl":"https://www.openstreetmap.org/way/476329227","sourceTitle":"OpenStreetMap 现状矢量","license":"ODbL","licenseUrl":"https://www.openstreetmap.org/copyright","referenceUrl":"https://archives.efeo.fr/index.php/fca-2-dg-2756","note":"保留现状标绘几何，建筑、围区和水体分别显示；不代表全部构件的考古实测或同一建设年代。","label":false,"labelCoordinates":[103.8737285,13.44379485]},"geometry":{"type":"Polygon","coordinates":[[[103.8741674,13.4459933],[103.8741422,13.4416062],[103.8738056,13.4416026],[103.8734694,13.4415964],[103.8733469,13.4416669],[103.8732896,13.4418236],[103.8733211,13.4459792],[103.8736908,13.4459876],[103.8741674,13.4459933]]]}},{"type":"Feature","properties":{"id":"osm-way-476329229","name":"城内水池／沟渠","nameEn":"","category":"water","origin":"osm","sourceUrl":"https://www.openstreetmap.org/way/476329229","sourceTitle":"OpenStreetMap 现状矢量","license":"ODbL","licenseUrl":"https://www.openstreetmap.org/copyright","referenceUrl":"https://archives.efeo.fr/index.php/fca-2-dg-2756","note":"保留现状标绘几何，建筑、围区和水体分别显示；不代表全部构件的考古实测或同一建设年代。","label":false,"labelCoordinates":[103.8666291,13.45118495]},"geometry":{"type":"Polygon","coordinates":[[[103.8590933,13.4559769],[103.8636645,13.4560404],[103.8738093,13.4561914],[103.8738182,13.4557966],[103.8741649,13.4461924],[103.8736898,13.4461896],[103.873317,13.4461785],[103.8730317,13.4553308],[103.8591014,13.4552006],[103.8590933,13.4559769]]]}},{"type":"Feature","properties":{"id":"osm-way-513951135","name":"吴哥城墙段","nameEn":"","category":"walls","origin":"osm","sourceUrl":"https://www.openstreetmap.org/way/513951135","sourceTitle":"OpenStreetMap 现状矢量","license":"ODbL","licenseUrl":"https://www.openstreetmap.org/copyright","referenceUrl":"https://archives.efeo.fr/index.php/fca-2-dg-2756","note":"保留现状标绘几何，建筑、围区和水体分别显示；不代表全部构件的考古实测或同一建设年代。","label":false,"labelCoordinates":[103.8568736,13.4464366],"role":"wall"},"geometry":{"type":"LineString","coordinates":[[103.8553618,13.4469088],[103.857893,13.4469179],[103.85835,13.4469176],[103.8583552,13.4459553],[103.8583854,13.4459557]]}},{"type":"Feature","properties":{"id":"osm-way-571346797","name":"城内水池／沟渠","nameEn":"","category":"water","origin":"osm","sourceUrl":"https://www.openstreetmap.org/way/571346797","sourceTitle":"OpenStreetMap 现状矢量","license":"ODbL","licenseUrl":"https://www.openstreetmap.org/copyright","referenceUrl":"https://archives.efeo.fr/index.php/fca-2-dg-2756","note":"保留现状标绘几何，建筑、围区和水体分别显示；不代表全部构件的考古实测或同一建设年代。","label":false,"labelCoordinates":[103.8597889,13.43162515]},"geometry":{"type":"Polygon","coordinates":[[[103.8596807,13.4292493],[103.859697,13.4291038],[103.8596506,13.4287733],[103.8596811,13.428641],[103.8597279,13.4285772],[103.8597303,13.4284974],[103.859667,13.4284609],[103.8596553,13.4282786],[103.8599998,13.4282011],[103.8599881,13.4284587],[103.8599201,13.4287026],[103.8599324,13.4290941],[103.8599105,13.4293448],[103.8598993,13.4295067],[103.8598895,13.4296192],[103.8598781,13.4298691],[103.8598735,13.4302006],[103.8599061,13.4308068],[103.8598686,13.4314588],[103.8598498,13.4322407],[103.8598217,13.4329725],[103.8597818,13.4337817],[103.8597748,13.434664],[103.8597572,13.4349991],[103.8596096,13.4350492],[103.8596248,13.4346526],[103.8596553,13.4339026],[103.8596951,13.4322521],[103.8597139,13.4313995],[103.8597022,13.4306449],[103.8596764,13.4299868],[103.8596721,13.4297445],[103.8596646,13.4294991],[103.8595803,13.4294526],[103.8595787,13.4294408],[103.859578,13.4294201],[103.8596647,13.4293842],[103.8596807,13.4292493]]]}},{"type":"Feature","properties":{"id":"osm-way-572387373","name":"城内水池／沟渠","nameEn":"","category":"water","origin":"osm","sourceUrl":"https://www.openstreetmap.org/way/572387373","sourceTitle":"OpenStreetMap 现状矢量","license":"ODbL","licenseUrl":"https://www.openstreetmap.org/copyright","referenceUrl":"https://archives.efeo.fr/index.php/fca-2-dg-2756","note":"保留现状标绘几何，建筑、围区和水体分别显示；不代表全部构件的考古实测或同一建设年代。","label":false,"labelCoordinates":[103.86115215000001,13.4465597]},"geometry":{"type":"Polygon","coordinates":[[[103.8607504,13.446361],[103.861557,13.4463717],[103.8615515,13.4467584],[103.8608357,13.4467489],[103.860838,13.446584],[103.8607473,13.4465828],[103.8607504,13.446361]]]}},{"type":"Feature","properties":{"id":"osm-way-572387391","name":"城内水池／沟渠","nameEn":"","category":"water","origin":"osm","sourceUrl":"https://www.openstreetmap.org/way/572387391","sourceTitle":"OpenStreetMap 现状矢量","license":"ODbL","licenseUrl":"https://www.openstreetmap.org/copyright","referenceUrl":"https://archives.efeo.fr/index.php/fca-2-dg-2756","note":"保留现状标绘几何，建筑、围区和水体分别显示；不代表全部构件的考古实测或同一建设年代。","label":false,"labelCoordinates":[103.85276255,13.43036635]},"geometry":{"type":"Polygon","coordinates":[[[103.8526672,13.4303011],[103.852627,13.4303925],[103.8526699,13.4304864],[103.8527692,13.4304943],[103.8528793,13.4304551],[103.8528981,13.4303272],[103.8528712,13.4302515],[103.8527424,13.4302384],[103.8526672,13.4303011]]]}},{"type":"Feature","properties":{"id":"osm-way-575522019","name":"城内水池／沟渠","nameEn":"","category":"water","origin":"osm","sourceUrl":"https://www.openstreetmap.org/way/575522019","sourceTitle":"OpenStreetMap 现状矢量","license":"ODbL","licenseUrl":"https://www.openstreetmap.org/copyright","referenceUrl":"https://archives.efeo.fr/index.php/fca-2-dg-2756","note":"保留现状标绘几何，建筑、围区和水体分别显示；不代表全部构件的考古实测或同一建设年代。","label":false,"labelCoordinates":[103.873807,13.44149495]},"geometry":{"type":"LineString","coordinates":[[103.8738056,13.4416026],[103.8738084,13.4413873]]}},{"type":"Feature","properties":{"id":"osm-way-575522683","name":"城内水池／沟渠","nameEn":"","category":"water","origin":"osm","sourceUrl":"https://www.openstreetmap.org/way/575522683","sourceTitle":"OpenStreetMap 现状矢量","license":"ODbL","licenseUrl":"https://www.openstreetmap.org/copyright","referenceUrl":"https://archives.efeo.fr/index.php/fca-2-dg-2756","note":"保留现状标绘几何，建筑、围区和水体分别显示；不代表全部构件的考古实测或同一建设年代。","label":false,"labelCoordinates":[103.85952499999999,13.42707755]},"geometry":{"type":"LineString","coordinates":[[103.8594526,13.4270761],[103.8595974,13.427079]]}},{"type":"Feature","properties":{"id":"osm-way-575523941","name":"城内水池／沟渠","nameEn":"","category":"water","origin":"osm","sourceUrl":"https://www.openstreetmap.org/way/575523941","sourceTitle":"OpenStreetMap 现状矢量","license":"ODbL","licenseUrl":"https://www.openstreetmap.org/copyright","referenceUrl":"https://archives.efeo.fr/index.php/fca-2-dg-2756","note":"保留现状标绘几何，建筑、围区和水体分别显示；不代表全部构件的考古实测或同一建设年代。","label":false,"labelCoordinates":[103.84443885,13.441031899999999]},"geometry":{"type":"LineString","coordinates":[[103.8444372,13.4411104],[103.8444405,13.4409534]]}},{"type":"Feature","properties":{"id":"osm-way-576746159","name":"城内水池／沟渠","nameEn":"","category":"water","origin":"osm","sourceUrl":"https://www.openstreetmap.org/way/576746159","sourceTitle":"OpenStreetMap 现状矢量","license":"ODbL","licenseUrl":"https://www.openstreetmap.org/copyright","referenceUrl":"https://archives.efeo.fr/index.php/fca-2-dg-2756","note":"保留现状标绘几何，建筑、围区和水体分别显示；不代表全部构件的考古实测或同一建设年代。","label":false,"labelCoordinates":[103.8620337,13.4340173]},"geometry":{"type":"Polygon","coordinates":[[[103.8617857,13.4338393],[103.8617369,13.4340094],[103.8617857,13.4342071],[103.8620256,13.4342229],[103.8622898,13.4341399],[103.8623305,13.4338947],[103.8621679,13.4338314],[103.8620378,13.4338117],[103.8617857,13.4338393]]]}},{"type":"Feature","properties":{"id":"osm-way-576746164","name":"十二塔庙","nameEn":"Prasat Suor Prat","category":"temples","origin":"osm","sourceUrl":"https://www.openstreetmap.org/way/576746164","sourceTitle":"OpenStreetMap 现状矢量","license":"ODbL","licenseUrl":"https://www.openstreetmap.org/copyright","referenceUrl":"https://archives.efeo.fr/index.php/fca-2-dg-2756","note":"保留现状标绘几何，建筑、围区和水体分别显示；不代表全部构件的考古实测或同一建设年代。","label":true,"labelCoordinates":[103.86073585,13.4459465]},"geometry":{"type":"Polygon","coordinates":[[[103.8604639,13.4440443],[103.8610432,13.4440576],[103.8610118,13.4478487],[103.8604285,13.4478468],[103.8604639,13.4440443]]]}},{"type":"Feature","properties":{"id":"osm-way-576746166","name":"圣琵琶寺群围区","nameEn":"Preah Pithu Group","category":"temples","origin":"osm","sourceUrl":"https://www.openstreetmap.org/way/576746166","sourceTitle":"OpenStreetMap 现状矢量","license":"ODbL","licenseUrl":"https://www.openstreetmap.org/copyright","referenceUrl":"https://archives.efeo.fr/index.php/fca-2-dg-2756","note":"保留现状标绘几何，建筑、围区和水体分别显示；不代表全部构件的考古实测或同一建设年代。","label":true,"labelCoordinates":[103.86108495,13.4486569]},"geometry":{"type":"Polygon","coordinates":[[[103.8599015,13.4494325],[103.8622616,13.4494422],[103.8622684,13.4478814],[103.8599082,13.4478716],[103.8599036,13.4489357],[103.8599015,13.4494325]]]}},{"type":"Feature","properties":{"id":"osm-way-579869558","name":"城内水池／沟渠","nameEn":"","category":"water","origin":"osm","sourceUrl":"https://www.openstreetmap.org/way/579869558","sourceTitle":"OpenStreetMap 现状矢量","license":"ODbL","licenseUrl":"https://www.openstreetmap.org/copyright","referenceUrl":"https://archives.efeo.fr/index.php/fca-2-dg-2756","note":"保留现状标绘几何，建筑、围区和水体分别显示；不代表全部构件的考古实测或同一建设年代。","label":false,"labelCoordinates":[103.85301815,13.44225385]},"geometry":{"type":"Polygon","coordinates":[[[103.8526574,13.4422017],[103.8526252,13.4424078],[103.8526842,13.4424991],[103.852762,13.4425956],[103.8529631,13.4426243],[103.8531858,13.4426373],[103.853277,13.4426217],[103.8533306,13.4425852],[103.8533869,13.4425121],[103.8534111,13.4423191],[103.8533682,13.442173],[103.8532931,13.4420895],[103.8531321,13.4420086],[103.8530141,13.4419486],[103.8529766,13.4419017],[103.8528746,13.4418704],[103.8527727,13.4418704],[103.8527191,13.4419956],[103.8526601,13.4420739],[103.8526574,13.4422017]]]}},{"type":"Feature","properties":{"id":"osm-way-652006159","name":"吴哥城墙段","nameEn":"","category":"walls","origin":"osm","sourceUrl":"https://www.openstreetmap.org/way/652006159","sourceTitle":"OpenStreetMap 现状矢量","license":"ODbL","licenseUrl":"https://www.openstreetmap.org/copyright","referenceUrl":"https://archives.efeo.fr/index.php/fca-2-dg-2756","note":"保留现状标绘几何，建筑、围区和水体分别显示；不代表全部构件的考古实测或同一建设年代。","label":false,"labelCoordinates":[103.85835885,13.4458551],"role":"gate"},"geometry":{"type":"Polygon","coordinates":[[[103.8583233,13.4459549],[103.8583552,13.4459553],[103.8583854,13.4459557],[103.8583865,13.4458779],[103.8584151,13.4458782],[103.8584156,13.4458565],[103.8584158,13.4458297],[103.858388,13.4458294],[103.858389,13.4457553],[103.8583559,13.4457548],[103.8583254,13.4457545],[103.8583244,13.4458253],[103.8583026,13.445825],[103.8583023,13.4458528],[103.8583019,13.4458799],[103.8583243,13.4458802],[103.8583233,13.4459549]]]}},{"type":"Feature","properties":{"id":"osm-way-666473603","name":"吴哥王宫围区","nameEn":"Royal Palace of Angkor Thom","category":"temples","origin":"osm","sourceUrl":"https://www.openstreetmap.org/way/666473603","sourceTitle":"OpenStreetMap 现状矢量","license":"ODbL","licenseUrl":"https://www.openstreetmap.org/copyright","referenceUrl":"https://archives.efeo.fr/index.php/fca-2-dg-2756","note":"保留现状标绘几何，建筑、围区和水体分别显示；不代表全部构件的考古实测或同一建设年代。","label":true,"labelCoordinates":[103.85662875,13.44582045]},"geometry":{"type":"Polygon","coordinates":[[[103.8584711,13.4470582],[103.8584972,13.4446282],[103.8583685,13.4446278],[103.857898,13.4446245],[103.8562018,13.4446043],[103.8553525,13.4445942],[103.8553526,13.4445835],[103.855317,13.4445831],[103.8552861,13.4445827],[103.855286,13.4445927],[103.8552792,13.4445926],[103.8552212,13.4445919],[103.8547911,13.4445868],[103.8547603,13.4470352],[103.8584711,13.4470582]]]}},{"type":"Feature","properties":{"id":"osm-way-785463225","name":"吴哥城胜利门","nameEn":"Victory Gate","category":"walls","origin":"osm","sourceUrl":"https://www.openstreetmap.org/way/785463225","sourceTitle":"OpenStreetMap 现状矢量","license":"ODbL","licenseUrl":"https://www.openstreetmap.org/copyright","referenceUrl":"https://archives.efeo.fr/index.php/fca-2-dg-2756","note":"保留现状标绘几何，建筑、围区和水体分别显示；不代表全部构件的考古实测或同一建设年代。","label":true,"labelCoordinates":[103.8730511,13.4460625],"role":"gate"},"geometry":{"type":"Polygon","coordinates":[[[103.8730203,13.4459377],[103.8730201,13.4460139],[103.8730164,13.4460158],[103.8730027,13.446029],[103.872994,13.4460457],[103.872992,13.4460589],[103.8729911,13.4460642],[103.8729944,13.4460826],[103.8730035,13.4460991],[103.8730174,13.446112],[103.8730196,13.446113],[103.8730197,13.4461871],[103.8730515,13.4461872],[103.8730859,13.4461873],[103.8730861,13.4461107],[103.873092,13.4461071],[103.8731046,13.4460915],[103.8731111,13.4460728],[103.873111,13.4460607],[103.8731109,13.446053],[103.8731039,13.4460344],[103.873091,13.4460192],[103.873086,13.4460162],[103.8730865,13.4459378],[103.8730516,13.4459377],[103.8730203,13.4459377]]]}},{"type":"Feature","properties":{"id":"osm-way-785616805","name":"吴哥城墙段","nameEn":"","category":"walls","origin":"osm","sourceUrl":"https://www.openstreetmap.org/way/785616805","sourceTitle":"OpenStreetMap 现状矢量","license":"ODbL","licenseUrl":"https://www.openstreetmap.org/copyright","referenceUrl":"https://archives.efeo.fr/index.php/fca-2-dg-2756","note":"保留现状标绘几何，建筑、围区和水体分别显示；不代表全部构件的考古实测或同一建设年代。","label":false,"labelCoordinates":[103.8567312,13.44377595],"role":"gate"},"geometry":{"type":"Polygon","coordinates":[[[103.8567067,13.4436366],[103.8567057,13.443738],[103.8566933,13.4437455],[103.8566816,13.4437598],[103.8566754,13.4437771],[103.8566754,13.443788],[103.8566754,13.4437954],[103.8566817,13.4438127],[103.8566934,13.443827],[103.8567048,13.443834],[103.8567039,13.4439148],[103.8567561,13.4439153],[103.8567569,13.4438337],[103.8567617,13.4438319],[103.856775,13.4438199],[103.8567838,13.4438045],[103.856787,13.4437871],[103.8567844,13.4437697],[103.8567752,13.443753],[103.8567633,13.4437416],[103.8567579,13.4437385],[103.8567589,13.4436371],[103.8567067,13.4436366]]]}},{"type":"Feature","properties":{"id":"osm-way-785616814","name":"寺庙遗迹构件","nameEn":"","category":"temples","origin":"osm","sourceUrl":"https://www.openstreetmap.org/way/785616814","sourceTitle":"OpenStreetMap 现状矢量","license":"ODbL","licenseUrl":"https://www.openstreetmap.org/copyright","referenceUrl":"https://archives.efeo.fr/index.php/fca-2-dg-2756","note":"保留现状标绘几何，建筑、围区和水体分别显示；不代表全部构件的考古实测或同一建设年代。","label":false,"labelCoordinates":[103.85660505000001,13.4435915]},"geometry":{"type":"Polygon","coordinates":[[[103.8565404,13.4436107],[103.8565714,13.4436108],[103.8565746,13.443616],[103.8565847,13.4436243],[103.8565845,13.4436543],[103.8566237,13.4436546],[103.8566241,13.4436248],[103.8566331,13.4436185],[103.8566391,13.4436105],[103.8566698,13.4436105],[103.8566697,13.4435723],[103.8566397,13.4435723],[103.8566394,13.4435716],[103.8566311,13.4435618],[103.8566248,13.4435581],[103.8566249,13.4435288],[103.8565856,13.4435284],[103.8565851,13.443558],[103.8565825,13.4435592],[103.856573,13.4435681],[103.8565707,13.4435725],[103.8565403,13.4435725],[103.8565404,13.4436107]]]}},{"type":"Feature","properties":{"id":"osm-way-785616815","name":"寺庙遗迹构件","nameEn":"","category":"temples","origin":"osm","sourceUrl":"https://www.openstreetmap.org/way/785616815","sourceTitle":"OpenStreetMap 现状矢量","license":"ODbL","licenseUrl":"https://www.openstreetmap.org/copyright","referenceUrl":"https://archives.efeo.fr/index.php/fca-2-dg-2756","note":"保留现状标绘几何，建筑、围区和水体分别显示；不代表全部构件的考古实测或同一建设年代。","label":false,"labelCoordinates":[103.85660820000001,13.443961999999999]},"geometry":{"type":"Polygon","coordinates":[[[103.8565435,13.4439812],[103.8565746,13.4439813],[103.8565777,13.4439865],[103.8565878,13.4439948],[103.8565876,13.4440248],[103.8566269,13.4440251],[103.8566272,13.4439953],[103.8566363,13.443989],[103.8566422,13.443981],[103.8566729,13.443981],[103.8566729,13.4439428],[103.8566428,13.4439428],[103.8566426,13.4439421],[103.8566342,13.4439323],[103.856628,13.4439286],[103.8566281,13.4438993],[103.8565888,13.4438989],[103.8565882,13.4439285],[103.8565856,13.4439297],[103.8565761,13.4439386],[103.8565738,13.443943],[103.8565435,13.443943],[103.8565435,13.4439812]]]}},{"type":"Feature","properties":{"id":"osm-way-785616816","name":"寺庙遗迹构件","nameEn":"","category":"temples","origin":"osm","sourceUrl":"https://www.openstreetmap.org/way/785616816","sourceTitle":"OpenStreetMap 现状矢量","license":"ODbL","licenseUrl":"https://www.openstreetmap.org/copyright","referenceUrl":"https://archives.efeo.fr/index.php/fca-2-dg-2756","note":"保留现状标绘几何，建筑、围区和水体分别显示；不代表全部构件的考古实测或同一建设年代。","label":false,"labelCoordinates":[103.8557361,13.443570300000001]},"geometry":{"type":"Polygon","coordinates":[[[103.8556714,13.4435895],[103.8557024,13.4435895],[103.8557056,13.4435948],[103.8557157,13.4436031],[103.8557155,13.443633],[103.8557548,13.4436334],[103.8557551,13.4436035],[103.8557641,13.4435972],[103.8557701,13.4435892],[103.8558008,13.4435893],[103.8558007,13.443551],[103.8557707,13.443551],[103.8557704,13.4435503],[103.8557621,13.4435405],[103.8557559,13.4435368],[103.8557559,13.4435075],[103.8557166,13.4435072],[103.8557161,13.4435367],[103.8557135,13.4435379],[103.855704,13.4435468],[103.8557017,13.4435513],[103.8556714,13.4435513],[103.8556714,13.4435895]]]}},{"type":"Feature","properties":{"id":"osm-way-785616817","name":"寺庙遗迹构件","nameEn":"","category":"temples","origin":"osm","sourceUrl":"https://www.openstreetmap.org/way/785616817","sourceTitle":"OpenStreetMap 现状矢量","license":"ODbL","licenseUrl":"https://www.openstreetmap.org/copyright","referenceUrl":"https://archives.efeo.fr/index.php/fca-2-dg-2756","note":"保留现状标绘几何，建筑、围区和水体分别显示；不代表全部构件的考古实测或同一建设年代。","label":false,"labelCoordinates":[103.8557349,13.4439529]},"geometry":{"type":"Polygon","coordinates":[[[103.8556703,13.4439721],[103.8557013,13.4439722],[103.8557044,13.4439774],[103.8557145,13.4439857],[103.8557143,13.4440157],[103.8557536,13.444016],[103.8557539,13.4439862],[103.855763,13.4439799],[103.8557689,13.4439719],[103.8557996,13.4439719],[103.8557996,13.4439337],[103.8557696,13.4439337],[103.8557693,13.443933],[103.8557609,13.4439232],[103.8557547,13.4439195],[103.8557548,13.4438902],[103.8557155,13.4438898],[103.8557149,13.4439194],[103.8557123,13.4439206],[103.8557028,13.4439295],[103.8557005,13.4439339],[103.8556702,13.4439339],[103.8556703,13.4439721]]]}},{"type":"Feature","properties":{"id":"osm-way-785616822","name":"寺庙遗迹构件","nameEn":"","category":"temples","origin":"osm","sourceUrl":"https://www.openstreetmap.org/way/785616822","sourceTitle":"OpenStreetMap 现状矢量","license":"ODbL","licenseUrl":"https://www.openstreetmap.org/copyright","referenceUrl":"https://archives.efeo.fr/index.php/fca-2-dg-2756","note":"保留现状标绘几何，建筑、围区和水体分别显示；不代表全部构件的考古实测或同一建设年代。","label":false,"labelCoordinates":[103.85654255,13.4437935]},"geometry":{"type":"Polygon","coordinates":[[[103.8565127,13.4438461],[103.8565141,13.4437401],[103.8565724,13.4437409],[103.8565709,13.4438469],[103.8565127,13.4438461]]]}},{"type":"Feature","properties":{"id":"osm-way-785616823","name":"寺庙遗迹构件","nameEn":"","category":"temples","origin":"osm","sourceUrl":"https://www.openstreetmap.org/way/785616823","sourceTitle":"OpenStreetMap 现状矢量","license":"ODbL","licenseUrl":"https://www.openstreetmap.org/copyright","referenceUrl":"https://archives.efeo.fr/index.php/fca-2-dg-2756","note":"保留现状标绘几何，建筑、围区和水体分别显示；不代表全部构件的考古实测或同一建设年代。","label":false,"labelCoordinates":[103.8561985,13.443777749999999]},"geometry":{"type":"Polygon","coordinates":[[[103.8561636,13.443691],[103.8561633,13.4437074],[103.8561235,13.4437068],[103.8561229,13.4437424],[103.8561104,13.4437422],[103.8561095,13.4438124],[103.8561229,13.4438125],[103.8561219,13.4438492],[103.8561609,13.4438499],[103.8561607,13.4438633],[103.8562328,13.4438645],[103.856233,13.4438504],[103.8562738,13.4438508],[103.8562741,13.4438142],[103.8562867,13.4438144],[103.8562875,13.4437443],[103.8562759,13.4437441],[103.8562755,13.4437085],[103.8562354,13.4437085],[103.8562357,13.4436922],[103.8561636,13.443691]]]}},{"type":"Feature","properties":{"id":"osm-way-785616834","name":"吴哥城墙段","nameEn":"","category":"walls","origin":"osm","sourceUrl":"https://www.openstreetmap.org/way/785616834","sourceTitle":"OpenStreetMap 现状矢量","license":"ODbL","licenseUrl":"https://www.openstreetmap.org/copyright","referenceUrl":"https://archives.efeo.fr/index.php/fca-2-dg-2756","note":"保留现状标绘几何，建筑、围区和水体分别显示；不代表全部构件的考古实测或同一建设年代。","label":false,"labelCoordinates":[103.85531950000001,13.4445949],"role":"gate"},"geometry":{"type":"Polygon","coordinates":[[[103.8552861,13.4446067],[103.855286,13.4445927],[103.8552861,13.4445827],[103.855317,13.4445831],[103.855353,13.4445832],[103.8553525,13.4445942],[103.8553528,13.4446071],[103.8553162,13.4446069],[103.8552861,13.4446067]]]}},{"type":"Feature","properties":{"id":"osm-way-785616838","name":"吴哥城墙段","nameEn":"","category":"walls","origin":"osm","sourceUrl":"https://www.openstreetmap.org/way/785616838","sourceTitle":"OpenStreetMap 现状矢量","license":"ODbL","licenseUrl":"https://www.openstreetmap.org/copyright","referenceUrl":"https://archives.efeo.fr/index.php/fca-2-dg-2756","note":"保留现状标绘几何，建筑、围区和水体分别显示；不代表全部构件的考古实测或同一建设年代。","label":false,"labelCoordinates":[103.8552502,13.44459225],"role":"wall"},"geometry":{"type":"LineString","coordinates":[[103.8552792,13.4445926],[103.8552212,13.4445919]]}},{"type":"Feature","properties":{"id":"osm-way-785616839","name":"吴哥城墙段","nameEn":"","category":"walls","origin":"osm","sourceUrl":"https://www.openstreetmap.org/way/785616839","sourceTitle":"OpenStreetMap 现状矢量","license":"ODbL","licenseUrl":"https://www.openstreetmap.org/copyright","referenceUrl":"https://archives.efeo.fr/index.php/fca-2-dg-2756","note":"保留现状标绘几何，建筑、围区和水体分别显示；不代表全部构件的考古实测或同一建设年代。","label":false,"labelCoordinates":[103.85500615000001,13.444589350000001],"role":"wall"},"geometry":{"type":"LineString","coordinates":[[103.8552212,13.4445919],[103.8547911,13.4445868]]}},{"type":"Feature","properties":{"id":"osm-way-785651886","name":"吴哥城墙段","nameEn":"","category":"walls","origin":"osm","sourceUrl":"https://www.openstreetmap.org/way/785651886","sourceTitle":"OpenStreetMap 现状矢量","license":"ODbL","licenseUrl":"https://www.openstreetmap.org/copyright","referenceUrl":"https://archives.efeo.fr/index.php/fca-2-dg-2756","note":"保留现状标绘几何，建筑、围区和水体分别显示；不代表全部构件的考古实测或同一建设年代。","label":false,"labelCoordinates":[103.85840060000001,13.44585485],"role":"wall"},"geometry":{"type":"LineString","coordinates":[[103.8583854,13.4459557],[103.8583865,13.4458779],[103.8584151,13.4458782],[103.8584156,13.4458565],[103.8584158,13.4458297],[103.858388,13.4458294],[103.8583889,13.445754]]}},{"type":"Feature","properties":{"id":"osm-way-785651887","name":"吴哥城墙段","nameEn":"","category":"walls","origin":"osm","sourceUrl":"https://www.openstreetmap.org/way/785651887","sourceTitle":"OpenStreetMap 现状矢量","license":"ODbL","licenseUrl":"https://www.openstreetmap.org/copyright","referenceUrl":"https://archives.efeo.fr/index.php/fca-2-dg-2756","note":"保留现状标绘几何，建筑、围区和水体分别显示；不代表全部构件的考古实测或同一建设年代。","label":false,"labelCoordinates":[103.85683405,13.44516875],"role":"wall"},"geometry":{"type":"LineString","coordinates":[[103.8583889,13.445754],[103.8583559,13.4457548],[103.8583685,13.4446278],[103.857898,13.4446245],[103.8562018,13.4446043],[103.8553525,13.4445942],[103.8553526,13.4445835],[103.855317,13.4445831],[103.8552861,13.4445827],[103.855286,13.4445927],[103.8552792,13.4445926]]}},{"type":"Feature","properties":{"id":"osm-way-785651900","name":"寺庙遗迹构件","nameEn":"","category":"temples","origin":"osm","sourceUrl":"https://www.openstreetmap.org/way/785651900","sourceTitle":"OpenStreetMap 现状矢量","license":"ODbL","licenseUrl":"https://www.openstreetmap.org/copyright","referenceUrl":"https://archives.efeo.fr/index.php/fca-2-dg-2756","note":"保留现状标绘几何，建筑、围区和水体分别显示；不代表全部构件的考古实测或同一建设年代。","label":false,"labelCoordinates":[103.86066055,13.4467317]},"geometry":{"type":"Polygon","coordinates":[[[103.8606156,13.446776],[103.8606144,13.4466886],[103.8607055,13.4466874],[103.8607067,13.4467748],[103.8606156,13.446776]]]}},{"type":"Feature","properties":{"id":"osm-way-785651901","name":"寺庙遗迹构件","nameEn":"","category":"temples","origin":"osm","sourceUrl":"https://www.openstreetmap.org/way/785651901","sourceTitle":"OpenStreetMap 现状矢量","license":"ODbL","licenseUrl":"https://www.openstreetmap.org/copyright","referenceUrl":"https://archives.efeo.fr/index.php/fca-2-dg-2756","note":"保留现状标绘几何，建筑、围区和水体分别显示；不代表全部构件的考古实测或同一建设年代。","label":false,"labelCoordinates":[103.860668,13.44636595]},"geometry":{"type":"Polygon","coordinates":[[[103.8606207,13.4464078],[103.8606244,13.4463205],[103.8607153,13.4463241],[103.8607118,13.4464114],[103.8606207,13.4464078]]]}},{"type":"Feature","properties":{"id":"osm-way-785651902","name":"寺庙遗迹构件","nameEn":"","category":"temples","origin":"osm","sourceUrl":"https://www.openstreetmap.org/way/785651902","sourceTitle":"OpenStreetMap 现状矢量","license":"ODbL","licenseUrl":"https://www.openstreetmap.org/copyright","referenceUrl":"https://archives.efeo.fr/index.php/fca-2-dg-2756","note":"保留现状标绘几何，建筑、围区和水体分别显示；不代表全部构件的考古实测或同一建设年代。","label":false,"labelCoordinates":[103.86063225000001,13.44738225]},"geometry":{"type":"Polygon","coordinates":[[[103.8605873,13.4474266],[103.8605861,13.4473391],[103.8606772,13.4473379],[103.8606784,13.4474254],[103.8605873,13.4474266]]]}},{"type":"Feature","properties":{"id":"osm-way-785651903","name":"寺庙遗迹构件","nameEn":"","category":"temples","origin":"osm","sourceUrl":"https://www.openstreetmap.org/way/785651903","sourceTitle":"OpenStreetMap 现状矢量","license":"ODbL","licenseUrl":"https://www.openstreetmap.org/copyright","referenceUrl":"https://archives.efeo.fr/index.php/fca-2-dg-2756","note":"保留现状标绘几何，建筑、围区和水体分别显示；不代表全部构件的考古实测或同一建设年代。","label":false,"labelCoordinates":[103.86061325,13.4477253]},"geometry":{"type":"Polygon","coordinates":[[[103.8605683,13.4477696],[103.8605671,13.4476822],[103.8606582,13.447681],[103.8606594,13.4477684],[103.8605683,13.4477696]]]}},{"type":"Feature","properties":{"id":"osm-way-785658867","name":"北仓小寺","nameEn":"Prasat Khleang Khang Cheung Toch","category":"temples","origin":"osm","sourceUrl":"https://www.openstreetmap.org/way/785658867","sourceTitle":"OpenStreetMap 现状矢量","license":"ODbL","licenseUrl":"https://www.openstreetmap.org/copyright","referenceUrl":"https://archives.efeo.fr/index.php/fca-2-dg-2756","note":"保留现状标绘几何，建筑、围区和水体分别显示；不代表全部构件的考古实测或同一建设年代。","label":true,"labelCoordinates":[103.8612337,13.4471815]},"geometry":{"type":"Polygon","coordinates":[[[103.8612046,13.4471377],[103.8612048,13.4471548],[103.8611897,13.4471548],[103.8611897,13.4472101],[103.8612051,13.4472101],[103.8612057,13.4472248],[103.8612621,13.4472253],[103.8612626,13.4472111],[103.8612777,13.4472111],[103.8612775,13.4471548],[103.8612615,13.4471548],[103.8612614,13.4471386],[103.8612046,13.4471377]]]}},{"type":"Feature","properties":{"id":"osm-way-785712470","name":"哥萨寺","nameEn":"Kor Sak temple","category":"temples","origin":"osm","sourceUrl":"https://www.openstreetmap.org/way/785712470","sourceTitle":"OpenStreetMap 现状矢量","license":"ODbL","licenseUrl":"https://www.openstreetmap.org/copyright","referenceUrl":"https://archives.efeo.fr/index.php/fca-2-dg-2756","note":"保留现状标绘几何，建筑、围区和水体分别显示；不代表全部构件的考古实测或同一建设年代。","label":true,"labelCoordinates":[103.8606218,13.44836885]},"geometry":{"type":"Polygon","coordinates":[[[103.8605627,13.4484238],[103.8605858,13.4484236],[103.860586,13.4484499],[103.8606574,13.4484497],[103.8606575,13.448423],[103.8606782,13.448423],[103.8606781,13.4484043],[103.8607051,13.4484053],[103.8607046,13.4483684],[103.8607042,13.4483345],[103.8606783,13.4483345],[103.8606775,13.4483144],[103.860658,13.4483151],[103.8606581,13.4482878],[103.8605853,13.4482887],[103.8605854,13.4483148],[103.860562,13.4483151],[103.8605616,13.4483348],[103.8605385,13.4483348],[103.8605385,13.4483659],[103.8605386,13.4484043],[103.8605624,13.4484045],[103.8605627,13.4484238]]]}},{"type":"Feature","properties":{"id":"osm-way-785712471","name":"寺庙遗迹构件","nameEn":"","category":"temples","origin":"osm","sourceUrl":"https://www.openstreetmap.org/way/785712471","sourceTitle":"OpenStreetMap 现状矢量","license":"ODbL","licenseUrl":"https://www.openstreetmap.org/copyright","referenceUrl":"https://archives.efeo.fr/index.php/fca-2-dg-2756","note":"保留现状标绘几何，建筑、围区和水体分别显示；不代表全部构件的考古实测或同一建设年代。","label":false,"labelCoordinates":[103.86118345,13.44838075]},"geometry":{"type":"Polygon","coordinates":[[[103.8609864,13.4485628],[103.8609911,13.4481935],[103.8613805,13.4481952],[103.861375,13.448568],[103.8609864,13.4485628]]]}},{"type":"Feature","properties":{"id":"osm-way-785712472","name":"琼寺遗迹","nameEn":"Prasat Chorm","category":"temples","origin":"osm","sourceUrl":"https://www.openstreetmap.org/way/785712472","sourceTitle":"OpenStreetMap 现状矢量","license":"ODbL","licenseUrl":"https://www.openstreetmap.org/copyright","referenceUrl":"https://archives.efeo.fr/index.php/fca-2-dg-2756","note":"保留现状标绘几何，建筑、围区和水体分别显示；不代表全部构件的考古实测或同一建设年代。","label":true,"labelCoordinates":[103.8611925,13.44836785]},"geometry":{"type":"Polygon","coordinates":[[[103.8611334,13.4484228],[103.8611565,13.4484226],[103.8611566,13.4484489],[103.8612281,13.4484487],[103.8612282,13.448422],[103.8612489,13.448422],[103.8612488,13.4484033],[103.8612758,13.4484043],[103.8612754,13.4483727],[103.8612749,13.4483335],[103.8612489,13.4483335],[103.8612481,13.4483134],[103.8612286,13.4483141],[103.8612288,13.4482868],[103.861156,13.4482878],[103.8611561,13.4483138],[103.8611326,13.4483141],[103.8611322,13.4483338],[103.8611092,13.4483339],[103.8611093,13.448373],[103.8611093,13.4484033],[103.8611331,13.4484035],[103.8611334,13.4484228]]]}},{"type":"Feature","properties":{"id":"osm-way-785733810","name":"提琶南寺","nameEn":"Tep Pranam","category":"temples","origin":"osm","sourceUrl":"https://www.openstreetmap.org/way/785733810","sourceTitle":"OpenStreetMap 现状矢量","license":"ODbL","licenseUrl":"https://www.openstreetmap.org/copyright","referenceUrl":"https://archives.efeo.fr/index.php/fca-2-dg-2756","note":"保留现状标绘几何，建筑、围区和水体分别显示；不代表全部构件的考古实测或同一建设年代。","label":true,"labelCoordinates":[103.85764255000001,13.4484551]},"geometry":{"type":"Polygon","coordinates":[[[103.8575508,13.4484156],[103.8575026,13.448415],[103.8575014,13.4485039],[103.8575496,13.4485045],[103.8575494,13.4485205],[103.8575864,13.4485209],[103.8575858,13.4485666],[103.8576202,13.448567],[103.8576199,13.4485952],[103.8577046,13.4485963],[103.857705,13.448568],[103.8577214,13.4485682],[103.857722,13.4485226],[103.8577757,13.4485232],[103.8577759,13.4485073],[103.8577826,13.4485074],[103.8577837,13.4484185],[103.857777,13.4484184],[103.8577773,13.4483955],[103.8577236,13.4483949],[103.8577242,13.4483494],[103.8577078,13.4483492],[103.8577082,13.4483149],[103.8576235,13.4483139],[103.857623,13.4483482],[103.8575886,13.4483478],[103.857588,13.4483932],[103.8575511,13.4483928],[103.8575508,13.4484156]]]}},{"type":"Feature","properties":{"id":"osm-way-988194341","name":"城内水池／沟渠","nameEn":"","category":"water","origin":"osm","sourceUrl":"https://www.openstreetmap.org/way/988194341","sourceTitle":"OpenStreetMap 现状矢量","license":"ODbL","licenseUrl":"https://www.openstreetmap.org/copyright","referenceUrl":"https://archives.efeo.fr/index.php/fca-2-dg-2756","note":"保留现状标绘几何，建筑、围区和水体分别显示；不代表全部构件的考古实测或同一建设年代。","label":false,"labelCoordinates":[103.8586222,13.45553715]},"geometry":{"type":"LineString","coordinates":[[103.8733871,13.4557711],[103.8709355,13.4557057],[103.8657951,13.4556094],[103.861295,13.4555303],[103.8591865,13.4556128],[103.8588752,13.4556094],[103.8438573,13.4553032]]}},{"type":"Feature","properties":{"id":"osm-way-993558509","name":"空中宫殿","nameEn":"Phimeanakas","category":"temples","origin":"osm","sourceUrl":"https://www.openstreetmap.org/way/993558509","sourceTitle":"OpenStreetMap 现状矢量","license":"ODbL","licenseUrl":"https://www.openstreetmap.org/copyright","referenceUrl":"https://archives.efeo.fr/index.php/fca-2-dg-2756","note":"保留现状标绘几何，建筑、围区和水体分别显示；不代表全部构件的考古实测或同一建设年代。","label":true,"labelCoordinates":[103.8561933,13.44568125]},"geometry":{"type":"Polygon","coordinates":[[[103.8563661,13.4458076],[103.8562351,13.4458072],[103.8562351,13.4458195],[103.8561377,13.4458192],[103.8561377,13.4458072],[103.8560221,13.4458068],[103.8560224,13.4457283],[103.8560075,13.4457283],[103.8560071,13.4456797],[103.8560078,13.4456402],[103.8560226,13.4456403],[103.8560229,13.4455573],[103.8561385,13.4455577],[103.8561386,13.445543],[103.8562361,13.4455434],[103.856236,13.4455577],[103.8563669,13.4455581],[103.8563666,13.4456411],[103.8563795,13.4456412],[103.8563792,13.4457306],[103.8563664,13.4457305],[103.8563661,13.4458076]]]}},{"type":"Feature","properties":{"id":"osm-way-993581651","name":"吴哥城墙段","nameEn":"","category":"walls","origin":"osm","sourceUrl":"https://www.openstreetmap.org/way/993581651","sourceTitle":"OpenStreetMap 现状矢量","license":"ODbL","licenseUrl":"https://www.openstreetmap.org/copyright","referenceUrl":"https://archives.efeo.fr/index.php/fca-2-dg-2756","note":"保留现状标绘几何，建筑、围区和水体分别显示；不代表全部构件的考古实测或同一建设年代。","label":false,"labelCoordinates":[103.87631425000001,13.46198145],"role":"gate"},"geometry":{"type":"Polygon","coordinates":[[[103.8762527,13.4621085],[103.8762538,13.4618539],[103.8763758,13.4618544],[103.8763746,13.462109],[103.8762527,13.4621085]]]}},{"type":"Feature","properties":{"id":"osm-way-995497129","name":"吴哥城东门（亡者门）","nameEn":"East gate - Gate of the dead","category":"walls","origin":"osm","sourceUrl":"https://www.openstreetmap.org/way/995497129","sourceTitle":"OpenStreetMap 现状矢量","license":"ODbL","licenseUrl":"https://www.openstreetmap.org/copyright","referenceUrl":"https://archives.efeo.fr/index.php/fca-2-dg-2756","note":"保留现状标绘几何，建筑、围区和水体分别显示；不代表全部构件的考古实测或同一建设年代。","label":true,"labelCoordinates":[103.87314334999999,13.441436150000001],"role":"gate"},"geometry":{"type":"Polygon","coordinates":[[[103.8731183,13.441544],[103.8731189,13.4414763],[103.8730889,13.4414761],[103.8730897,13.4413888],[103.8731178,13.441389],[103.8731184,13.441328],[103.8731437,13.4413282],[103.8731707,13.4413284],[103.8731701,13.4413915],[103.8731978,13.4413917],[103.8731971,13.4414794],[103.8731661,13.4414791],[103.8731656,13.4415443],[103.8731448,13.4415442],[103.8731183,13.441544]]]}},{"type":"Feature","properties":{"id":"osm-way-995497135","name":"西北角寺","nameEn":"Prasat Chrung Northwest","category":"temples","origin":"osm","sourceUrl":"https://www.openstreetmap.org/way/995497135","sourceTitle":"OpenStreetMap 现状矢量","license":"ODbL","licenseUrl":"https://www.openstreetmap.org/copyright","referenceUrl":"https://archives.efeo.fr/index.php/fca-2-dg-2756","note":"保留现状标绘几何，建筑、围区和水体分别显示；不代表全部构件的考古实测或同一建设年代。","label":true,"labelCoordinates":[103.8446006,13.45456405]},"geometry":{"type":"Polygon","coordinates":[[[103.844581,13.4545766],[103.844551,13.4545767],[103.8445513,13.4545473],[103.8445814,13.4545466],[103.844582,13.4545168],[103.8446186,13.4545185],[103.8446196,13.4545476],[103.8446502,13.4545479],[103.8446501,13.4545797],[103.8446191,13.454579],[103.8446185,13.4546113],[103.8445815,13.4546111],[103.844581,13.4545766]]]}},{"type":"Feature","properties":{"id":"osm-way-995497136","name":"东北角寺","nameEn":"Prasat Chrung Northeast","category":"temples","origin":"osm","sourceUrl":"https://www.openstreetmap.org/way/995497136","sourceTitle":"OpenStreetMap 现状矢量","license":"ODbL","licenseUrl":"https://www.openstreetmap.org/copyright","referenceUrl":"https://archives.efeo.fr/index.php/fca-2-dg-2756","note":"保留现状标绘几何，建筑、围区和水体分别显示；不代表全部构件的考古实测或同一建设年代。","label":true,"labelCoordinates":[103.87275665,13.455019]},"geometry":{"type":"Polygon","coordinates":[[[103.8727742,13.4549977],[103.8727746,13.4549626],[103.8727175,13.454962],[103.8727171,13.4549971],[103.8726858,13.4549967],[103.8726853,13.455043],[103.8727166,13.4550434],[103.8727163,13.4550754],[103.8727734,13.455076],[103.8727737,13.455044],[103.8728274,13.4550445],[103.872828,13.4549982],[103.8727742,13.4549977]]]}},{"type":"Feature","properties":{"id":"osm-way-995497137","name":"东南角寺","nameEn":"Prasat Chrung Southeast","category":"temples","origin":"osm","sourceUrl":"https://www.openstreetmap.org/way/995497137","sourceTitle":"OpenStreetMap 现状矢量","license":"ODbL","licenseUrl":"https://www.openstreetmap.org/copyright","referenceUrl":"https://archives.efeo.fr/index.php/fca-2-dg-2756","note":"保留现状标绘几何，建筑、围区和水体分别显示；不代表全部构件的考古实测或同一建设年代。","label":true,"labelCoordinates":[103.87319629999999,13.42794295]},"geometry":{"type":"Polygon","coordinates":[[[103.8731565,13.4279225],[103.8731186,13.4279224],[103.8731184,13.4279667],[103.8731563,13.4279669],[103.8731562,13.4279967],[103.8731959,13.4279969],[103.873196,13.4279671],[103.873274,13.4279674],[103.8732742,13.427923],[103.8731962,13.4279227],[103.8731964,13.4278891],[103.8731566,13.427889],[103.8731565,13.4279225]]]}},{"type":"Feature","properties":{"id":"osm-way-995497138","name":"西南角寺","nameEn":"Prasat Chrung Southwest","category":"temples","origin":"osm","sourceUrl":"https://www.openstreetmap.org/way/995497138","sourceTitle":"OpenStreetMap 现状矢量","license":"ODbL","licenseUrl":"https://www.openstreetmap.org/copyright","referenceUrl":"https://archives.efeo.fr/index.php/fca-2-dg-2756","note":"保留现状标绘几何，建筑、围区和水体分别显示；不代表全部构件的考古实测或同一建设年代。","label":true,"labelCoordinates":[103.84540265,13.42744365]},"geometry":{"type":"Polygon","coordinates":[[[103.8454236,13.4274237],[103.8454241,13.4273934],[103.8453828,13.4273928],[103.8453824,13.4274231],[103.8453413,13.4274225],[103.8453406,13.4274621],[103.8453817,13.4274627],[103.8453812,13.4274939],[103.8454225,13.4274945],[103.845423,13.4274633],[103.8454641,13.427464],[103.8454647,13.4274244],[103.8454236,13.4274237]]]}},{"type":"Feature","properties":{"id":"osm-way-1221842998","name":"吴哥城范围","nameEn":"Angkor Thom","category":"walls","origin":"osm","sourceUrl":"https://www.openstreetmap.org/way/1221842998","sourceTitle":"OpenStreetMap 现状矢量","license":"ODbL","licenseUrl":"https://www.openstreetmap.org/copyright","referenceUrl":"https://archives.efeo.fr/index.php/fca-2-dg-2756","note":"保留现状标绘几何，建筑、围区和水体分别显示；不代表全部构件的考古实测或同一建设年代。","label":false,"labelCoordinates":[103.85892240000001,13.441228200000001],"role":"city-extent"},"geometry":{"type":"Polygon","coordinates":[[[103.8442238,13.426265],[103.8745157,13.4267735],[103.8738093,13.4561914],[103.8433291,13.4558427],[103.8437329,13.4411],[103.8442238,13.426265]]]}},{"type":"Feature","properties":{"id":"osm-way-1353324812","name":"城内水池／沟渠","nameEn":"","category":"water","origin":"osm","sourceUrl":"https://www.openstreetmap.org/way/1353324812","sourceTitle":"OpenStreetMap 现状矢量","license":"ODbL","licenseUrl":"https://www.openstreetmap.org/copyright","referenceUrl":"https://archives.efeo.fr/index.php/fca-2-dg-2756","note":"保留现状标绘几何，建筑、围区和水体分别显示；不代表全部构件的考古实测或同一建设年代。","label":false,"labelCoordinates":[103.85999675,13.44085805]},"geometry":{"type":"Polygon","coordinates":[[[103.8597798,13.4409986],[103.8602124,13.4409965],[103.8602138,13.4407175],[103.8597797,13.4407206],[103.8597798,13.4409986]]]}},{"type":"Feature","properties":{"id":"osm-way-1353324813","name":"城内水池／沟渠","nameEn":"","category":"water","origin":"osm","sourceUrl":"https://www.openstreetmap.org/way/1353324813","sourceTitle":"OpenStreetMap 现状矢量","license":"ODbL","licenseUrl":"https://www.openstreetmap.org/copyright","referenceUrl":"https://archives.efeo.fr/index.php/fca-2-dg-2756","note":"保留现状标绘几何，建筑、围区和水体分别显示；不代表全部构件的考古实测或同一建设年代。","label":false,"labelCoordinates":[103.85999050000001,13.441658449999998]},"geometry":{"type":"Polygon","coordinates":[[[103.8597748,13.4415207],[103.8597737,13.4417973],[103.8602073,13.4417962],[103.8602041,13.4415196],[103.8597748,13.4415207]]]}},{"type":"Feature","properties":{"id":"osm-way-1547867666","name":"吴哥城墙段","nameEn":"","category":"walls","origin":"osm","sourceUrl":"https://www.openstreetmap.org/way/1547867666","sourceTitle":"OpenStreetMap 现状矢量","license":"ODbL","licenseUrl":"https://www.openstreetmap.org/copyright","referenceUrl":"https://archives.efeo.fr/index.php/fca-2-dg-2756","note":"保留现状标绘几何，建筑、围区和水体分别显示；不代表全部构件的考古实测或同一建设年代。","label":false,"labelCoordinates":[103.86124925,13.45501625],"role":"wall"},"geometry":{"type":"LineString","coordinates":[[103.8632242,13.4550371],[103.8592743,13.4549954]]}},{"type":"Feature","properties":{"id":"osm-way-1548037068","name":"吴哥城墙段","nameEn":"","category":"walls","origin":"osm","sourceUrl":"https://www.openstreetmap.org/way/1548037068","sourceTitle":"OpenStreetMap 现状矢量","license":"ODbL","licenseUrl":"https://www.openstreetmap.org/copyright","referenceUrl":"https://archives.efeo.fr/index.php/fca-2-dg-2756","note":"保留现状标绘几何，建筑、围区和水体分别显示；不代表全部构件的考古实测或同一建设年代。","label":false,"labelCoordinates":[103.8560784,13.454962049999999],"role":"wall"},"geometry":{"type":"LineString","coordinates":[[103.8588043,13.4549892],[103.8533525,13.4549349]]}},{"type":"Feature","properties":{"id":"osm-way-1550293665","name":"城内水池／沟渠","nameEn":"","category":"water","origin":"osm","sourceUrl":"https://www.openstreetmap.org/way/1550293665","sourceTitle":"OpenStreetMap 现状矢量","license":"ODbL","licenseUrl":"https://www.openstreetmap.org/copyright","referenceUrl":"https://archives.efeo.fr/index.php/fca-2-dg-2756","note":"保留现状标绘几何，建筑、围区和水体分别显示；不代表全部构件的考古实测或同一建设年代。","label":false,"labelCoordinates":[103.85831715,13.447814600000001]},"geometry":{"type":"Polygon","coordinates":[[[103.8582214,13.4477247],[103.8584158,13.4477278],[103.8584129,13.4479045],[103.8582185,13.4479015],[103.8582214,13.4477247]]]}},{"type":"Feature","properties":{"id":"osm-way-1550340794","name":"寺庙遗迹构件","nameEn":"","category":"temples","origin":"osm","sourceUrl":"https://www.openstreetmap.org/way/1550340794","sourceTitle":"OpenStreetMap 现状矢量","license":"ODbL","licenseUrl":"https://www.openstreetmap.org/copyright","referenceUrl":"https://archives.efeo.fr/index.php/fca-2-dg-2756","note":"保留现状标绘几何，建筑、围区和水体分别显示；不代表全部构件的考古实测或同一建设年代。","label":false,"labelCoordinates":[103.8668797,13.4403439]},"geometry":{"type":"Polygon","coordinates":[[[103.8666317,13.4400796],[103.86661,13.4405873],[103.8671277,13.4406082],[103.8671494,13.4401004],[103.8666317,13.4400796]]]}},{"type":"Feature","properties":{"id":"osm-way-1551001096","name":"寺庙遗迹构件","nameEn":"","category":"temples","origin":"osm","sourceUrl":"https://www.openstreetmap.org/way/1551001096","sourceTitle":"OpenStreetMap 现状矢量","license":"ODbL","licenseUrl":"https://www.openstreetmap.org/copyright","referenceUrl":"https://archives.efeo.fr/index.php/fca-2-dg-2756","note":"保留现状标绘几何，建筑、围区和水体分别显示；不代表全部构件的考古实测或同一建设年代。","label":false,"labelCoordinates":[103.85784015,13.449473399999999]},"geometry":{"type":"LineString","coordinates":[[103.8568965,13.4494574],[103.8587838,13.4494894]]}},{"type":"Feature","properties":{"id":"osm-way-1551001097","name":"寺庙遗迹构件","nameEn":"","category":"temples","origin":"osm","sourceUrl":"https://www.openstreetmap.org/way/1551001097","sourceTitle":"OpenStreetMap 现状矢量","license":"ODbL","licenseUrl":"https://www.openstreetmap.org/copyright","referenceUrl":"https://archives.efeo.fr/index.php/fca-2-dg-2756","note":"保留现状标绘几何，建筑、围区和水体分别显示；不代表全部构件的考古实测或同一建设年代。","label":false,"labelCoordinates":[103.8537278,13.443721700000001]},"geometry":{"type":"LineString","coordinates":[[103.8522252,13.4430923],[103.8552304,13.4431449],[103.8552139,13.4443511]]}},{"type":"Feature","properties":{"id":"osm-way-1551001098","name":"寺庙遗迹构件","nameEn":"","category":"temples","origin":"osm","sourceUrl":"https://www.openstreetmap.org/way/1551001098","sourceTitle":"OpenStreetMap 现状矢量","license":"ODbL","licenseUrl":"https://www.openstreetmap.org/copyright","referenceUrl":"https://archives.efeo.fr/index.php/fca-2-dg-2756","note":"保留现状标绘几何，建筑、围区和水体分别显示；不代表全部构件的考古实测或同一建设年代。","label":false,"labelCoordinates":[103.8504455,13.4462026]},"geometry":{"type":"LineString","coordinates":[[103.8543619,13.4494273],[103.8465291,13.4493246],[103.8466644,13.4429779],[103.8519805,13.4430831]]}},{"type":"Feature","properties":{"id":"osm-way-1553780656","name":"寺庙遗迹构件","nameEn":"","category":"temples","origin":"osm","sourceUrl":"https://www.openstreetmap.org/way/1553780656","sourceTitle":"OpenStreetMap 现状矢量","license":"ODbL","licenseUrl":"https://www.openstreetmap.org/copyright","referenceUrl":"https://archives.efeo.fr/index.php/fca-2-dg-2756","note":"保留现状标绘几何，建筑、围区和水体分别显示；不代表全部构件的考古实测或同一建设年代。","label":false,"labelCoordinates":[103.85201835,13.44722785]},"geometry":{"type":"LineString","coordinates":[[103.85202,13.447182],[103.8520167,13.4472737]]}},{"type":"Feature","properties":{"id":"osm-way-1553780657","name":"寺庙遗迹构件","nameEn":"","category":"temples","origin":"osm","sourceUrl":"https://www.openstreetmap.org/way/1553780657","sourceTitle":"OpenStreetMap 现状矢量","license":"ODbL","licenseUrl":"https://www.openstreetmap.org/copyright","referenceUrl":"https://archives.efeo.fr/index.php/fca-2-dg-2756","note":"保留现状标绘几何，建筑、围区和水体分别显示；不代表全部构件的考古实测或同一建设年代。","label":false,"labelCoordinates":[103.8520857,13.4451283]},"geometry":{"type":"LineString","coordinates":[[103.8520941,13.4435269],[103.8520773,13.4467297]]}},{"type":"Feature","properties":{"id":"osm-way-1553820221","name":"城内水池／沟渠","nameEn":"","category":"water","origin":"osm","sourceUrl":"https://www.openstreetmap.org/way/1553820221","sourceTitle":"OpenStreetMap 现状矢量","license":"ODbL","licenseUrl":"https://www.openstreetmap.org/copyright","referenceUrl":"https://archives.efeo.fr/index.php/fca-2-dg-2756","note":"保留现状标绘几何，建筑、围区和水体分别显示；不代表全部构件的考古实测或同一建设年代。","label":false,"labelCoordinates":[103.86678945,13.44142505]},"geometry":{"type":"LineString","coordinates":[[103.8733871,13.4557711],[103.8734296,13.4540955],[103.8735782,13.4537205],[103.8734614,13.4530805],[103.8736029,13.4525988],[103.8735145,13.4521412],[103.873511,13.451453],[103.8736985,13.4511158],[103.8736949,13.4507477],[103.8736312,13.4503348],[103.8736136,13.4481843],[103.8736843,13.4462472],[103.8736914,13.4459547],[103.8737621,13.441516],[103.8737657,13.4412786],[103.8739815,13.427291],[103.8595974,13.427079]]}},{"type":"Feature","properties":{"id":"osm-way-1555863756","name":"十二间佛殿","nameEn":"Wat Preah Vihear Bram Pi Lveng","category":"temples","origin":"osm","sourceUrl":"https://www.openstreetmap.org/way/1555863756","sourceTitle":"OpenStreetMap 现状矢量","license":"ODbL","licenseUrl":"https://www.openstreetmap.org/copyright","referenceUrl":"https://archives.efeo.fr/index.php/fca-2-dg-2756","note":"保留现状标绘几何，建筑、围区和水体分别显示；不代表全部构件的考古实测或同一建设年代。","label":true,"labelCoordinates":[103.86206625,13.44542805]},"geometry":{"type":"Polygon","coordinates":[[[103.8617916,13.445503],[103.8623402,13.4455056],[103.8623409,13.4453531],[103.8617924,13.4453505],[103.8617916,13.445503]]]}},{"type":"Feature","properties":{"id":"osm-way-1555863757","name":"曼加拉尔塔寺","nameEn":"Mangalartha","category":"temples","origin":"osm","sourceUrl":"https://www.openstreetmap.org/way/1555863757","sourceTitle":"OpenStreetMap 现状矢量","license":"ODbL","licenseUrl":"https://www.openstreetmap.org/copyright","referenceUrl":"https://archives.efeo.fr/index.php/fca-2-dg-2756","note":"保留现状标绘几何，建筑、围区和水体分别显示；不代表全部构件的考古实测或同一建设年代。","label":true,"labelCoordinates":[103.86788995,13.44361365]},"geometry":{"type":"Polygon","coordinates":[[[103.8678031,13.4435334],[103.8678044,13.4436952],[103.8679768,13.4436939],[103.8679755,13.4435321],[103.8678031,13.4435334]]]}},{"type":"Feature","properties":{"id":"osm-way-1564064849","name":"寺庙遗迹构件","nameEn":"","category":"temples","origin":"osm","sourceUrl":"https://www.openstreetmap.org/way/1564064849","sourceTitle":"OpenStreetMap 现状矢量","license":"ODbL","licenseUrl":"https://www.openstreetmap.org/copyright","referenceUrl":"https://archives.efeo.fr/index.php/fca-2-dg-2756","note":"保留现状标绘几何，建筑、围区和水体分别显示；不代表全部构件的考古实测或同一建设年代。","label":false,"labelCoordinates":[103.8556101,13.4494437]},"geometry":{"type":"LineString","coordinates":[[103.8567376,13.4494585],[103.8544826,13.4494289]]}},{"type":"Feature","properties":{"id":"osm-way-1565479394","name":"城内水池／沟渠","nameEn":"","category":"water","origin":"osm","sourceUrl":"https://www.openstreetmap.org/way/1565479394","sourceTitle":"OpenStreetMap 现状矢量","license":"ODbL","licenseUrl":"https://www.openstreetmap.org/copyright","referenceUrl":"https://archives.efeo.fr/index.php/fca-2-dg-2756","note":"保留现状标绘几何，建筑、围区和水体分别显示；不代表全部构件的考古实测或同一建设年代。","label":false,"labelCoordinates":[103.85165495,13.44101495]},"geometry":{"type":"LineString","coordinates":[[103.8594526,13.4270761],[103.8457429,13.4267405],[103.8447311,13.4267267],[103.8443066,13.440821],[103.8442995,13.4412545],[103.8438573,13.4553032]]}},{"type":"Feature","properties":{"id":"osm-way-1565479395","name":"城内水池／沟渠","nameEn":"","category":"water","origin":"osm","sourceUrl":"https://www.openstreetmap.org/way/1565479395","sourceTitle":"OpenStreetMap 现状矢量","license":"ODbL","licenseUrl":"https://www.openstreetmap.org/copyright","referenceUrl":"https://archives.efeo.fr/index.php/fca-2-dg-2756","note":"保留现状标绘几何，建筑、围区和水体分别显示；不代表全部构件的考古实测或同一建设年代。","label":false,"labelCoordinates":[103.85422355,13.444041200000001]},"geometry":{"type":"Polygon","coordinates":[[[103.8536341,13.443958],[103.853688,13.4442042],[103.8539716,13.4442179],[103.854738,13.4442156],[103.854813,13.4441176],[103.8547638,13.4438645],[103.8536411,13.4438736],[103.8536341,13.443958]]]}},{"type":"Feature","properties":{"id":"osm-way-1565479396","name":"城内水池／沟渠","nameEn":"","category":"water","origin":"osm","sourceUrl":"https://www.openstreetmap.org/way/1565479396","sourceTitle":"OpenStreetMap 现状矢量","license":"ODbL","licenseUrl":"https://www.openstreetmap.org/copyright","referenceUrl":"https://archives.efeo.fr/index.php/fca-2-dg-2756","note":"保留现状标绘几何，建筑、围区和水体分别显示；不代表全部构件的考古实测或同一建设年代。","label":false,"labelCoordinates":[103.8540917,13.44758195]},"geometry":{"type":"Polygon","coordinates":[[[103.8535986,13.4474238],[103.8545842,13.4474221],[103.8545848,13.4477401],[103.8535992,13.4477418],[103.8535986,13.4474238]]]}},{"type":"Feature","properties":{"id":"osm-way-1565479397","name":"城内水池／沟渠","nameEn":"","category":"water","origin":"osm","sourceUrl":"https://www.openstreetmap.org/way/1565479397","sourceTitle":"OpenStreetMap 现状矢量","license":"ODbL","licenseUrl":"https://www.openstreetmap.org/copyright","referenceUrl":"https://archives.efeo.fr/index.php/fca-2-dg-2756","note":"保留现状标绘几何，建筑、围区和水体分别显示；不代表全部构件的考古实测或同一建设年代。","label":false,"labelCoordinates":[103.8589381,13.4520321]},"geometry":{"type":"Polygon","coordinates":[[[103.8588349,13.4506051],[103.8590271,13.4506051],[103.8590506,13.4506462],[103.8590131,13.4534363],[103.8589756,13.4534591],[103.8589123,13.4534294],[103.8589428,13.4516355],[103.8589404,13.4511203],[103.8588256,13.4510565],[103.8588349,13.4506051]]]}},{"type":"Feature","properties":{"id":"osm-way-1565479398","name":"城内水池／沟渠","nameEn":"","category":"water","origin":"osm","sourceUrl":"https://www.openstreetmap.org/way/1565479398","sourceTitle":"OpenStreetMap 现状矢量","license":"ODbL","licenseUrl":"https://www.openstreetmap.org/copyright","referenceUrl":"https://archives.efeo.fr/index.php/fca-2-dg-2756","note":"保留现状标绘几何，建筑、围区和水体分别显示；不代表全部构件的考古实测或同一建设年代。","label":false,"labelCoordinates":[103.85894744999999,13.450130999999999]},"geometry":{"type":"Polygon","coordinates":[[[103.8590881,13.4497526],[103.8588068,13.4497389],[103.8588303,13.4504912],[103.8588912,13.4505231],[103.8590412,13.4504912],[103.85906,13.4504273],[103.8590881,13.4497526]]]}},{"type":"Feature","properties":{"id":"osm-way-1565479399","name":"城内水池／沟渠","nameEn":"","category":"water","origin":"osm","sourceUrl":"https://www.openstreetmap.org/way/1565479399","sourceTitle":"OpenStreetMap 现状矢量","license":"ODbL","licenseUrl":"https://www.openstreetmap.org/copyright","referenceUrl":"https://archives.efeo.fr/index.php/fca-2-dg-2756","note":"保留现状标绘几何，建筑、围区和水体分别显示；不代表全部构件的考古实测或同一建设年代。","label":false,"labelCoordinates":[103.86702299999999,13.4412544]},"geometry":{"type":"Polygon","coordinates":[[[103.8623155,13.4412407],[103.8629202,13.4412498],[103.865721,13.4413023],[103.8682547,13.4413228],[103.8707133,13.441341],[103.8717212,13.4413501],[103.8717305,13.4412772],[103.8717001,13.4412498],[103.8707813,13.441259],[103.8686086,13.4412225],[103.8661828,13.4411883],[103.8650741,13.4411814],[103.863171,13.4411678],[103.8623366,13.4411587],[103.8623155,13.4411883],[103.8623155,13.4412407]]]}},{"type":"Feature","properties":{"id":"osm-way-1565479400","name":"城内水池／沟渠","nameEn":"","category":"water","origin":"osm","sourceUrl":"https://www.openstreetmap.org/way/1565479400","sourceTitle":"OpenStreetMap 现状矢量","license":"ODbL","licenseUrl":"https://www.openstreetmap.org/copyright","referenceUrl":"https://archives.efeo.fr/index.php/fca-2-dg-2756","note":"保留现状标绘几何，建筑、围区和水体分别显示；不代表全部构件的考古实测或同一建设年代。","label":false,"labelCoordinates":[103.85926269999999,13.42995075]},"geometry":{"type":"Polygon","coordinates":[[[103.8591537,13.430442],[103.8593576,13.430442],[103.8593811,13.4295096],[103.8592967,13.4294845],[103.8592217,13.429464],[103.8591607,13.4294595],[103.8591443,13.4296282],[103.8591537,13.430442]]]}},{"type":"Feature","properties":{"id":"osm-way-1565479401","name":"城内水池／沟渠","nameEn":"","category":"water","origin":"osm","sourceUrl":"https://www.openstreetmap.org/way/1565479401","sourceTitle":"OpenStreetMap 现状矢量","license":"ODbL","licenseUrl":"https://www.openstreetmap.org/copyright","referenceUrl":"https://archives.efeo.fr/index.php/fca-2-dg-2756","note":"保留现状标绘几何，建筑、围区和水体分别显示；不代表全部构件的考古实测或同一建设年代。","label":false,"labelCoordinates":[103.85915605,13.43300795]},"geometry":{"type":"Polygon","coordinates":[[[103.8590271,13.4353593],[103.8590248,13.4354368],[103.859156,13.4354755],[103.8592006,13.435471],[103.8592381,13.434607],[103.8592334,13.4338342],[103.8592498,13.433262],[103.8593412,13.4331685],[103.8593459,13.4330614],[103.8592521,13.4329975],[103.8592639,13.432341],[103.8592709,13.4321746],[103.8592943,13.4317072],[103.8592686,13.431322],[103.859367,13.4305492],[103.8591407,13.4305404],[103.8591256,13.4308774],[103.8591209,13.4317711],[103.859142,13.4321883],[103.8590834,13.4324025],[103.8590787,13.4330272],[103.8589451,13.4330956],[103.8591396,13.4332711],[103.8590154,13.4350948],[103.8590271,13.4353593]]]}}]}
