{
  "type": "FeatureCollection",
  "features": [
    {
      "type": "Feature",
      "geometry": {
        "type": "Polygon",
        "coordinates": [
          [
            [
              14.4839328,
              40.7504505
            ],
            [
              14.4839815,
              40.750467
            ],
            [
              14.4840323,
              40.750484
            ],
            [
              14.4840877,
              40.7505019
            ],
            [
              14.4841353,
              40.7505181
            ],
            [
              14.4841616,
              40.7505269
            ],
            [
              14.4841635,
              40.7505238
            ],
            [
              14.4841877,
              40.7504824
            ],
            [
              14.4842115,
              40.7504416
            ],
            [
              14.4842205,
              40.7504257
            ],
            [
              14.4841939,
              40.7504169
            ],
            [
              14.4842198,
              40.7503701
            ],
            [
              14.4842402,
              40.7503764
            ],
            [
              14.4842626,
              40.7503352
            ],
            [
              14.4842852,
              40.7502936
            ],
            [
              14.4843073,
              40.7502528
            ],
            [
              14.4843143,
              40.7502399
            ],
            [
              14.4842869,
              40.7502276
            ],
            [
              14.4842301,
              40.7503226
            ],
            [
              14.4842226,
              40.75032
            ],
            [
              14.4840762,
              40.7502692
            ],
            [
              14.484143,
              40.7501646
            ],
            [
              14.4840994,
              40.7501449
            ],
            [
              14.4840756,
              40.7501808
            ],
            [
              14.4840692,
              40.7501779
            ],
            [
              14.4840466,
              40.7502159
            ],
            [
              14.4840386,
              40.7502294
            ],
            [
              14.4840294,
              40.7502449
            ],
            [
              14.4840223,
              40.7502568
            ],
            [
              14.48398,
              40.7503282
            ],
            [
              14.4840059,
              40.7503365
            ],
            [
              14.484001,
              40.7503442
            ],
            [
              14.4839961,
              40.7503454
            ],
            [
              14.4839906,
              40.7503468
            ],
            [
              14.4839728,
              40.7503787
            ],
            [
              14.4839391,
              40.7504391
            ],
            [
              14.4839328,
              40.7504505
            ]
          ]
        ]
      },
      "properties": {
        "id": "pompeii-way-182553083",
        "name": "广场浴场",
        "enName": "Forum Baths",
        "role": "bath",
        "originalName": "Terme del Foro (VII.5.2)",
        "sourceUrl": "https://www.openstreetmap.org/way/182553083",
        "referenceUrl": "https://pompeiisites.org/wp-content/uploads/PompeiiMAP.pdf",
        "note": "OSM公开遗址矢量，与官方遗址导览名称对应；非文物部门实测界址。",
        "period": "罗马共和国／罗马帝国",
        "heritageId": "whc-829"
      }
    },
    {
      "type": "Feature",
      "geometry": {
        "type": "Polygon",
        "coordinates": [
          [
            [
              14.4841606,
              40.7485224
            ],
            [
              14.4841353,
              40.7485712
            ],
            [
              14.484091,
              40.7486673
            ],
            [
              14.4840859,
              40.7486774
            ],
            [
              14.4840586,
              40.7487317
            ],
            [
              14.4841126,
              40.7487476
            ],
            [
              14.4843972,
              40.7488329
            ],
            [
              14.4844154,
              40.7488385
            ],
            [
              14.4844317,
              40.7488435
            ],
            [
              14.4845247,
              40.7488723
            ],
            [
              14.4846735,
              40.7489184
            ],
            [
              14.484723,
              40.7489337
            ],
            [
              14.48478,
              40.7489514
            ],
            [
              14.4847856,
              40.7489415
            ],
            [
              14.484805,
              40.7489077
            ],
            [
              14.4848113,
              40.7488967
            ],
            [
              14.484839,
              40.7488485
            ],
            [
              14.4848654,
              40.7488008
            ],
            [
              14.4848718,
              40.7487893
            ],
            [
              14.4848924,
              40.748752
            ],
            [
              14.4849005,
              40.7487374
            ],
            [
              14.4848627,
              40.7487264
            ],
            [
              14.4848371,
              40.7487189
            ],
            [
              14.4848324,
              40.7487274
            ],
            [
              14.4845432,
              40.7486397
            ],
            [
              14.4845171,
              40.7486316
            ],
            [
              14.4841606,
              40.7485224
            ]
          ]
        ]
      },
      "properties": {
        "id": "pompeii-way-240573966",
        "name": "巴西利卡大厅",
        "enName": "Basilica",
        "role": "public",
        "originalName": "Basilica di Pompei (VIII.1.1)",
        "sourceUrl": "https://www.openstreetmap.org/way/240573966",
        "referenceUrl": "https://pompeiisites.org/wp-content/uploads/PompeiiMAP.pdf",
        "note": "OSM公开遗址矢量，与官方遗址导览名称对应；非文物部门实测界址。",
        "period": "罗马共和国／罗马帝国",
        "heritageId": "whc-829"
      }
    },
    {
      "type": "Feature",
      "geometry": {
        "type": "Polygon",
        "coordinates": [
          [
            [
              14.4847286,
              40.7490478
            ],
            [
              14.4845551,
              40.748985
            ],
            [
              14.4845343,
              40.7489783
            ],
            [
              14.48452,
              40.7489729
            ],
            [
              14.4843828,
              40.7489239
            ],
            [
              14.4841038,
              40.7493679
            ],
            [
              14.4843962,
              40.749476
            ],
            [
              14.4844151,
              40.7494828
            ],
            [
              14.4844705,
              40.7495027
            ],
            [
              14.4844762,
              40.7494938
            ],
            [
              14.4844864,
              40.7494766
            ],
            [
              14.48449,
              40.7494706
            ],
            [
              14.4845049,
              40.7494445
            ],
            [
              14.4846105,
              40.749254
            ],
            [
              14.4847286,
              40.7490478
            ]
          ]
        ]
      },
      "properties": {
        "id": "pompeii-way-240573968",
        "name": "阿波罗神庙",
        "enName": "Sanctuary of Apollo",
        "role": "temple",
        "originalName": "Tempio di Apollo",
        "sourceUrl": "https://www.openstreetmap.org/way/240573968",
        "referenceUrl": "https://pompeiisites.org/wp-content/uploads/PompeiiMAP.pdf",
        "note": "OSM公开遗址矢量，与官方遗址导览名称对应；非文物部门实测界址。",
        "period": "罗马共和国／罗马帝国",
        "heritageId": "whc-829"
      }
    },
    {
      "type": "Feature",
      "geometry": {
        "type": "Polygon",
        "coordinates": [
          [
            [
              14.4877107,
              40.7498109
            ],
            [
              14.4876837,
              40.749801
            ],
            [
              14.4876524,
              40.7497875
            ],
            [
              14.4876266,
              40.7498181
            ],
            [
              14.4875761,
              40.7497953
            ],
            [
              14.4875268,
              40.7497691
            ],
            [
              14.4874793,
              40.7497478
            ],
            [
              14.4874619,
              40.74974
            ],
            [
              14.4874221,
              40.7497287
            ],
            [
              14.4873733,
              40.7497149
            ],
            [
              14.4873493,
              40.7497081
            ],
            [
              14.4873271,
              40.749753
            ],
            [
              14.4873078,
              40.7497923
            ],
            [
              14.487295,
              40.7498182
            ],
            [
              14.4872836,
              40.7498413
            ],
            [
              14.4872083,
              40.7500038
            ],
            [
              14.4871957,
              40.7500011
            ],
            [
              14.4871451,
              40.7499904
            ],
            [
              14.4871426,
              40.7500022
            ],
            [
              14.4871397,
              40.7500155
            ],
            [
              14.4871346,
              40.7500259
            ],
            [
              14.487192,
              40.7500447
            ],
            [
              14.4872341,
              40.7500657
            ],
            [
              14.487217,
              40.7500819
            ],
            [
              14.4871663,
              40.7501298
            ],
            [
              14.4873361,
              40.7502129
            ],
            [
              14.4873575,
              40.7501889
            ],
            [
              14.4875281,
              40.7502675
            ],
            [
              14.4875632,
              40.750222
            ],
            [
              14.4876704,
              40.750272
            ],
            [
              14.4877295,
              40.7502019
            ],
            [
              14.4877578,
              40.7502162
            ],
            [
              14.4878212,
              40.7501571
            ],
            [
              14.4878092,
              40.7501538
            ],
            [
              14.4879446,
              40.7500251
            ],
            [
              14.4879841,
              40.7499876
            ],
            [
              14.4879248,
              40.7499562
            ],
            [
              14.4878732,
              40.7499289
            ],
            [
              14.4878221,
              40.7499018
            ],
            [
              14.4878444,
              40.7498733
            ],
            [
              14.4878204,
              40.7498609
            ],
            [
              14.4877689,
              40.7498395
            ],
            [
              14.4877107,
              40.7498109
            ]
          ]
        ]
      },
      "properties": {
        "id": "pompeii-way-240639210",
        "name": "斯塔比亚浴场",
        "enName": "Stabian Baths",
        "role": "bath",
        "originalName": "Terme Stabiane (VII.1.8)",
        "sourceUrl": "https://www.openstreetmap.org/way/240639210",
        "referenceUrl": "https://pompeiisites.org/wp-content/uploads/PompeiiMAP.pdf",
        "note": "OSM公开遗址矢量，与官方遗址导览名称对应；非文物部门实测界址。",
        "period": "罗马共和国／罗马帝国",
        "heritageId": "whc-829"
      }
    },
    {
      "type": "Feature",
      "geometry": {
        "type": "Polygon",
        "coordinates": [
          [
            [
              14.4849342,
              40.7510819
            ],
            [
              14.48486,
              40.7510484
            ],
            [
              14.4848416,
              40.7510418
            ],
            [
              14.484831,
              40.7510362
            ],
            [
              14.4848148,
              40.7510288
            ],
            [
              14.4847833,
              40.7510149
            ],
            [
              14.4847775,
              40.7510121
            ],
            [
              14.4847684,
              40.7510078
            ],
            [
              14.4847641,
              40.7510057
            ],
            [
              14.4847359,
              40.7509923
            ],
            [
              14.4847258,
              40.7509875
            ],
            [
              14.4847006,
              40.7509763
            ],
            [
              14.4846753,
              40.7509651
            ],
            [
              14.484666,
              40.750961
            ],
            [
              14.4846204,
              40.7509398
            ],
            [
              14.4846032,
              40.7509318
            ],
            [
              14.4845738,
              40.7509777
            ],
            [
              14.4845538,
              40.751009
            ],
            [
              14.4845328,
              40.7510412
            ],
            [
              14.4845083,
              40.7510793
            ],
            [
              14.4844878,
              40.7511126
            ],
            [
              14.4844605,
              40.7511561
            ],
            [
              14.4843565,
              40.7513166
            ],
            [
              14.48433,
              40.7513607
            ],
            [
              14.4841373,
              40.7516597
            ],
            [
              14.4842485,
              40.7517109
            ],
            [
              14.4842714,
              40.7517212
            ],
            [
              14.4843381,
              40.7517513
            ],
            [
              14.4843599,
              40.7517612
            ],
            [
              14.484379,
              40.7517699
            ],
            [
              14.4843997,
              40.75178
            ],
            [
              14.4844191,
              40.7517886
            ],
            [
              14.484445,
              40.7518001
            ],
            [
              14.4844749,
              40.7518134
            ],
            [
              14.4844924,
              40.7517864
            ],
            [
              14.4846779,
              40.7514917
            ],
            [
              14.4847101,
              40.7514417
            ],
            [
              14.4847278,
              40.7514143
            ],
            [
              14.4847577,
              40.7513675
            ],
            [
              14.4847771,
              40.7513357
            ],
            [
              14.4847931,
              40.7513082
            ],
            [
              14.4848073,
              40.7512859
            ],
            [
              14.4848245,
              40.7512589
            ],
            [
              14.4848558,
              40.7512055
            ],
            [
              14.484878,
              40.7511714
            ],
            [
              14.4848985,
              40.7511387
            ],
            [
              14.4849158,
              40.751111
            ],
            [
              14.4849342,
              40.7510819
            ]
          ]
        ]
      },
      "properties": {
        "id": "pompeii-way-240715554",
        "name": "农牧神之家",
        "enName": "House of the Faun",
        "role": "house",
        "originalName": "Casa del Fauno",
        "sourceUrl": "https://www.openstreetmap.org/way/240715554",
        "referenceUrl": "https://pompeiisites.org/wp-content/uploads/PompeiiMAP.pdf",
        "note": "OSM公开遗址矢量，与官方遗址导览名称对应；非文物部门实测界址。",
        "period": "罗马共和国／罗马帝国",
        "heritageId": "whc-829"
      }
    },
    {
      "type": "Feature",
      "geometry": {
        "type": "Polygon",
        "coordinates": [
          [
            [
              14.4850041,
              40.7496234
            ],
            [
              14.485062,
              40.7496387
            ],
            [
              14.485105,
              40.7496491
            ],
            [
              14.4851556,
              40.7496626
            ],
            [
              14.4852619,
              40.7496906
            ],
            [
              14.4853203,
              40.7497059
            ],
            [
              14.4853399,
              40.7496653
            ],
            [
              14.4853589,
              40.7496239
            ],
            [
              14.4853843,
              40.7495688
            ],
            [
              14.4853352,
              40.7495569
            ],
            [
              14.4851358,
              40.7495065
            ],
            [
              14.4850726,
              40.7494897
            ],
            [
              14.485045,
              40.7495538
            ],
            [
              14.4850041,
              40.7496234
            ]
          ]
        ]
      },
      "properties": {
        "id": "pompeii-way-240715565",
        "name": "韦斯帕芗神庙",
        "enName": "Temple of Vespasian",
        "role": "temple",
        "originalName": "Tempio di Vespasiano",
        "sourceUrl": "https://www.openstreetmap.org/way/240715565",
        "referenceUrl": "https://pompeiisites.org/wp-content/uploads/PompeiiMAP.pdf",
        "note": "OSM公开遗址矢量，与官方遗址导览名称对应；非文物部门实测界址。",
        "period": "罗马共和国／罗马帝国",
        "heritageId": "whc-829"
      }
    },
    {
      "type": "Feature",
      "geometry": {
        "type": "Polygon",
        "coordinates": [
          [
            [
              14.4845018,
              40.7498018
            ],
            [
              14.4846468,
              40.749847
            ],
            [
              14.4845937,
              40.7499445
            ],
            [
              14.4845194,
              40.7500811
            ],
            [
              14.4845134,
              40.7500922
            ],
            [
              14.4843684,
              40.750047
            ],
            [
              14.4843744,
              40.7500359
            ],
            [
              14.4844483,
              40.7499002
            ],
            [
              14.4845018,
              40.7498018
            ]
          ]
        ]
      },
      "properties": {
        "id": "pompeii-way-240715566",
        "name": "朱庇特神庙",
        "enName": "Temple of Jupiter",
        "role": "temple",
        "originalName": "Tempio di Giove (VII.8.1)",
        "sourceUrl": "https://www.openstreetmap.org/way/240715566",
        "referenceUrl": "https://pompeiisites.org/wp-content/uploads/PompeiiMAP.pdf",
        "note": "OSM公开遗址矢量，与官方遗址导览名称对应；非文物部门实测界址。",
        "period": "罗马共和国／罗马帝国",
        "heritageId": "whc-829"
      }
    },
    {
      "type": "Feature",
      "geometry": {
        "type": "Point",
        "coordinates": [
          14.4944173,
          40.7528139
        ]
      },
      "properties": {
        "id": "pompeii-node-305070718",
        "name": "萨尔诺门",
        "enName": "Sarno Gate",
        "role": "gate",
        "originalName": "Porta Sarno",
        "sourceUrl": "https://www.openstreetmap.org/node/305070718",
        "referenceUrl": "https://pompeiisites.org/wp-content/uploads/PompeiiMAP.pdf",
        "note": "OSM公开遗址矢量，与官方遗址导览名称对应；非文物部门实测界址。",
        "period": "罗马共和国／罗马帝国",
        "heritageId": "whc-829"
      }
    },
    {
      "type": "Feature",
      "geometry": {
        "type": "Point",
        "coordinates": [
          14.4899552,
          40.7483283
        ]
      },
      "properties": {
        "id": "pompeii-node-305070757",
        "name": "斯塔比亚门",
        "enName": "Stabia Gate",
        "role": "gate",
        "originalName": "Porta di Stabia",
        "sourceUrl": "https://www.openstreetmap.org/node/305070757",
        "referenceUrl": "https://pompeiisites.org/wp-content/uploads/PompeiiMAP.pdf",
        "note": "OSM公开遗址矢量，与官方遗址导览名称对应；非文物部门实测界址。",
        "period": "罗马共和国／罗马帝国",
        "heritageId": "whc-829"
      }
    },
    {
      "type": "Feature",
      "geometry": {
        "type": "Point",
        "coordinates": [
          14.4811095,
          40.7518271
        ]
      },
      "properties": {
        "id": "pompeii-node-316434187",
        "name": "赫库兰尼姆门",
        "enName": "Herculaneum Gate",
        "role": "gate",
        "originalName": "Porta di Ercolano",
        "sourceUrl": "https://www.openstreetmap.org/node/316434187",
        "referenceUrl": "https://pompeiisites.org/wp-content/uploads/PompeiiMAP.pdf",
        "note": "OSM公开遗址矢量，与官方遗址导览名称对应；非文物部门实测界址。",
        "period": "罗马共和国／罗马帝国",
        "heritageId": "whc-829"
      }
    },
    {
      "type": "Feature",
      "geometry": {
        "type": "Point",
        "coordinates": [
          14.4907955,
          40.7537202
        ]
      },
      "properties": {
        "id": "pompeii-node-317672536",
        "name": "诺拉门",
        "enName": "Nola Gate",
        "role": "gate",
        "originalName": "Porta Nola",
        "sourceUrl": "https://www.openstreetmap.org/node/317672536",
        "referenceUrl": "https://pompeiisites.org/wp-content/uploads/PompeiiMAP.pdf",
        "note": "OSM公开遗址矢量，与官方遗址导览名称对应；非文物部门实测界址。",
        "period": "罗马共和国／罗马帝国",
        "heritageId": "whc-829"
      }
    },
    {
      "type": "Feature",
      "geometry": {
        "type": "Point",
        "coordinates": [
          14.4830852,
          40.748509
        ]
      },
      "properties": {
        "id": "pompeii-node-317723948",
        "name": "海门",
        "enName": "Marina Gate",
        "role": "gate",
        "originalName": "Porta Marina",
        "sourceUrl": "https://www.openstreetmap.org/node/317723948",
        "referenceUrl": "https://pompeiisites.org/wp-content/uploads/PompeiiMAP.pdf",
        "note": "OSM公开遗址矢量，与官方遗址导览名称对应；非文物部门实测界址。",
        "period": "罗马共和国／罗马帝国",
        "heritageId": "whc-829"
      }
    },
    {
      "type": "Feature",
      "geometry": {
        "type": "Point",
        "coordinates": [
          14.4840985,
          40.7533795
        ]
      },
      "properties": {
        "id": "pompeii-node-317736807",
        "name": "维苏威门",
        "enName": "Vesuvius Gate",
        "role": "gate",
        "originalName": "Porta Vesuvio",
        "sourceUrl": "https://www.openstreetmap.org/node/317736807",
        "referenceUrl": "https://pompeiisites.org/wp-content/uploads/PompeiiMAP.pdf",
        "note": "OSM公开遗址矢量，与官方遗址导览名称对应；非文物部门实测界址。",
        "period": "罗马共和国／罗马帝国",
        "heritageId": "whc-829"
      }
    },
    {
      "type": "Feature",
      "geometry": {
        "type": "Polygon",
        "coordinates": [
          [
            [
              14.4844936,
              40.7508031
            ],
            [
              14.4842694,
              40.7507004
            ],
            [
              14.4843239,
              40.7506238
            ],
            [
              14.484387,
              40.7506508
            ],
            [
              14.4845545,
              40.7507224
            ],
            [
              14.4844936,
              40.7508031
            ]
          ]
        ]
      },
      "properties": {
        "id": "pompeii-way-355834242",
        "name": "幸运女神神庙",
        "enName": "Temple of Fortuna Augusta",
        "role": "temple",
        "originalName": "Tempio della Fortuna Augusta",
        "sourceUrl": "https://www.openstreetmap.org/way/355834242",
        "referenceUrl": "https://pompeiisites.org/wp-content/uploads/PompeiiMAP.pdf",
        "note": "OSM公开遗址矢量，与官方遗址导览名称对应；非文物部门实测界址。",
        "period": "罗马共和国／罗马帝国",
        "heritageId": "whc-829"
      }
    },
    {
      "type": "Feature",
      "geometry": {
        "type": "Polygon",
        "coordinates": [
          [
            [
              14.4873109,
              40.7515168
            ],
            [
              14.4868925,
              40.7519029
            ],
            [
              14.4862434,
              40.7516001
            ],
            [
              14.4864547,
              40.7513883
            ],
            [
              14.4866708,
              40.7511976
            ],
            [
              14.4869411,
              40.7513321
            ],
            [
              14.4870049,
              40.7513648
            ],
            [
              14.4873109,
              40.7515168
            ]
          ]
        ]
      },
      "properties": {
        "id": "pompeii-way-356867685",
        "name": "中央浴场",
        "enName": "Central Baths",
        "role": "bath",
        "originalName": "Terme centrali di Pompei",
        "sourceUrl": "https://www.openstreetmap.org/way/356867685",
        "referenceUrl": "https://pompeiisites.org/wp-content/uploads/PompeiiMAP.pdf",
        "note": "OSM公开遗址矢量，与官方遗址导览名称对应；非文物部门实测界址。",
        "period": "罗马共和国／罗马帝国",
        "heritageId": "whc-829"
      }
    },
    {
      "type": "Feature",
      "geometry": {
        "type": "Polygon",
        "coordinates": [
          [
            [
              14.4810778,
              40.7517765
            ],
            [
              14.4810814,
              40.7517753
            ],
            [
              14.4810704,
              40.7517572
            ],
            [
              14.4810451,
              40.7517063
            ],
            [
              14.4812167,
              40.7515853
            ],
            [
              14.4812521,
              40.7515577
            ],
            [
              14.4812878,
              40.7515297
            ],
            [
              14.4812835,
              40.7515263
            ],
            [
              14.4813172,
              40.7514984
            ],
            [
              14.4813469,
              40.7514738
            ],
            [
              14.4813794,
              40.7514466
            ],
            [
              14.4814116,
              40.7514197
            ],
            [
              14.4821687,
              40.7508108
            ],
            [
              14.4822712,
              40.7507137
            ],
            [
              14.4826494,
              40.7502901
            ],
            [
              14.4827698,
              40.7501537
            ],
            [
              14.4828045,
              40.7501121
            ],
            [
              14.4828784,
              40.7500212
            ],
            [
              14.4829451,
              40.7499387
            ],
            [
              14.4830047,
              40.749966
            ],
            [
              14.4830914,
              40.7498537
            ],
            [
              14.4830901,
              40.7498436
            ],
            [
              14.4830954,
              40.7498334
            ],
            [
              14.4831035,
              40.7498253
            ],
            [
              14.4831156,
              40.7498202
            ],
            [
              14.4831261,
              40.749817
            ],
            [
              14.4831619,
              40.7497634
            ],
            [
              14.4830992,
              40.7497379
            ],
            [
              14.4831125,
              40.7497206
            ],
            [
              14.4831639,
              40.7496537
            ],
            [
              14.4832632,
              40.7495243
            ],
            [
              14.4833313,
              40.7495464
            ],
            [
              14.4833613,
              40.7495189
            ],
            [
              14.4832971,
              40.7494834
            ],
            [
              14.4833245,
              40.7494517
            ],
            [
              14.4831266,
              40.7493175
            ],
            [
              14.4829735,
              40.7492238
            ],
            [
              14.4829283,
              40.7491962
            ],
            [
              14.4829667,
              40.7491546
            ],
            [
              14.4829115,
              40.7491147
            ],
            [
              14.4828956,
              40.7491022
            ],
            [
              14.4829485,
              40.7490552
            ],
            [
              14.4829413,
              40.7490462
            ],
            [
              14.4829099,
              40.7490067
            ],
            [
              14.4829071,
              40.7489788
            ],
            [
              14.4829044,
              40.7489519
            ],
            [
              14.482897,
              40.7488793
            ],
            [
              14.4828957,
              40.7488658
            ],
            [
              14.4829016,
              40.7488359
            ],
            [
              14.4829389,
              40.7487686
            ],
            [
              14.4829927,
              40.7487126
            ],
            [
              14.4829653,
              40.7486988
            ],
            [
              14.4830225,
              40.7485547
            ],
            [
              14.4830304,
              40.7485348
            ],
            [
              14.4830677,
              40.7485405
            ],
            [
              14.4830852,
              40.748509
            ],
            [
              14.4831038,
              40.7484787
            ],
            [
              14.4830396,
              40.7484617
            ],
            [
              14.4829343,
              40.7484619
            ],
            [
              14.482943,
              40.7483934
            ],
            [
              14.4830382,
              40.7483959
            ],
            [
              14.4830461,
              40.7483761
            ],
            [
              14.4830669,
              40.7483813
            ],
            [
              14.4832048,
              40.7479459
            ],
            [
              14.4832259,
              40.7478889
            ],
            [
              14.4834211,
              40.747926
            ],
            [
              14.4834429,
              40.7478867
            ],
            [
              14.4835021,
              40.7479036
            ],
            [
              14.4836102,
              40.7479435
            ],
            [
              14.4836345,
              40.7479504
            ],
            [
              14.4836712,
              40.7479599
            ],
            [
              14.483722,
              40.7479749
            ],
            [
              14.4837801,
              40.7479921
            ],
            [
              14.4838337,
              40.748008
            ],
            [
              14.4838894,
              40.7480245
            ],
            [
              14.483947,
              40.7480415
            ],
            [
              14.4840062,
              40.748059
            ],
            [
              14.4840629,
              40.7480758
            ],
            [
              14.4841233,
              40.7480937
            ],
            [
              14.4841615,
              40.748105
            ],
            [
              14.4843961,
              40.7481745
            ],
            [
              14.484386,
              40.7481915
            ],
            [
              14.4844095,
              40.748198
            ],
            [
              14.4844497,
              40.7481955
            ],
            [
              14.4844876,
              40.7481931
            ],
            [
              14.4845255,
              40.7481908
            ],
            [
              14.4845635,
              40.7481884
            ],
            [
              14.4846208,
              40.7481848
            ],
            [
              14.484638,
              40.7481837
            ],
            [
              14.4846929,
              40.7481804
            ],
            [
              14.4848089,
              40.748173
            ],
            [
              14.4848425,
              40.7481842
            ],
            [
              14.4848444,
              40.7481804
            ],
            [
              14.484914,
              40.7481564
            ],
            [
              14.4849213,
              40.7481675
            ],
            [
              14.4849676,
              40.748144
            ],
            [
              14.4850178,
              40.7481184
            ],
            [
              14.485039,
              40.748113
            ],
            [
              14.4851727,
              40.7480783
            ],
            [
              14.485243,
              40.7480601
            ],
            [
              14.4851986,
              40.7479977
            ],
            [
              14.4856576,
              40.7478503
            ],
            [
              14.4857417,
              40.7478248
            ],
            [
              14.4857539,
              40.747851
            ],
            [
              14.4858267,
              40.7478918
            ],
            [
              14.4858872,
              40.7479475
            ],
            [
              14.4859261,
              40.7479851
            ],
            [
              14.4859698,
              40.7480025
            ],
            [
              14.4860146,
              40.7480196
            ],
            [
              14.4860937,
              40.748044
            ],
            [
              14.4860737,
              40.7480746
            ],
            [
              14.4862051,
              40.7481152
            ],
            [
              14.4862641,
              40.7481294
            ],
            [
              14.4864076,
              40.7481629
            ],
            [
              14.4864639,
              40.7481639
            ],
            [
              14.486547,
              40.7481568
            ],
            [
              14.4866592,
              40.7481084
            ],
            [
              14.4867504,
              40.7479194
            ],
            [
              14.4870481,
              40.7479804
            ],
            [
              14.4870079,
              40.7480555
            ],
            [
              14.4873869,
              40.7481409
            ],
            [
              14.487386,
              40.7480881
            ],
            [
              14.4876295,
              40.7480858
            ],
            [
              14.4876312,
              40.7481328
            ],
            [
              14.4877213,
              40.7481145
            ],
            [
              14.4878849,
              40.7480596
            ],
            [
              14.4881129,
              40.7479824
            ],
            [
              14.4883919,
              40.7479011
            ],
            [
              14.4890618,
              40.7479724
            ],
            [
              14.4892281,
              40.7480169
            ],
            [
              14.4900052,
              40.7481886
            ],
            [
              14.4899194,
              40.7483192
            ],
            [
              14.4899552,
              40.7483283
            ],
            [
              14.4899871,
              40.7483355
            ],
            [
              14.4900736,
              40.7482151
            ],
            [
              14.4905806,
              40.7483116
            ],
            [
              14.4919378,
              40.7486672
            ],
            [
              14.4924132,
              40.748903
            ],
            [
              14.4924214,
              40.7488925
            ],
            [
              14.4924833,
              40.7489203
            ],
            [
              14.4924716,
              40.7489353
            ],
            [
              14.4927248,
              40.7490507
            ],
            [
              14.4931844,
              40.749264
            ],
            [
              14.4934908,
              40.7494041
            ],
            [
              14.4934232,
              40.7494849
            ],
            [
              14.4934395,
              40.7494933
            ],
            [
              14.4934302,
              40.7495038
            ],
            [
              14.4934419,
              40.7495098
            ],
            [
              14.493468,
              40.7495231
            ],
            [
              14.4935453,
              40.7494297
            ],
            [
              14.4940363,
              40.7497067
            ],
            [
              14.4943777,
              40.7499091
            ],
            [
              14.494396,
              40.7498917
            ],
            [
              14.4944575,
              40.7499287
            ],
            [
              14.49444,
              40.7499453
            ],
            [
              14.4948313,
              40.7501825
            ],
            [
              14.4952391,
              40.7504225
            ],
            [
              14.4952529,
              40.7504097
            ],
            [
              14.4953123,
              40.7504462
            ],
            [
              14.4952959,
              40.7504615
            ],
            [
              14.495719,
              40.7507162
            ],
            [
              14.4961144,
              40.7509601
            ],
            [
              14.496135,
              40.7509562
            ],
            [
              14.4961522,
              40.7510085
            ],
            [
              14.4961266,
              40.7510133
            ],
            [
              14.4959551,
              40.751312
            ],
            [
              14.4957558,
              40.7515559
            ],
            [
              14.4956414,
              40.7516896
            ],
            [
              14.4954314,
              40.7519412
            ],
            [
              14.4954533,
              40.7519513
            ],
            [
              14.4954126,
              40.7520024
            ],
            [
              14.4953801,
              40.7519876
            ],
            [
              14.494631,
              40.7528764
            ],
            [
              14.4944378,
              40.7527885
            ],
            [
              14.4944173,
              40.7528139
            ],
            [
              14.4944007,
              40.7528347
            ],
            [
              14.4945663,
              40.7529109
            ],
            [
              14.494383,
              40.7530799
            ],
            [
              14.4934169,
              40.7533486
            ],
            [
              14.492932,
              40.7534589
            ],
            [
              14.4929404,
              40.7534815
            ],
            [
              14.4928703,
              40.7534965
            ],
            [
              14.4928612,
              40.7534721
            ],
            [
              14.4921567,
              40.7536242
            ],
            [
              14.4910807,
              40.7538354
            ],
            [
              14.4908104,
              40.7537033
            ],
            [
              14.4907955,
              40.7537202
            ],
            [
              14.490779,
              40.7537391
            ],
            [
              14.4909499,
              40.7538231
            ],
            [
              14.4902799,
              40.7539093
            ],
            [
              14.488935,
              40.7540561
            ],
            [
              14.488945,
              40.7540996
            ],
            [
              14.4888697,
              40.7541095
            ],
            [
              14.4888598,
              40.7540665
            ],
            [
              14.486855,
              40.7542529
            ],
            [
              14.4867805,
              40.7542431
            ],
            [
              14.4867099,
              40.7542307
            ],
            [
              14.4867042,
              40.7542492
            ],
            [
              14.4866065,
              40.7542319
            ],
            [
              14.486612,
              40.7542142
            ],
            [
              14.4863667,
              40.7541672
            ],
            [
              14.4844705,
              40.7535463
            ],
            [
              14.4840985,
              40.7533795
            ],
            [
              14.4840515,
              40.7533595
            ],
            [
              14.4839883,
              40.7533292
            ],
            [
              14.4836635,
              40.7531805
            ],
            [
              14.4836492,
              40.7531974
            ],
            [
              14.48358,
              40.7531638
            ],
            [
              14.4835955,
              40.7531455
            ],
            [
              14.4828823,
              40.7527893
            ],
            [
              14.4828688,
              40.7528052
            ],
            [
              14.482799,
              40.7527712
            ],
            [
              14.4828156,
              40.7527517
            ],
            [
              14.4821177,
              40.7524067
            ],
            [
              14.482046,
              40.7523689
            ],
            [
              14.4811353,
              40.7518945
            ],
            [
              14.4811448,
              40.7518821
            ],
            [
              14.4811229,
              40.7518457
            ],
            [
              14.4811095,
              40.7518271
            ],
            [
              14.4810966,
              40.751809
            ],
            [
              14.4810778,
              40.7517765
            ]
          ]
        ]
      },
      "properties": {
        "id": "pompeii-way-395792282",
        "name": "庞贝古城城墙",
        "enName": "Pompeii city walls",
        "role": "city",
        "originalName": "Mura di Pompei",
        "sourceUrl": "https://www.openstreetmap.org/way/395792282",
        "referenceUrl": "https://pompeiisites.org/wp-content/uploads/PompeiiMAP.pdf",
        "note": "OSM公开遗址矢量，与官方遗址导览名称对应；非文物部门实测界址。",
        "period": "罗马共和国／罗马帝国",
        "heritageId": "whc-829"
      }
    },
    {
      "type": "Feature",
      "geometry": {
        "type": "Polygon",
        "coordinates": [
          [
            [
              14.4843984,
              40.7497508
            ],
            [
              14.4849338,
              40.7487896
            ],
            [
              14.4853034,
              40.7489077
            ],
            [
              14.484768,
              40.749869
            ],
            [
              14.4843984,
              40.7497508
            ]
          ]
        ]
      },
      "properties": {
        "id": "pompeii-way-395802069",
        "name": "庞贝广场",
        "enName": "Forum",
        "role": "public",
        "originalName": "Foro di Pompei (VII.8)",
        "sourceUrl": "https://www.openstreetmap.org/way/395802069",
        "referenceUrl": "https://pompeiisites.org/wp-content/uploads/PompeiiMAP.pdf",
        "note": "OSM公开遗址矢量，与官方遗址导览名称对应；非文物部门实测界址。",
        "period": "罗马共和国／罗马帝国",
        "heritageId": "whc-829"
      }
    },
    {
      "type": "Feature",
      "geometry": {
        "type": "Point",
        "coordinates": [
          14.4934419,
          40.7495098
        ]
      },
      "properties": {
        "id": "pompeii-node-738804679",
        "name": "诺切拉门",
        "enName": "Nocera Gate",
        "role": "gate",
        "originalName": "Porta Nocera",
        "sourceUrl": "https://www.openstreetmap.org/node/738804679",
        "referenceUrl": "https://pompeiisites.org/wp-content/uploads/PompeiiMAP.pdf",
        "note": "OSM公开遗址矢量，与官方遗址导览名称对应；非文物部门实测界址。",
        "period": "罗马共和国／罗马帝国",
        "heritageId": "whc-829"
      }
    },
    {
      "type": "Feature",
      "geometry": {
        "type": "Polygon",
        "coordinates": [
          [
            [
              14.4870902,
              40.7491862
            ],
            [
              14.4871158,
              40.7491167
            ],
            [
              14.4871646,
              40.7491251
            ],
            [
              14.4871683,
              40.7491103
            ],
            [
              14.4872314,
              40.7491229
            ],
            [
              14.4872564,
              40.7490517
            ],
            [
              14.4872279,
              40.7490477
            ],
            [
              14.4872585,
              40.7489549
            ],
            [
              14.4875097,
              40.7490008
            ],
            [
              14.4875111,
              40.7490141
            ],
            [
              14.487408,
              40.7492503
            ],
            [
              14.4870902,
              40.7491862
            ]
          ]
        ]
      },
      "properties": {
        "id": "pompeii-way-1026423507",
        "name": "共和时期浴场",
        "enName": "Republican Baths",
        "role": "bath",
        "originalName": "Terme Repubblicane (VIII.5.36)",
        "sourceUrl": "https://www.openstreetmap.org/way/1026423507",
        "referenceUrl": "https://pompeiisites.org/wp-content/uploads/PompeiiMAP.pdf",
        "note": "OSM公开遗址矢量，与官方遗址导览名称对应；非文物部门实测界址。",
        "period": "罗马共和国／罗马帝国",
        "heritageId": "whc-829"
      }
    },
    {
      "type": "Feature",
      "geometry": {
        "type": "Polygon",
        "coordinates": [
          [
            [
              14.4880424,
              40.7491681
            ],
            [
              14.4881212,
              40.749205
            ],
            [
              14.4883256,
              40.7493007
            ],
            [
              14.4883435,
              40.7493091
            ],
            [
              14.4884666,
              40.7491586
            ],
            [
              14.4884992,
              40.7491184
            ],
            [
              14.4884693,
              40.7491045
            ],
            [
              14.4884331,
              40.7490876
            ],
            [
              14.4884209,
              40.7491026
            ],
            [
              14.4883792,
              40.7490832
            ],
            [
              14.4883588,
              40.7491083
            ],
            [
              14.4882434,
              40.7490545
            ],
            [
              14.4882044,
              40.7491026
            ],
            [
              14.4881258,
              40.7490659
            ],
            [
              14.4880424,
              40.7491681
            ]
          ]
        ]
      },
      "properties": {
        "id": "pompeii-way-1101753181",
        "name": "伊西斯神庙",
        "enName": "Temple of Isis",
        "role": "temple",
        "originalName": "Tempio d'Iside (VIII.7.28)",
        "sourceUrl": "https://www.openstreetmap.org/way/1101753181",
        "referenceUrl": "https://pompeiisites.org/wp-content/uploads/PompeiiMAP.pdf",
        "note": "OSM公开遗址矢量，与官方遗址导览名称对应；非文物部门实测界址。",
        "period": "罗马共和国／罗马帝国",
        "heritageId": "whc-829"
      }
    },
    {
      "type": "Feature",
      "geometry": {
        "type": "Polygon",
        "coordinates": [
          [
            [
              14.4772405,
              40.7535503
            ],
            [
              14.477225,
              40.7535497
            ],
            [
              14.4772067,
              40.7535534
            ],
            [
              14.4771909,
              40.7535613
            ],
            [
              14.4771794,
              40.7535727
            ],
            [
              14.4771734,
              40.7535862
            ],
            [
              14.4771735,
              40.7536006
            ],
            [
              14.4771797,
              40.7536141
            ],
            [
              14.4771954,
              40.7536279
            ],
            [
              14.4771902,
              40.7536356
            ],
            [
              14.4772192,
              40.7536464
            ],
            [
              14.4772106,
              40.7536589
            ],
            [
              14.4771587,
              40.7537329
            ],
            [
              14.4773134,
              40.7537951
            ],
            [
              14.4773064,
              40.753805
            ],
            [
              14.4772689,
              40.7538586
            ],
            [
              14.4772997,
              40.753871
            ],
            [
              14.4773171,
              40.7538462
            ],
            [
              14.4773653,
              40.7538656
            ],
            [
              14.4773704,
              40.7538677
            ],
            [
              14.4773645,
              40.7538762
            ],
            [
              14.4773761,
              40.7538809
            ],
            [
              14.4773779,
              40.7538888
            ],
            [
              14.4773842,
              40.7538953
            ],
            [
              14.4773936,
              40.7538991
            ],
            [
              14.4774042,
              40.7538993
            ],
            [
              14.4774138,
              40.753896
            ],
            [
              14.477425,
              40.7539005
            ],
            [
              14.477431,
              40.753892
            ],
            [
              14.4774369,
              40.7538944
            ],
            [
              14.4774414,
              40.7538962
            ],
            [
              14.4774234,
              40.7539218
            ],
            [
              14.4774546,
              40.7539343
            ],
            [
              14.4774406,
              40.7539543
            ],
            [
              14.4775048,
              40.7539842
            ],
            [
              14.4775303,
              40.7539501
            ],
            [
              14.4774682,
              40.753922
            ],
            [
              14.4774764,
              40.7539103
            ],
            [
              14.4775766,
              40.7539504
            ],
            [
              14.4776117,
              40.7539002
            ],
            [
              14.4776247,
              40.7539054
            ],
            [
              14.4776146,
              40.7539198
            ],
            [
              14.4776479,
              40.7539331
            ],
            [
              14.4776702,
              40.753917
            ],
            [
              14.4777061,
              40.7538909
            ],
            [
              14.4777766,
              40.7538399
            ],
            [
              14.4777536,
              40.7538306
            ],
            [
              14.4777866,
              40.7537835
            ],
            [
              14.4777533,
              40.7537701
            ],
            [
              14.4777947,
              40.753711
            ],
            [
              14.4778154,
              40.7536814
            ],
            [
              14.4778357,
              40.7536524
            ],
            [
              14.4778527,
              40.7536592
            ],
            [
              14.4778719,
              40.7536318
            ],
            [
              14.4778614,
              40.7536276
            ],
            [
              14.4779027,
              40.7535687
            ],
            [
              14.4778242,
              40.7535372
            ],
            [
              14.477813,
              40.7535327
            ],
            [
              14.4776082,
              40.7534504
            ],
            [
              14.4775863,
              40.7534818
            ],
            [
              14.477546,
              40.7534656
            ],
            [
              14.4775398,
              40.7534743
            ],
            [
              14.4775368,
              40.7534784
            ],
            [
              14.4775029,
              40.7535272
            ],
            [
              14.4774717,
              40.7535147
            ],
            [
              14.4773466,
              40.7534644
            ],
            [
              14.4772837,
              40.7535539
            ],
            [
              14.4772647,
              40.7535476
            ],
            [
              14.4772466,
              40.7535416
            ],
            [
              14.4772405,
              40.7535503
            ]
          ]
        ]
      },
      "properties": {
        "id": "pompeii-way-1230956516",
        "name": "秘仪别墅",
        "enName": "Villa of the Mysteries",
        "role": "house",
        "originalName": "Villa dei Misteri",
        "sourceUrl": "https://www.openstreetmap.org/way/1230956516",
        "referenceUrl": "https://pompeiisites.org/wp-content/uploads/PompeiiMAP.pdf",
        "note": "OSM公开遗址矢量，与官方遗址导览名称对应；非文物部门实测界址。",
        "period": "罗马共和国／罗马帝国",
        "heritageId": "whc-829"
      }
    },
    {
      "type": "Feature",
      "geometry": {
        "type": "Polygon",
        "coordinates": [
          [
            [
              14.4875912,
              40.7485331
            ],
            [
              14.4876059,
              40.7482634
            ],
            [
              14.4876583,
              40.7482638
            ],
            [
              14.4881458,
              40.748023
            ],
            [
              14.4886453,
              40.7480373
            ],
            [
              14.4887,
              40.7480728
            ],
            [
              14.4883852,
              40.7483788
            ],
            [
              14.4883558,
              40.7484111
            ],
            [
              14.4881733,
              40.7485879
            ],
            [
              14.4879956,
              40.7487727
            ],
            [
              14.4879755,
              40.7487936
            ],
            [
              14.4878721,
              40.7489012
            ],
            [
              14.487816,
              40.7489595
            ],
            [
              14.4877732,
              40.749004
            ],
            [
              14.487746,
              40.7489908
            ],
            [
              14.4875849,
              40.7489125
            ],
            [
              14.4875748,
              40.7489014
            ],
            [
              14.4875912,
              40.7485331
            ]
          ]
        ]
      },
      "properties": {
        "id": "pompeii-way-1363332206",
        "name": "三角广场",
        "enName": "Triangular Forum",
        "role": "public",
        "originalName": "Foro Triangolare (VIII.7.30)",
        "sourceUrl": "https://www.openstreetmap.org/way/1363332206",
        "referenceUrl": "https://pompeiisites.org/wp-content/uploads/PompeiiMAP.pdf",
        "note": "OSM公开遗址矢量，与官方遗址导览名称对应；非文物部门实测界址。",
        "period": "罗马共和国／罗马帝国",
        "heritageId": "whc-829"
      }
    },
    {
      "type": "Feature",
      "geometry": {
        "type": "Polygon",
        "coordinates": [
          [
            [
              14.4958295,
              40.7513992
            ],
            [
              14.4958956,
              40.7512939
            ],
            [
              14.4959332,
              40.7511593
            ],
            [
              14.495917,
              40.7510192
            ],
            [
              14.495872,
              40.7509105
            ],
            [
              14.4958045,
              40.7508423
            ],
            [
              14.4956759,
              40.7507509
            ],
            [
              14.4955088,
              40.7506836
            ],
            [
              14.495412,
              40.7506525
            ],
            [
              14.4952764,
              40.75064
            ],
            [
              14.4952743,
              40.7506273
            ],
            [
              14.4952722,
              40.7506146
            ],
            [
              14.4951619,
              40.7506227
            ],
            [
              14.495166,
              40.750636
            ],
            [
              14.49517,
              40.7506494
            ],
            [
              14.4950809,
              40.7506738
            ],
            [
              14.4950287,
              40.7506928
            ],
            [
              14.4949741,
              40.7507248
            ],
            [
              14.49491,
              40.7507677
            ],
            [
              14.4948534,
              40.7508106
            ],
            [
              14.4948412,
              40.7508042
            ],
            [
              14.4948278,
              40.7507972
            ],
            [
              14.4945956,
              40.7510626
            ],
            [
              14.4946101,
              40.7510691
            ],
            [
              14.4946245,
              40.7510756
            ],
            [
              14.4944925,
              40.7512416
            ],
            [
              14.4944672,
              40.7513173
            ],
            [
              14.4944613,
              40.7514101
            ],
            [
              14.4944419,
              40.7514131
            ],
            [
              14.4944224,
              40.7514113
            ],
            [
              14.4944268,
              40.7515038
            ],
            [
              14.4944555,
              40.7515931
            ],
            [
              14.4945085,
              40.7516719
            ],
            [
              14.4945532,
              40.7517267
            ],
            [
              14.4945668,
              40.7517201
            ],
            [
              14.4945804,
              40.7517142
            ],
            [
              14.4946786,
              40.7517959
            ],
            [
              14.494749,
              40.7518326
            ],
            [
              14.4948149,
              40.7518553
            ],
            [
              14.4949113,
              40.7518769
            ],
            [
              14.4950043,
              40.7518878
            ],
            [
              14.4951642,
              40.7518862
            ],
            [
              14.4951706,
              40.7519019
            ],
            [
              14.4951765,
              40.7519179
            ],
            [
              14.4953707,
              40.7518713
            ],
            [
              14.4955334,
              40.7517597
            ],
            [
              14.4958295,
              40.7513992
            ]
          ],
          [
            [
              14.4954222,
              40.7509315
            ],
            [
              14.495367,
              40.7510022
            ],
            [
              14.4953157,
              40.7509991
            ],
            [
              14.4952389,
              40.7510166
            ],
            [
              14.4951605,
              40.7510544
            ],
            [
              14.4950687,
              40.7511257
            ],
            [
              14.4949944,
              40.7512099
            ],
            [
              14.4949558,
              40.7512715
            ],
            [
              14.4949335,
              40.7513174
            ],
            [
              14.4949179,
              40.7513717
            ],
            [
              14.4949128,
              40.7514164
            ],
            [
              14.4949147,
              40.7514506
            ],
            [
              14.4949356,
              40.7514994
            ],
            [
              14.4949588,
              40.7515295
            ],
            [
              14.4949096,
              40.7515933
            ],
            [
              14.4949311,
              40.7516037
            ],
            [
              14.4949525,
              40.7516141
            ],
            [
              14.4950055,
              40.751549
            ],
            [
              14.4950639,
              40.751552
            ],
            [
              14.495114,
              40.7515428
            ],
            [
              14.4951656,
              40.7515249
            ],
            [
              14.4952104,
              40.7514991
            ],
            [
              14.4952598,
              40.7514672
            ],
            [
              14.4953164,
              40.7514155
            ],
            [
              14.495366,
              40.7513616
            ],
            [
              14.495419,
              40.751281
            ],
            [
              14.4954536,
              40.7511919
            ],
            [
              14.4954597,
              40.7511308
            ],
            [
              14.4954535,
              40.7510857
            ],
            [
              14.495435,
              40.7510471
            ],
            [
              14.4954067,
              40.7510178
            ],
            [
              14.4954581,
              40.7509487
            ],
            [
              14.4954413,
              40.7509397
            ],
            [
              14.4954222,
              40.7509315
            ]
          ]
        ]
      },
      "properties": {
        "id": "pompeii-relation-57304",
        "name": "圆形竞技场",
        "enName": "Amphitheatre",
        "role": "theatre",
        "originalName": "Amphitheatre",
        "sourceUrl": "https://www.openstreetmap.org/relation/57304",
        "referenceUrl": "https://pompeiisites.org/wp-content/uploads/PompeiiMAP.pdf",
        "note": "OSM公开遗址矢量，与官方遗址导览名称对应；非文物部门实测界址。",
        "period": "罗马共和国／罗马帝国",
        "heritageId": "whc-829"
      }
    },
    {
      "type": "Feature",
      "geometry": {
        "type": "Polygon",
        "coordinates": [
          [
            [
              14.4843071,
              40.7521927
            ],
            [
              14.4845088,
              40.7518721
            ],
            [
              14.4846961,
              40.7519535
            ],
            [
              14.4847659,
              40.7519862
            ],
            [
              14.484788,
              40.7519955
            ],
            [
              14.4848395,
              40.7520175
            ],
            [
              14.4847661,
              40.752135
            ],
            [
              14.4846576,
              40.7523087
            ],
            [
              14.4846076,
              40.7522902
            ],
            [
              14.4845611,
              40.7522731
            ],
            [
              14.4845534,
              40.7522851
            ],
            [
              14.4843071,
              40.7521927
            ]
          ],
          [
            [
              14.4845112,
              40.7519353
            ],
            [
              14.4844171,
              40.7520772
            ],
            [
              14.484504,
              40.7521103
            ],
            [
              14.4845982,
              40.7519684
            ],
            [
              14.4845112,
              40.7519353
            ]
          ]
        ]
      },
      "properties": {
        "id": "pompeii-relation-3247807",
        "name": "维蒂之家",
        "enName": "House of the Vettii",
        "role": "house",
        "originalName": "House of the Vettii",
        "sourceUrl": "https://www.openstreetmap.org/relation/3247807",
        "referenceUrl": "https://pompeiisites.org/wp-content/uploads/PompeiiMAP.pdf",
        "note": "OSM公开遗址矢量，与官方遗址导览名称对应；非文物部门实测界址。",
        "period": "罗马共和国／罗马帝国",
        "heritageId": "whc-829"
      }
    },
    {
      "type": "Feature",
      "geometry": {
        "type": "Polygon",
        "coordinates": [
          [
            [
              14.4881132,
              40.7486734
            ],
            [
              14.4880843,
              40.7487186
            ],
            [
              14.4880632,
              40.7487703
            ],
            [
              14.4880569,
              40.7488243
            ],
            [
              14.4880658,
              40.7488781
            ],
            [
              14.4880893,
              40.7489293
            ],
            [
              14.4881265,
              40.7489756
            ],
            [
              14.4881757,
              40.749015
            ],
            [
              14.4882375,
              40.7490468
            ],
            [
              14.488307,
              40.7490675
            ],
            [
              14.4883808,
              40.7490762
            ],
            [
              14.4884553,
              40.7490725
            ],
            [
              14.488527,
              40.7490565
            ],
            [
              14.4885923,
              40.7490289
            ],
            [
              14.4886418,
              40.7489964
            ],
            [
              14.4886843,
              40.7489584
            ],
            [
              14.4887088,
              40.7489311
            ],
            [
              14.4887156,
              40.7489236
            ],
            [
              14.4887256,
              40.7489124
            ],
            [
              14.4887309,
              40.7489065
            ],
            [
              14.4887502,
              40.7488862
            ],
            [
              14.488729,
              40.7488752
            ],
            [
              14.4886226,
              40.7488204
            ],
            [
              14.4886672,
              40.7487691
            ],
            [
              14.488691,
              40.7487424
            ],
            [
              14.4883668,
              40.7485722
            ],
            [
              14.4882976,
              40.7486579
            ],
            [
              14.4882429,
              40.7486306
            ],
            [
              14.4881811,
              40.7486013
            ],
            [
              14.4881596,
              40.7486228
            ],
            [
              14.4881132,
              40.7486734
            ]
          ],
          [
            [
              14.4883484,
              40.7486984
            ],
            [
              14.4883264,
              40.748687
            ],
            [
              14.4883156,
              40.7486989
            ],
            [
              14.488304,
              40.7487118
            ],
            [
              14.488375,
              40.7487487
            ],
            [
              14.4883618,
              40.7487633
            ],
            [
              14.4883535,
              40.7487739
            ],
            [
              14.488344,
              40.7487888
            ],
            [
              14.4883419,
              40.7487973
            ],
            [
              14.4883422,
              40.7488072
            ],
            [
              14.4883456,
              40.7488179
            ],
            [
              14.4883522,
              40.7488275
            ],
            [
              14.4883622,
              40.7488363
            ],
            [
              14.4883758,
              40.7488433
            ],
            [
              14.4883871,
              40.7488465
            ],
            [
              14.4884054,
              40.7488482
            ],
            [
              14.4884212,
              40.7488463
            ],
            [
              14.4884326,
              40.7488427
            ],
            [
              14.4884403,
              40.748839
            ],
            [
              14.4884489,
              40.7488332
            ],
            [
              14.4884564,
              40.7488256
            ],
            [
              14.4884653,
              40.7488171
            ],
            [
              14.4884786,
              40.7488025
            ],
            [
              14.4885424,
              40.7488357
            ],
            [
              14.4885533,
              40.7488237
            ],
            [
              14.4885649,
              40.7488109
            ],
            [
              14.4885413,
              40.7487986
            ],
            [
              14.4885915,
              40.7487432
            ],
            [
              14.4883986,
              40.7486429
            ],
            [
              14.4883484,
              40.7486984
            ]
          ]
        ]
      },
      "properties": {
        "id": "pompeii-relation-14673806",
        "name": "大剧场",
        "enName": "Large Theatre",
        "role": "theatre",
        "originalName": "Large Theatre",
        "sourceUrl": "https://www.openstreetmap.org/relation/14673806",
        "referenceUrl": "https://pompeiisites.org/wp-content/uploads/PompeiiMAP.pdf",
        "note": "OSM公开遗址矢量，与官方遗址导览名称对应；非文物部门实测界址。",
        "period": "罗马共和国／罗马帝国",
        "heritageId": "whc-829"
      }
    },
    {
      "type": "Feature",
      "geometry": {
        "type": "Polygon",
        "coordinates": [
          [
            [
              14.4889627,
              40.7486777
            ],
            [
              14.4889173,
              40.7487264
            ],
            [
              14.4888316,
              40.7488184
            ],
            [
              14.4888059,
              40.748846
            ],
            [
              14.4888124,
              40.7488674
            ],
            [
              14.4888233,
              40.7488895
            ],
            [
              14.4888382,
              40.7489101
            ],
            [
              14.4888629,
              40.748934
            ],
            [
              14.488888,
              40.7489513
            ],
            [
              14.4889263,
              40.7489694
            ],
            [
              14.4889493,
              40.7489767
            ],
            [
              14.4889631,
              40.74898
            ],
            [
              14.4890073,
              40.7489858
            ],
            [
              14.4890444,
              40.7489853
            ],
            [
              14.4890703,
              40.7489821
            ],
            [
              14.4890907,
              40.7489782
            ],
            [
              14.4892352,
              40.7488232
            ],
            [
              14.4889627,
              40.7486777
            ]
          ],
          [
            [
              14.4889775,
              40.7487413
            ],
            [
              14.4889363,
              40.7487193
            ],
            [
              14.488965,
              40.7486884
            ],
            [
              14.4892219,
              40.7488251
            ],
            [
              14.4891931,
              40.7488562
            ],
            [
              14.4891455,
              40.7488309
            ],
            [
              14.4891246,
              40.7488535
            ],
            [
              14.4890775,
              40.7488285
            ],
            [
              14.4890644,
              40.7488385
            ],
            [
              14.4890484,
              40.7488431
            ],
            [
              14.4890288,
              40.7488417
            ],
            [
              14.4890134,
              40.7488346
            ],
            [
              14.4890031,
              40.7488223
            ],
            [
              14.4890014,
              40.7488066
            ],
            [
              14.4890098,
              40.7487925
            ],
            [
              14.4889564,
              40.7487641
            ],
            [
              14.4889668,
              40.7487528
            ],
            [
              14.4889775,
              40.7487413
            ]
          ]
        ]
      },
      "properties": {
        "id": "pompeii-relation-18714331",
        "name": "小剧场（音乐厅）",
        "enName": "Small Theatre (Odeon)",
        "role": "theatre",
        "originalName": "Small Theatre (Odeon)",
        "sourceUrl": "https://www.openstreetmap.org/relation/18714331",
        "referenceUrl": "https://pompeiisites.org/wp-content/uploads/PompeiiMAP.pdf",
        "note": "OSM公开遗址矢量，与官方遗址导览名称对应；非文物部门实测界址。",
        "period": "罗马共和国／罗马帝国",
        "heritageId": "whc-829"
      }
    }
  ]
}
