{"type":"FeatureCollection","features":[{"type":"Feature","properties":{"city":"北京","year":1400,"begin":1369,"end":1911,"areaKm2":35.3063954583328,"sourceIds":[4]},"geometry":{"type":"MultiPolygon","coordinates":[[[[116.3494,39.941028],[116.35157,39.898308],[116.429132,39.900269],[116.427353,39.94819],[116.366091,39.947283],[116.364143,39.946845],[116.350991,39.94219],[116.3494,39.941028]]]]}},{"type":"Feature","properties":{"city":"洛阳","year":1400,"begin":1368,"end":1911,"areaKm2":1.896385149647929,"sourceIds":[134]},"geometry":{"type":"MultiPolygon","coordinates":[[[[112.464282,34.6899],[112.465744,34.678754],[112.466055,34.677914],[112.472154,34.679437],[112.480835,34.68089],[112.479713,34.692262],[112.472841,34.691668],[112.472121,34.692202],[112.464866,34.690288],[112.464282,34.6899]]]]}},{"type":"Feature","properties":{"city":"北京","year":1537,"begin":1369,"end":1911,"areaKm2":35.3063954583328,"sourceIds":[4]},"geometry":{"type":"MultiPolygon","coordinates":[[[[116.3494,39.941028],[116.35157,39.898308],[116.429132,39.900269],[116.427353,39.94819],[116.366091,39.947283],[116.364143,39.946845],[116.350991,39.94219],[116.3494,39.941028]]]]}},{"type":"Feature","properties":{"city":"洛阳","year":1537,"begin":1368,"end":1911,"areaKm2":1.896385149647929,"sourceIds":[134]},"geometry":{"type":"MultiPolygon","coordinates":[[[[112.464282,34.6899],[112.465744,34.678754],[112.466055,34.677914],[112.472154,34.679437],[112.480835,34.68089],[112.479713,34.692262],[112.472841,34.691668],[112.472121,34.692202],[112.464866,34.690288],[112.464282,34.6899]]]]}},{"type":"Feature","properties":{"city":"北京","year":1648,"begin":1369,"end":1911,"areaKm2":60.666960667233774,"sourceIds":[4,5]},"geometry":{"type":"MultiPolygon","coordinates":[[[[116.344522,39.881057],[116.345328,39.868077],[116.382665,39.870749],[116.41623,39.871734],[116.436809,39.870865],[116.437507,39.873989],[116.439076,39.877163],[116.436769,39.89407],[116.436444,39.900487],[116.4291309333959,39.90029773116072],[116.427353,39.94819],[116.366091,39.947283],[116.364143,39.946845],[116.350991,39.94219],[116.3494,39.941028],[116.35157,39.898308],[116.38103345520341,39.89905292452043],[116.344948,39.898119],[116.344522,39.881057]]]]}},{"type":"Feature","properties":{"city":"洛阳","year":1648,"begin":1368,"end":1911,"areaKm2":1.896385149647929,"sourceIds":[134]},"geometry":{"type":"MultiPolygon","coordinates":[[[[112.464282,34.6899],[112.465744,34.678754],[112.466055,34.677914],[112.472154,34.679437],[112.480835,34.68089],[112.479713,34.692262],[112.472841,34.691668],[112.472121,34.692202],[112.464866,34.690288],[112.464282,34.6899]]]]}},{"type":"Feature","properties":{"city":"北京","year":1708,"begin":1369,"end":1911,"areaKm2":60.666960667233774,"sourceIds":[4,5]},"geometry":{"type":"MultiPolygon","coordinates":[[[[116.344522,39.881057],[116.345328,39.868077],[116.382665,39.870749],[116.41623,39.871734],[116.436809,39.870865],[116.437507,39.873989],[116.439076,39.877163],[116.436769,39.89407],[116.436444,39.900487],[116.4291309333959,39.90029773116072],[116.427353,39.94819],[116.366091,39.947283],[116.364143,39.946845],[116.350991,39.94219],[116.3494,39.941028],[116.35157,39.898308],[116.38103345520341,39.89905292452043],[116.344948,39.898119],[116.344522,39.881057]]]]}},{"type":"Feature","properties":{"city":"洛阳","year":1708,"begin":1368,"end":1911,"areaKm2":1.896385149647929,"sourceIds":[134]},"geometry":{"type":"MultiPolygon","coordinates":[[[[112.464282,34.6899],[112.465744,34.678754],[112.466055,34.677914],[112.472154,34.679437],[112.480835,34.68089],[112.479713,34.692262],[112.472841,34.691668],[112.472121,34.692202],[112.464866,34.690288],[112.464282,34.6899]]]]}},{"type":"Feature","properties":{"city":"北京","year":1787,"begin":1369,"end":1911,"areaKm2":60.666960667233774,"sourceIds":[4,5]},"geometry":{"type":"MultiPolygon","coordinates":[[[[116.344522,39.881057],[116.345328,39.868077],[116.382665,39.870749],[116.41623,39.871734],[116.436809,39.870865],[116.437507,39.873989],[116.439076,39.877163],[116.436769,39.89407],[116.436444,39.900487],[116.4291309333959,39.90029773116072],[116.427353,39.94819],[116.366091,39.947283],[116.364143,39.946845],[116.350991,39.94219],[116.3494,39.941028],[116.35157,39.898308],[116.38103345520341,39.89905292452043],[116.344948,39.898119],[116.344522,39.881057]]]]}},{"type":"Feature","properties":{"city":"洛阳","year":1787,"begin":1368,"end":1911,"areaKm2":1.896385149647929,"sourceIds":[134]},"geometry":{"type":"MultiPolygon","coordinates":[[[[112.464282,34.6899],[112.465744,34.678754],[112.466055,34.677914],[112.472154,34.679437],[112.480835,34.68089],[112.479713,34.692262],[112.472841,34.691668],[112.472121,34.692202],[112.464866,34.690288],[112.464282,34.6899]]]]}},{"type":"Feature","properties":{"city":"北京","year":1866,"begin":1369,"end":1911,"areaKm2":60.666960667233774,"sourceIds":[4,5]},"geometry":{"type":"MultiPolygon","coordinates":[[[[116.344522,39.881057],[116.345328,39.868077],[116.382665,39.870749],[116.41623,39.871734],[116.436809,39.870865],[116.437507,39.873989],[116.439076,39.877163],[116.436769,39.89407],[116.436444,39.900487],[116.4291309333959,39.90029773116072],[116.427353,39.94819],[116.366091,39.947283],[116.364143,39.946845],[116.350991,39.94219],[116.3494,39.941028],[116.35157,39.898308],[116.38103345520341,39.89905292452043],[116.344948,39.898119],[116.344522,39.881057]]]]}},{"type":"Feature","properties":{"city":"洛阳","year":1866,"begin":1368,"end":1911,"areaKm2":1.896385149647929,"sourceIds":[134]},"geometry":{"type":"MultiPolygon","coordinates":[[[[112.464282,34.6899],[112.465744,34.678754],[112.466055,34.677914],[112.472154,34.679437],[112.480835,34.68089],[112.479713,34.692262],[112.472841,34.691668],[112.472121,34.692202],[112.464866,34.690288],[112.464282,34.6899]]]]}}]}
