{"type":"FeatureCollection","features":[{"type":"Feature","id":"wiki-history-0","properties":{"name":"春秋战国长城 · 01","category":"wall","originalPath":"万里の長城 wikipedia/春秋戦国","comment":"","originalName":"春秋戦国_01","originalId":0,"nameEn":"Spring and Autumn / Warring States Great Wall · 01","source":"wikipedia-kmz","dynasty":"spring-autumn","dynastyZh":"春秋战国","dynastyEn":"Spring and Autumn / Warring States","approximate":true},"geometry":{"type":"LineString","coordinates":[[104.089859411888,34.48870309490223],[103.8406395879761,34.63447151314706],[103.6931847730344,34.73505386236491],[103.9341734085532,34.80635139309139],[103.8990829025288,34.9404506814202],[103.7550677476652,34.93805423676673],[103.579968640962,34.89572745135155],[103.6299022395814,35.07787964465283],[103.4127964814295,35.16203040976286],[103.3890168210056,35.22334828996426],[103.196565099352,35.2693906109625],[102.9275733217432,35.37542173598655],[102.8554032954007,35.59862279752599],[102.8045282414137,35.65490804728958],[103.0149416096883,35.7587409591215],[103.2226373989822,35.8977383266631],[103.2598100889653,35.9729889574038],[103.5236879586914,36.11623429492942],[103.6746470940075,36.13576802290681],[103.8376760535953,36.0947040567357],[104.0263284214502,36.08057154829162],[104.0841628431333,36.13491766002797],[104.173559651898,36.29120104444856],[104.2488517808241,36.36795025846898],[104.5754758523049,36.51561890675254],[104.6967131096158,36.66781265989374],[104.6930692542504,36.74252252995502],[104.8855736671426,36.7792478201531],[105.1315849279584,36.71299601388844],[105.4642531292365,36.52507861187454],[105.5919032432155,36.40802670661413],[105.5518038058038,36.2154848570791],[105.7627052977396,36.04628838312176],[105.8843704040908,36.11282252072093],[105.9485681367301,36.05218026888489],[106.1254116429703,35.9578259809278],[106.3490416738318,36.01447722690643],[106.3860232904796,36.05348452806023],[106.4612431364514,36.08012353607432],[106.5153900533967,36.17607340313212],[106.5736834513467,36.23579613612158],[106.6163094985607,36.41868177367672],[106.751962003724,36.41477273292742],[107.2155898274484,36.59759357364241],[107.3932307693501,36.7704175209166],[107.4779495441847,36.80191400866197],[107.6911989853907,36.78668106565283],[107.7669340175551,36.89130093969698],[107.7242975279731,36.997219765204],[107.7597975032459,37.0606581622739],[107.8742908200826,37.03733393694289],[108.1720981466882,37.12755638042883],[108.2233450734699,37.19503269185516],[108.3281013724851,37.22753658392828],[108.3887388774854,37.2954476729158],[108.5142287771381,37.24006599449668],[108.7643676953785,37.32392119520895],[108.8381124937132,37.45965794837465],[108.9168443571162,37.44818590048244],[108.8589302005577,37.66811127974839],[108.9326668031555,37.72593482879671],[109.0598020147439,37.76452308839387],[109.0967339582952,37.84778752070147],[109.225211157774,37.86671002992413],[109.3673197780644,37.95210811461953],[109.3213801428965,38.02568524638549],[109.3901456654082,38.00463326658387],[109.4870820904607,38.04028406812446],[109.6822000882683,38.01461096419344],[109.922951470668,38.02067486417577],[109.9241693866748,38.19075837283905],[109.879493459531,38.22343025067798],[109.8420470614622,38.25286367663163],[109.8471023315705,38.31043495769629],[109.8096593745213,38.32894583544323],[109.8969530308117,38.41445846750948],[110.1150790071725,38.64062153458837],[110.4876744905153,38.94862320613526],[110.975502033416,39.21809859749186],[111.4077785331682,39.40227909667853],[111.3954385392075,39.40057889662938]]}},{"type":"Feature","id":"wiki-history-1","properties":{"name":"春秋战国长城 · 02","category":"wall","originalPath":"万里の長城 wikipedia/春秋戦国","comment":"","originalName":"春秋戦国_02","originalId":1,"nameEn":"Spring and Autumn / Warring States Great Wall · 02","source":"wikipedia-kmz","dynasty":"spring-autumn","dynastyZh":"春秋战国","dynastyEn":"Spring and Autumn / Warring States","approximate":true},"geometry":{"type":"LineString","coordinates":[[106.2364747388115,40.59514842936176],[106.9553702099009,41.0661367753293],[107.3446490813209,41.30650536305056],[107.5090912534562,41.29684666622504],[107.8037077828933,41.39607856821071],[108.2942722340642,41.31980870220984],[108.3567252846847,41.35412373501209],[108.4637175413027,41.31110611286526],[108.8107771450425,41.28681523311243],[109.1400439406478,41.17047760150827],[109.3100324269464,41.19869088386321],[109.5400110027619,41.14572374561079],[109.8429190524779,41.23477071825643],[109.982146766672,41.25564525380492],[110.1366213031971,41.22832932220413],[110.2623921577791,41.26279472259619]]}},{"type":"Feature","id":"wiki-history-2","properties":{"name":"春秋战国长城 · 03","category":"wall","originalPath":"万里の長城 wikipedia/春秋戦国","comment":"","originalName":"春秋戦国_03","originalId":2,"nameEn":"Spring and Autumn / Warring States Great Wall · 03","source":"wikipedia-kmz","dynasty":"spring-autumn","dynastyZh":"春秋战国","dynastyEn":"Spring and Autumn / Warring States","approximate":true},"geometry":{"type":"LineString","coordinates":[[108.7668562772228,40.70936905037842],[109.0311853837915,40.6881689135909],[109.2790743616791,40.70835705178996],[109.3874708729424,40.74505866700061],[109.7183561498482,40.69170573054938],[110.2234799705826,40.80111903381367],[110.4997028754639,40.80701061683096],[111.1532554279323,40.7815893522926],[111.3592048335964,40.83506600548266],[111.4360119807324,40.88576176965919],[111.5140107847734,40.86219595824144],[111.5601260675031,40.7819890918703],[111.666798470031,40.74011165605484],[111.9966315841453,40.8252085031995],[112.148613815722,40.93788551552109],[112.624588049526,40.98593034869216],[113.3637290140445,40.91884135031285],[113.9008310872988,40.79713351936631],[114.9014947888922,40.87586109803545],[115.4034042810056,40.87919276920097],[115.6271966448852,41.10074770894934],[115.8954671550443,41.02556783354156],[116.5035190905675,41.02470590205149],[117.1899879571476,41.56532361526007],[117.5940220942057,41.65347264845336],[118.1521207442557,41.99069105953257],[118.6992703883007,42.04025534919412],[119.1556582636992,41.84322555302211],[119.8467326230376,41.98269655217737],[120.3424497668573,42.10049931103988],[120.730905485306,42.04134036209084],[121.1235980767472,41.97803292634885],[121.6558474601171,42.029496155136],[121.9758595145013,42.19096500872469],[123.122784546801,42.25468588043407],[123.8219341949971,42.1810632709786],[124.3979422254751,42.31318594385787],[124.5919650179199,42.27281793732408],[124.4971698214542,41.91873742749376],[124.6050828611892,41.17241344562279],[124.8385259193562,40.65794326006068],[125.0626433568415,40.3710527391604],[125.2084144168041,40.23303218403661],[125.3892295040297,39.72355336778321]]}},{"type":"Feature","id":"wiki-history-3","properties":{"name":"春秋战国长城 · 04","category":"wall","originalPath":"万里の長城 wikipedia/春秋戦国","comment":"","originalName":"春秋戦国_04","originalId":3,"nameEn":"Spring and Autumn / Warring States Great Wall · 04","source":"wikipedia-kmz","dynasty":"spring-autumn","dynastyZh":"春秋战国","dynastyEn":"Spring and Autumn / Warring States","approximate":true},"geometry":{"type":"LineString","coordinates":[[111.0626868528834,39.54043420141641],[111.1624394059393,39.24927624314154],[110.9373982905057,38.91245687491759],[110.7619807167519,38.4868935642586],[110.4760442844309,38.29004654151924],[110.424676572751,37.81225301321422],[110.3380711899024,37.10071144615178],[109.9044015668501,36.13056105870299]]}},{"type":"Feature","id":"wiki-history-4","properties":{"name":"春秋战国长城 · 05","category":"wall","originalPath":"万里の長城 wikipedia/春秋戦国","comment":"","originalName":"春秋戦国_05","originalId":4,"nameEn":"Spring and Autumn / Warring States Great Wall · 05","source":"wikipedia-kmz","dynasty":"spring-autumn","dynastyZh":"春秋战国","dynastyEn":"Spring and Autumn / Warring States","approximate":true},"geometry":{"type":"LineString","coordinates":[[110.4346355195688,36.04881583686029],[110.2260354252806,36.014171237536],[110.1135147719104,35.74165688177393],[109.9067812065982,35.4651840308854],[109.8277860960773,34.88781034789203],[109.8731428238837,34.69413211464648]]}},{"type":"Feature","id":"wiki-history-5","properties":{"name":"春秋战国长城 · 06","category":"wall","originalPath":"万里の長城 wikipedia/春秋戦国","comment":"","originalName":"春秋戦国_06","originalId":5,"nameEn":"Spring and Autumn / Warring States Great Wall · 06","source":"wikipedia-kmz","dynasty":"spring-autumn","dynastyZh":"春秋战国","dynastyEn":"Spring and Autumn / Warring States","approximate":true},"geometry":{"type":"LineString","coordinates":[[114.548003792228,38.99661508596523],[114.8518293165286,38.81474201922859],[115.0610304751034,38.56768366671556],[115.3851078765691,38.64172594572445],[115.4692659894463,38.4322205852253]]}},{"type":"Feature","id":"wiki-history-6","properties":{"name":"春秋战国长城 · 07","category":"wall","originalPath":"万里の長城 wikipedia/春秋戦国","comment":"","originalName":"春秋戦国_07","originalId":6,"nameEn":"Spring and Autumn / Warring States Great Wall · 07","source":"wikipedia-kmz","dynasty":"spring-autumn","dynastyZh":"春秋战国","dynastyEn":"Spring and Autumn / Warring States","approximate":true},"geometry":{"type":"LineString","coordinates":[[113.6503849938201,36.88758165557623],[113.9042026713818,36.74336083929233],[114.0530382353283,36.68622454311243],[114.1956189171504,36.74948613519047]]}},{"type":"Feature","id":"wiki-history-7","properties":{"name":"春秋战国长城 · 08","category":"wall","originalPath":"万里の長城 wikipedia/春秋戦国","comment":"","originalName":"春秋戦国_08","originalId":7,"nameEn":"Spring and Autumn / Warring States Great Wall · 08","source":"wikipedia-kmz","dynasty":"spring-autumn","dynastyZh":"春秋战国","dynastyEn":"Spring and Autumn / Warring States","approximate":true},"geometry":{"type":"LineString","coordinates":[[113.6801539117556,35.6326238691472],[113.7108130574097,35.49824195591876],[113.9624813009062,35.41944624185555],[114.1982637126923,35.28899963237868],[114.482543519382,35.03067538492999],[114.5972086200268,34.86996553001571],[114.4804098784743,34.78610140130023],[114.1214541901536,34.71147236655351],[113.8988126159026,34.54186591776877]]}},{"type":"Feature","id":"wiki-history-8","properties":{"name":"春秋战国长城 · 09","category":"wall","originalPath":"万里の長城 wikipedia/春秋戦国","comment":"","originalName":"春秋戦国_09","originalId":8,"nameEn":"Spring and Autumn / Warring States Great Wall · 09","source":"wikipedia-kmz","dynasty":"spring-autumn","dynastyZh":"春秋战国","dynastyEn":"Spring and Autumn / Warring States","approximate":true},"geometry":{"type":"LineString","coordinates":[[116.4691899259924,36.17218441939985],[117.0517766735603,36.14603036406696],[117.7391789172703,36.00061059713681],[118.2538078885523,35.93511286200859],[118.7427972418005,35.95194402517465],[118.8905330812393,35.83085054815272],[118.8802931644151,35.5608882991889],[118.7729020156108,35.32503254539431],[118.8586170287731,35.25915237400059],[119.087564153944,35.21861317853529],[119.3779383847159,35.16450077290313]]}},{"type":"Feature","id":"wiki-history-9","properties":{"name":"秦代长城 · 01","category":"wall","originalPath":"万里の長城 wikipedia/秦代","comment":"","originalName":"秦代_1","originalId":9,"nameEn":"Qin Great Wall · 01","source":"wikipedia-kmz","dynasty":"qin","dynastyZh":"秦代","dynastyEn":"Qin","approximate":true},"geometry":{"type":"LineString","coordinates":[[104.0177568082628,34.45389301038413],[104.0571183345932,34.47995455222686],[103.9962051713775,34.52366285962338],[103.880715608856,34.56618121847407],[103.7959232418963,34.64015661462649],[103.7216690738818,34.67788567182706],[103.6141381866027,34.71220155089644],[103.694845052879,34.78302854105258],[103.839379917273,34.79492227929514],[103.9069738480578,34.83414883017096],[103.864961921923,34.92474281961361],[103.7496475868715,34.91950852817569],[103.6242214304458,34.87441829171658],[103.5305066774504,34.88409626609739],[103.5357832774794,34.96776775883601],[103.5391946291119,35.02513271218445],[103.5993311058579,35.06208488510156],[103.385633936159,35.15477782322449],[103.3733356138053,35.1988746138591],[103.3589809145329,35.21735917538846],[103.1794187202305,35.24747012857772],[103.081082469703,35.28595611080463],[102.9033710931598,35.35887228474724],[102.8596982083553,35.44452300651053],[102.8334895177909,35.59202150490674],[102.7543137716379,35.66765344024742],[102.9647869282323,35.76120463095814],[103.1957276714439,35.91050993449586],[103.2246675867234,35.98187670948465],[103.3915631648303,36.07231156559276],[103.5310132837754,36.1544167256375],[103.6778492612136,36.16430333405576],[103.7833124776932,36.13005293441621],[103.9561489574384,36.10406522259728],[104.0283617396898,36.12142557049459],[104.0918993611126,36.20070040034039],[104.1304051354325,36.30195991344347],[104.2179490156213,36.38206783154392],[104.2962785315034,36.41873188914295],[104.4124890311529,36.47517117306987],[104.549750592736,36.52952334357626],[104.6551372517576,36.67635728260396],[104.6671867590869,36.74794854564946],[104.8924832005156,36.81035952916417],[105.1356710324736,36.73352726617864],[105.4899502601234,36.54509655775036],[105.6209654120245,36.41794507398142],[105.5798835269714,36.23172166744392],[105.7597283842867,36.07608048220309],[105.8931094382189,36.14364988878368],[105.9447356359241,36.08730618237422],[106.0675686843623,36.01735107174984],[106.124820564223,35.98998758195875],[106.2137956484931,36.00525980053035],[106.3241834457341,36.0289158148592],[106.3619762069771,36.07295857978203],[106.4305554394595,36.08716222204746],[106.4871751073973,36.18675619961311],[106.5466810519319,36.23942663423579],[106.5653110604028,36.32316930714918],[106.5977958863174,36.43951357242677],[106.7414245645394,36.43602284166968],[106.943575475111,36.51762277005592],[107.2007350994376,36.61025297010574],[107.2753496971722,36.69999576866653],[107.381342899045,36.79097686074716],[107.4584381459536,36.82236464486187],[107.5513960247963,36.82107131322942],[107.6947612018334,36.82645668927112],[107.731955580572,36.89823037427205],[107.6875754477266,36.9954303343513],[107.7496992641294,37.0998270079804],[107.8747511414472,37.06480328854902],[108.0140482965024,37.10869735923036],[108.15873002653,37.15889350951704],[108.1877253053202,37.2233418068348],[108.3033633404732,37.24440598240719],[108.3904019523419,37.32722159284474],[108.5091527729362,37.26733809120183],[108.602772588233,37.29347055616012],[108.7386682839316,37.34157741306318],[108.8223729452232,37.48220577759287],[108.8845543517409,37.47567984930237],[108.8391134887216,37.58776731433696],[108.8280268075876,37.67521002534966],[108.92161986451,37.75875598857874],[109.040504421959,37.79039596888673],[109.0656413178369,37.86688683283013],[109.1308015568413,37.87456228910272],[109.1801532803261,37.88313038149094],[109.2340351865839,37.91672824734806],[109.2723050151241,37.92629776017365],[109.2745220838481,37.95663626859925],[109.3215790547061,37.96055609414226],[109.2980092580817,38.00682610506355],[109.3049541237367,38.05083270484058],[109.3706113101268,38.03187326705157],[109.4263317155558,38.04850212690665],[109.4645663769137,38.07308913252197],[109.6072851159554,38.04457214808151],[109.7023551053417,38.04214409205312],[109.7843195194299,38.05193348657213],[109.8846592481278,38.04232125063822],[109.8853587095668,38.1381984029473],[109.8776284293542,38.19131695535514],[109.8376853026711,38.20384301603374],[109.8030206378487,38.23714706440557],[109.8221514603011,38.29586115612157],[109.7718499835879,38.30666929101218],[109.7248562513641,38.32817140215303],[109.8068982694163,38.3686619619531],[109.8407185550044,38.40888756613948],[110.0972379100635,38.68618778046294],[110.5097096054348,38.99260398880239],[110.9973118120946,39.24954587148115],[111.4156369752763,39.42786103826301]]}},{"type":"Feature","id":"wiki-history-10","properties":{"name":"秦代长城 · 02","category":"wall","originalPath":"万里の長城 wikipedia/秦代","comment":"","originalName":"秦代_2","originalId":10,"nameEn":"Qin Great Wall · 02","source":"wikipedia-kmz","dynasty":"qin","dynastyZh":"秦代","dynastyEn":"Qin","approximate":true},"geometry":{"type":"LineString","coordinates":[[106.2078772082788,40.59202330969542],[106.3315001512767,40.69597966570346],[106.4465496456223,40.77147951769395],[106.6006641509019,40.88177556617892],[106.6874532378419,40.93418631509174],[106.8678182689773,41.03637538381826],[107.103785322317,41.21158132905095],[107.3553458261651,41.31265972626235],[107.4308542642758,41.29864198373788],[107.5526472268674,41.34529990159893],[107.6915455233208,41.37099584570926],[107.801354604105,41.42778640144007],[107.9137600515594,41.38291753355147],[108.175867414859,41.34632113645685],[108.2951898955727,41.34431464472348],[108.3473968933393,41.37094168717522],[108.4377031497169,41.33534039795901],[108.6098951486865,41.333404763879],[108.8558835591379,41.29011203290206],[109.0120769130366,41.23002792949028],[109.1426581090726,41.18681697339559],[109.3263584127261,41.21703588173094],[109.4247152566417,41.17902700383522],[109.5106541374608,41.16012315682624],[109.6304489104556,41.16983457309391],[109.8418135978252,41.2501795711206],[110.0132859833816,41.26935375137625],[110.1223123606225,41.23211266373575],[110.291033536002,41.27929772161724]]}},{"type":"Feature","id":"wiki-history-11","properties":{"name":"秦代长城 · 03","category":"wall","originalPath":"万里の長城 wikipedia/秦代","comment":"","originalName":"秦代_3","originalId":11,"nameEn":"Qin Great Wall · 03","source":"wikipedia-kmz","dynasty":"qin","dynastyZh":"秦代","dynastyEn":"Qin","approximate":true},"geometry":{"type":"LineString","coordinates":[[108.7588624347096,40.71907706875535],[108.944762464473,40.72196845245691],[109.0338778750329,40.70249751949622],[109.193939343335,40.71792841112885],[109.2463619990707,40.71839198944873],[109.3734684746361,40.76195041295853],[109.4607937768765,40.74823555460547],[109.6940600783664,40.71242328798637],[110.2087369436683,40.81450624944225],[110.4913762946008,40.83089548415607],[110.8725359724615,40.81674915393933],[111.1319251681315,40.79723102844032],[111.2474733095314,40.82989477508765],[111.3488810258171,40.85197070596487],[111.366646730994,40.88292770554069],[111.4473018506558,40.91786914915843],[111.5194564301666,40.87875051523103],[111.6095464018387,41.00648645374985],[111.6967808953406,40.97276797088074],[111.7400774245491,41.00425806226514],[111.8184046872996,41.03065799383648],[111.8354603950921,40.99756531198941],[111.9164650686704,41.01223646173763],[111.9432155812895,41.0260062016576],[112.0914829570898,41.04189056422094],[112.1701060635499,41.08961039630915],[112.3819160576732,41.12451999121667],[112.6355601264302,41.05386750023924],[112.8687054309214,41.1339147079883],[113.0532335495522,41.15541428674938],[113.1822101413214,41.07170683196431],[113.4260566876558,41.16052982845767],[113.5956578911592,41.16212134451732],[113.6247147341209,40.93895629441881],[113.7638935886825,40.87868042444733],[113.9460353403934,40.89267755349047],[114.0287155511314,40.92472576060634],[114.0157357558984,40.9747885383301],[114.1646702422477,41.0418018182578],[114.2904468673539,41.00634423790205],[114.4389798279433,40.9742340370908],[114.5189959635122,40.97333230011986],[114.6745250495479,41.00731708447985],[114.7830571907806,40.9854312882815],[114.8470559275236,40.91925918344678],[115.061603694789,40.87774964811112],[115.2417963891108,40.90701449828411],[115.3797205679415,40.99506907596412],[115.4108708400359,41.11346602243933],[115.4828747034258,41.27652923618781],[115.5952337351878,41.3302635902338],[115.8187455915528,41.31032412243125],[115.8644494499787,41.22397770428334],[115.9570594190641,41.26063054087779],[116.1686982479674,41.28954086915351],[116.2940581108062,41.31050750150364],[116.4727792511439,41.38594088741566],[116.5474078084256,41.52337686151776],[116.6001491616771,41.59939763528222],[116.782946450338,41.51949170684236],[117.0207495507721,41.57089567221654],[117.0755316939356,41.67474765749927],[117.2654042365208,41.62241054845212],[117.5807139583306,41.71471875917219],[117.6136636903022,41.82468821115104],[117.7529947076772,41.96702289187894],[118.0501070008505,42.01304981334225],[118.4527808512601,42.13846171616261],[118.8132103927858,42.24830770311907],[119.4335485039222,42.35585467950926],[119.9960032046409,42.21128225590776],[120.5217095746551,42.08735331755828],[120.8162663056265,42.06385987261438],[121.1569908191318,41.99730360022173],[121.6345640458954,42.06826113523893],[121.9284313886189,42.21302252303565],[122.5342135864016,42.27267982460861],[123.1449805546192,42.27303301013709],[123.8749956762865,42.21100722998158],[124.1759738555523,42.29924937355693],[124.4407467865587,42.35794248234498],[124.6161757236262,42.29228872595224],[124.5373706080022,41.9008954771226],[124.6587196481955,41.10964764740318],[124.7427924743961,40.91254103508235],[124.8535863073123,40.72093455359055],[125.0583396037586,40.42570608084287],[125.2456255307722,40.24813587836692],[125.341584916129,39.89963883401221],[125.4317218057366,39.71966077641778]]}},{"type":"Feature","id":"wiki-history-12","properties":{"name":"秦代长城 · 04","category":"wall","originalPath":"万里の長城 wikipedia/秦代","comment":"","originalName":"秦代_4","originalId":12,"nameEn":"Qin Great Wall · 04","source":"wikipedia-kmz","dynasty":"qin","dynastyZh":"秦代","dynastyEn":"Qin","approximate":true},"geometry":{"type":"LineString","coordinates":[[108.9568031230873,37.31137088426514],[109.5386116161386,37.24328196085045],[110.1488961800185,37.3859498337208],[110.4701433782346,37.47103001833113],[110.4991220271391,37.63280245043066],[110.3315662002757,37.70268201382472]]}},{"type":"Feature","id":"wiki-history-13","properties":{"name":"秦代长城 · 05","category":"wall","originalPath":"万里の長城 wikipedia/秦代","comment":"","originalName":"秦代_5","originalId":13,"nameEn":"Qin Great Wall · 05","source":"wikipedia-kmz","dynasty":"qin","dynastyZh":"秦代","dynastyEn":"Qin","approximate":true},"geometry":{"type":"LineString","coordinates":[[104.4291141497299,37.11775218154238],[105.1995512545168,37.40761102946281],[105.8756614023197,37.47507684861037],[105.677189592322,37.96550722158313],[105.6554648693109,38.42479454922349],[105.9345018269093,39.25636555374872],[106.1467897205156,39.72870739728214],[106.1835738854361,40.53414892078756]]}},{"type":"Feature","id":"wiki-history-14","properties":{"name":"汉代长城 · 01","category":"wall","originalPath":"万里の長城 wikipedia/漢代","comment":"","originalName":"漢代_01","originalId":14,"nameEn":"Han Great Wall · 01","source":"wikipedia-kmz","dynasty":"han","dynastyZh":"汉代","dynastyEn":"Han","approximate":true},"geometry":{"type":"LineString","coordinates":[[93.23357937507315,40.48932896993356],[95.22903754111738,40.74639495459306],[97.08475551900987,40.59183753248209],[98.9648378989956,40.45479129031315],[99.4817211255518,40.35173269907885]]}},{"type":"Feature","id":"wiki-history-15","properties":{"name":"汉代长城 · 02","category":"wall","originalPath":"万里の長城 wikipedia/漢代","comment":"","originalName":"漢代_02","originalId":15,"nameEn":"Han Great Wall · 02","source":"wikipedia-kmz","dynasty":"han","dynastyZh":"汉代","dynastyEn":"Han","approximate":true},"geometry":{"type":"LineString","coordinates":[[101.2753650687404,41.96296877720019],[100.5082151970839,40.92152822151096],[99.79126118335242,40.37417071278082],[99.64558272686568,40.02146044291406],[99.8703995588371,39.62802139088837],[100.5620409889604,39.18211419536498],[101.2193245414256,38.89820407960427],[101.9320992674006,38.62513867486251],[102.3796622738445,38.4045326832908],[102.827811975703,38.64887230160563]]}},{"type":"Feature","id":"wiki-history-16","properties":{"name":"汉代长城 · 03","category":"wall","originalPath":"万里の長城 wikipedia/漢代","comment":"","originalName":"漢代_03","originalId":16,"nameEn":"Han Great Wall · 03","source":"wikipedia-kmz","dynasty":"han","dynastyZh":"汉代","dynastyEn":"Han","approximate":true},"geometry":{"type":"LineString","coordinates":[[103.0783055315506,38.46968380366244],[102.9719949257342,38.21327630317693],[103.0304859965875,37.94931389538312],[103.0201061710203,37.23220694801316]]}},{"type":"Feature","id":"wiki-history-17","properties":{"name":"汉代长城 · 04","category":"wall","originalPath":"万里の長城 wikipedia/漢代","comment":"","originalName":"漢代_04","originalId":17,"nameEn":"Han Great Wall · 04","source":"wikipedia-kmz","dynasty":"han","dynastyZh":"汉代","dynastyEn":"Han","approximate":true},"geometry":{"type":"LineString","coordinates":[[101.5277965732606,42.22270021619816],[102.0459712770613,42.51345355226948],[102.6445785279903,42.55044091548137],[103.9209041911837,42.42313381958161],[104.8230669759295,42.25188568722219],[106.0469313046861,42.05099510698973],[108.0788321763121,41.49895138913819]]}},{"type":"Feature","id":"wiki-history-18","properties":{"name":"汉代长城 · 05","category":"wall","originalPath":"万里の長城 wikipedia/漢代","comment":"","originalName":"漢代_05","originalId":18,"nameEn":"Han Great Wall · 05","source":"wikipedia-kmz","dynasty":"han","dynastyZh":"汉代","dynastyEn":"Han","approximate":true},"geometry":{"type":"LineString","coordinates":[[101.5613120626962,43.20822556043373],[102.9208130391112,43.09682039134493],[104.0770109810718,42.93841057207592],[105.19020398697,42.61927241052434],[106.0386461461218,42.31760747659139],[107.313913457677,42.1950226290094],[108.9575358945159,42.19750617010438],[109.8785571840485,42.11760608980698]]}},{"type":"Feature","id":"wiki-history-19","properties":{"name":"汉代长城 · 06","category":"wall","originalPath":"万里の長城 wikipedia/漢代","comment":"","originalName":"漢代_06","originalId":19,"nameEn":"Han Great Wall · 06","source":"wikipedia-kmz","dynasty":"han","dynastyZh":"汉代","dynastyEn":"Han","approximate":true},"geometry":{"type":"LineString","coordinates":[[106.1790992549882,40.74372643040388],[106.840004847604,41.22680393909724],[107.42494364368,41.45709621396481],[108.0261520236349,41.47750795858077],[108.9851904546499,41.4046334413316],[109.3532040522784,41.30341533017825],[109.8940978716917,41.3426162347093],[110.2619720826114,41.31778859820243]]}},{"type":"Feature","id":"wiki-history-20","properties":{"name":"汉代长城 · 07","category":"wall","originalPath":"万里の長城 wikipedia/漢代","comment":"","originalName":"漢代_07","originalId":20,"nameEn":"Han Great Wall · 07","source":"wikipedia-kmz","dynasty":"han","dynastyZh":"汉代","dynastyEn":"Han","approximate":true},"geometry":{"type":"LineString","coordinates":[[112.0231398176182,41.30555554492405],[112.4982847901992,41.31309548531709],[113.5561880857251,41.27056472900784],[114.6414577890059,41.20733751734554],[115.8084416168443,40.97807576493979],[116.5313634826584,40.9184253517548],[117.2632979990773,40.78138209534892],[118.4756319490808,40.65205623567142],[119.0072182285531,40.85679294585876],[119.3218747155315,41.24144533594865],[119.9189859274761,41.65019571134654],[120.240651362062,41.73299316338282],[120.7830584047222,41.62120592443311]]}},{"type":"Feature","id":"wiki-history-21","properties":{"name":"汉代长城 · 08","category":"wall","originalPath":"万里の長城 wikipedia/漢代","comment":"","originalName":"漢代_08","originalId":21,"nameEn":"Han Great Wall · 08","source":"wikipedia-kmz","dynasty":"han","dynastyZh":"汉代","dynastyEn":"Han","approximate":true},"geometry":{"type":"LineString","coordinates":[[115.1595394996581,42.17412142014252],[115.9895005535243,42.15617189239177],[117.0033374515349,42.01560048663944],[117.890272756872,42.07630667898484],[118.7800303591549,42.34265496148296],[119.4284470207382,42.42220140199394],[120.3669606947222,42.17951111792856],[121.1703975416754,42.04011078534835],[121.6030391930545,42.10666221838013],[121.9571401105208,42.26989877930118],[122.7212690428048,42.33130166726917],[123.4304355799666,42.3024840834614],[123.8436977484408,42.24001838652369],[124.4195407767698,42.39888241176534],[124.7187695233194,42.2961995414361],[124.6299948041029,41.90954890117095],[124.7498086278384,41.13624802170101],[124.9777837717539,40.72085933246175],[125.1208283751333,40.47461219254431],[125.1335380616688,40.06191765821902],[124.7627752521255,39.87648303760282]]}},{"type":"Feature","id":"wiki-history-22","properties":{"name":"北魏长城 · 01","category":"wall","originalPath":"万里の長城 wikipedia/北魏","comment":"","originalName":"北魏_01","originalId":22,"nameEn":"Northern Wei Great Wall · 01","source":"wikipedia-kmz","dynasty":"northern-wei","dynastyZh":"北魏","dynastyEn":"Northern Wei","approximate":true},"geometry":{"type":"LineString","coordinates":[[116.130125916489,40.54972138903157],[115.7844661292793,40.67078932590884],[115.0691532403772,40.73815261514157],[114.4266324125672,40.69770625847394],[114.0893104757473,40.4625909752291],[112.8376634576756,40.12781040339927],[112.4033678545169,40.16477671094523],[111.950829649561,39.67131600312846],[112.0721928602919,39.42416893162392],[112.4091370243761,39.10453406797044],[112.8464057968055,39.28572873631005],[113.1376094280677,39.4354011413645],[113.6407452298811,39.67973996368941],[114.2584175129201,39.65446038970379],[115.1482520487363,40.03366682150829],[115.6633718569513,40.17689139462414]]}},{"type":"Feature","id":"wiki-history-23","properties":{"name":"辽金长城 · 01","category":"wall","originalPath":"万里の長城 wikipedia/遼・金","comment":"","originalName":"遼・金_01","originalId":23,"nameEn":"Liao / Jin Great Wall · 01","source":"wikipedia-kmz","dynasty":"liao-jin","dynastyZh":"辽金","dynastyEn":"Liao / Jin","approximate":true},"geometry":{"type":"LineString","coordinates":[[110.1184633879035,41.510201312028],[110.3115942810485,41.85963433211683],[110.9185338753423,42.38705402281128],[112.6666655848543,43.27316752238038],[113.5752382412461,43.93032383327213],[114.1389054454571,44.61584232065466],[114.5588495699263,44.83771967288891]]}},{"type":"Feature","id":"wiki-history-24","properties":{"name":"辽金长城 · 02","category":"wall","originalPath":"万里の長城 wikipedia/遼・金","comment":"","originalName":"遼・金_02","originalId":24,"nameEn":"Liao / Jin Great Wall · 02","source":"wikipedia-kmz","dynasty":"liao-jin","dynastyZh":"辽金","dynastyEn":"Liao / Jin","approximate":true},"geometry":{"type":"LineString","coordinates":[[111.432398025829,42.61496920825358],[112.290524544718,42.50801114733756],[113.6799030235352,42.30814471436246],[114.2138957410867,42.43283126365864],[114.4798402895504,42.86410655246651],[114.814724810103,43.05767197091978],[115.1891340209477,43.30849295773771],[115.2264467796093,43.35334944130121],[117.5081582458747,43.87419440223801],[118.1704243222313,44.22730933904393],[118.984679901655,44.4578664587843],[119.8370961508802,45.06367212394513],[120.6936739173453,45.30016538954735],[121.6093510432814,46.25969367618389],[122.8905806623437,46.8499696709176],[124.4948475830191,48.01686179550863],[126.3637992649394,48.70253007462472]]}},{"type":"Feature","id":"wiki-history-25","properties":{"name":"辽金长城 · 03","category":"wall","originalPath":"万里の長城 wikipedia/遼・金","comment":"","originalName":"遼・金_03","originalId":25,"nameEn":"Liao / Jin Great Wall · 03","source":"wikipedia-kmz","dynasty":"liao-jin","dynastyZh":"辽金","dynastyEn":"Liao / Jin","approximate":true},"geometry":{"type":"LineString","coordinates":[[114.3567364418332,42.50712367928443],[114.9210825262623,42.45627178125733],[116.3375890509956,42.40642621539578],[117.0931486223421,42.5609366098297],[117.4713539617764,43.13865634618526],[117.4712088382873,43.50623595429241],[117.6402861935892,43.86660471816686]]}},{"type":"Feature","id":"wiki-history-26","properties":{"name":"辽金长城 · 04","category":"wall","originalPath":"万里の長城 wikipedia/遼・金","comment":"","originalName":"遼・金_04","originalId":26,"nameEn":"Liao / Jin Great Wall · 04","source":"wikipedia-kmz","dynasty":"liao-jin","dynastyZh":"辽金","dynastyEn":"Liao / Jin","approximate":true},"geometry":{"type":"LineString","coordinates":[[110.9541777733486,47.20757790509348],[111.1468697807594,47.38114491394777],[111.8023881502855,47.51604820013197],[112.1538367766567,47.70686674074589],[112.818728806043,47.73636847083974],[113.3777675315226,47.91422162196358],[114.6573917358108,48.00924929516809],[115.1585409633337,48.27043621600082],[115.9456960895357,48.44796585861324],[116.9140199283542,48.99789418374723],[117.5823046925502,49.41878702744608],[118.8066385528756,49.94498086616077],[119.7032353779919,50.28658620164448],[120.3160687975827,50.37821127458636]]}},{"type":"Feature","id":"wiki-history-27","properties":{"name":"辽金长城 · 05","category":"wall","originalPath":"万里の長城 wikipedia/遼・金","comment":"","originalName":"遼・金_05","originalId":27,"nameEn":"Liao / Jin Great Wall · 05","source":"wikipedia-kmz","dynasty":"liao-jin","dynastyZh":"辽金","dynastyEn":"Liao / Jin","approximate":true},"geometry":{"type":"LineString","coordinates":[[122.3462434308772,47.60399180811137],[121.568407744823,46.71243921641187],[120.8098850537282,46.69577132373975],[120.3476807882472,46.73786468645562]]}},{"type":"Feature","id":"wiki-history-28","properties":{"name":"辽金长城 · 06","category":"wall","originalPath":"万里の長城 wikipedia/遼・金","comment":"","originalName":"遼・金_06","originalId":28,"nameEn":"Liao / Jin Great Wall · 06","source":"wikipedia-kmz","dynasty":"liao-jin","dynastyZh":"辽金","dynastyEn":"Liao / Jin","approximate":true},"geometry":{"type":"LineString","coordinates":[[121.2122081493408,46.11695475028508],[119.4183784226851,45.78763367002365],[117.9348645614271,45.5412207409011]]}},{"type":"Feature","id":"wiki-history-29","properties":{"name":"辽金长城 · 07","category":"wall","originalPath":"万里の長城 wikipedia/遼・金","comment":"","originalName":"遼・金_07","originalId":29,"nameEn":"Liao / Jin Great Wall · 07","source":"wikipedia-kmz","dynasty":"liao-jin","dynastyZh":"辽金","dynastyEn":"Liao / Jin","approximate":true},"geometry":{"type":"LineString","coordinates":[[123.0277261959506,46.53975431291899],[122.6673074298139,46.12557617136764],[122.3247187871673,45.59734134590053]]}},{"type":"Feature","id":"wiki-history-30","properties":{"name":"明代长城 · 01","category":"wall","originalPath":"万里の長城 wikipedia/明代","comment":"","originalName":"01","originalId":30,"nameEn":"Ming Great Wall · 01","source":"wikipedia-kmz","dynasty":"ming","dynastyZh":"明代","dynastyEn":"Ming","approximate":true},"geometry":{"type":"LineString","coordinates":[[124.5153150259226,40.2217548919416],[124.5240044796585,40.30440753177815],[124.5828085562147,40.31740871407495],[124.5925188872813,40.33005812647728],[124.5766633388229,40.3329394579107],[124.5766432160859,40.34192900990557],[124.5608768329524,40.35179635470385],[124.5626242293699,40.37135843499095],[124.4930461142466,40.42886062550009],[124.4737704109642,40.41131273712244],[124.433630059343,40.44685256047103],[124.4173831174604,40.5028800249966],[124.3887495182202,40.55029882492045],[124.3663357879799,40.55068610794115],[124.3454024813609,40.63190521607312],[124.4338219342793,40.64833546795111],[124.4924912112836,40.79087624890288],[124.5410450549831,40.88323361237951],[124.5034160808319,41.05224272509912],[124.56875,41.13521111111111],[124.51451,41.20293888888889],[124.40563,41.48098888888889],[124.19044,41.71661111111111],[124.0195,41.92648888888888],[124.05108,42.08216944444445],[124.11699,42.11173055555556],[124.1266,42.15147],[124.35589,42.4284],[124.31745,42.69806111111111],[124.36001,42.77323055555556],[124.31264,42.85386111111112],[124.02087,42.84983055555556],[123.84719,42.76616944444444],[123.77579,42.62633055555555],[123.8108,42.44208888888888],[123.57189,42.21101944444445],[123.33505,42.14536111111111],[123.12909,41.93976944444444],[123.17852,41.76376111111111],[122.87783,41.50398888888889],[122.89705,41.34328055555556],[122.5483,40.987],[122.41924,41.07716111111112],[122.35127,41.24678055555556],[122.28262,41.28136944444444],[122.35882,41.30976111111111],[122.17415,41.5081],[122.15081,41.70173888888889],[121.98536,41.81396111111111],[121.77254,41.87383055555556],[121.32219,41.73148055555556],[121.22539,41.76223055555555],[121.02424,41.58881111111111],[121.0678552399531,41.38733275904003],[121.0423964460133,41.25615534834203],[121.01326,41.20338055555556],[120.9803,41.17598055555555],[120.962832445476,41.08634315295168],[120.8396853446218,40.99503968416938],[120.79288,40.91903888888888],[120.8114188393145,40.87915219932358],[120.7084958261675,40.82760082854652],[120.7024886949747,40.77172727251602],[120.638761375772,40.76017286114062],[120.6100677099554,40.71505840567501],[120.5747364444337,40.70831502972547],[120.5603409262594,40.65121376687089],[120.5790535089066,40.64056200422238],[120.52757,40.57641944444445],[120.4511815287774,40.54928041132798],[120.439356749166,40.49295571774751],[120.4297581066801,40.48144534046774],[120.3801225160039,40.46539138698691],[120.3083751077923,40.48235772363002],[120.2633259716112,40.44640902667552],[120.0892557662331,40.30800557105083],[120.0779573225838,40.30927553391872],[120.0094763571967,40.2566803624094],[119.9705751688951,40.26483400881835],[119.9230844882818,40.26400016248843],[119.9178978894402,40.27326547583262],[119.8619607688711,40.23298963801634],[119.8515477602697,40.22145846291239],[119.8076680622911,40.2149561651472],[119.7837970365268,40.22196837974116],[119.7622530838397,40.20806139327118],[119.7014857335508,40.20326028525341],[119.670147956428,40.22294671860189],[119.5465366653068,40.22342411004192],[119.5575617909621,40.19683997943567],[119.4837573873728,40.10509323485891],[119.3688170490934,40.07757261329672],[119.3400599892495,40.14595846823845],[119.3394697472997,40.154904391678],[119.3354415882103,40.15848327255421],[119.3278415807811,40.15675072679537],[119.320876419502,40.1627962935626],[119.2673070806375,40.16063980950674],[119.2403260352852,40.1535660424681],[119.2186468881019,40.15866690552873],[119.091029978022,40.09071971806075],[119.0178431728111,40.1392005293314],[118.9325382337193,40.14168708378783],[118.9038833579657,40.15685065867688],[118.8601607083883,40.17694738622614],[118.8598230442106,40.17957853510212],[118.844351389901,40.17719231361873],[118.838747291157,40.17864753310929],[118.78899,40.20668888888889],[118.7377157423337,40.18899574054952],[118.6579448222016,40.24572432300953],[118.5648612797963,40.26642527513511],[118.5268023386933,40.2968909500909],[118.52403431098,40.3201940325276],[118.5556828762341,40.39908775307072],[118.5379095961256,40.41714366018625],[118.470263649763,40.40164792980817],[118.4667602914886,40.41080984252257],[118.3961541721414,40.41349562627905],[118.3867131910396,40.43389445479306],[118.2193687994502,40.43372388182052],[118.2133820809403,40.42696905993139],[118.126115436512,40.3720410231241],[118.1151075928082,40.35234455053548],[118.0694788307143,40.35013699457795],[118.003478063347,40.29367689702036],[117.6852474104455,40.23593132112349],[117.5320589856912,40.18032378098091],[117.5199280221184,40.20476827365088],[117.4471382169378,40.24910156334599],[117.3493335019919,40.22808283561286],[117.3445945601852,40.22787834103976],[117.3291821518537,40.27744816181522],[117.284753424127,40.26398364986401],[117.2843315432243,40.24462317945637],[117.1839390032124,40.24641181789401],[117.1684046257364,40.3112476503923],[117.2303657970795,40.31039794329202],[117.2303784391909,40.31256345523045],[117.2192037991252,40.32636003769021],[117.221909144648,40.33214319416782],[117.2577733945639,40.44046745687479],[117.2014813653946,40.49813035566678],[117.2072204584329,40.51094703785],[117.2138362617873,40.51300247375745],[117.2379429993773,40.53665189958702],[117.2924113043264,40.56563184174161],[117.3057181791937,40.57610413534668],[117.346535340787,40.61197652153676],[117.4157929244379,40.62383400704896],[117.419590640808,40.62156550375324],[117.5077107833397,40.6598286710534],[117.4906534292796,40.67259790413937],[117.4760788360963,40.67673319152767],[117.4599591945365,40.6707077264226],[117.3361068133812,40.67173953197656],[117.3302152382319,40.66632610036798],[117.2005724484306,40.69358671196607],[117.1307313577207,40.69557866649343],[117.1225884588635,40.69958115529421],[117.0739014202235,40.68761337314529],[117.0168009771431,40.6571602470586],[116.9545876864798,40.70172272526546],[116.8872069151379,40.69433256617988],[116.8192384715357,40.64403543154115],[116.8339717498022,40.62108603373811],[116.7979148494725,40.52276315837006],[116.7980075872357,40.52148845601907],[116.7964557563691,40.52133107667064],[116.7958651130341,40.52183175821996],[116.7426183577356,40.49295685434718],[116.7331482285501,40.47117752687684],[116.6881545244929,40.47360039904769],[116.6905975622992,40.4613403724834],[116.6404670446393,40.43995136935668],[116.6320735462007,40.4205670991401],[116.587228799056,40.44145255224507],[116.5703126078045,40.4296111342513],[116.5679187652677,40.42895541368484],[116.5531521641435,40.44937940246691],[116.5444007127739,40.45177204958479],[116.4988525071866,40.45443717271623],[116.4977959436904,40.46005154074268],[116.4944204907327,40.46291470790876],[116.4959589319592,40.46936570444468],[116.5022601166061,40.47686711874259],[116.5039443396524,40.48020858944747],[116.5023491887167,40.48184509099003],[116.5069159089685,40.48644562939565],[116.5129860548063,40.48976757079271],[116.4912039038467,40.51754187812445],[116.4749792643567,40.5128440751854],[116.2717915796252,40.61351536093437],[116.1940149157667,40.59175073728426],[116.1881271897038,40.59654435155195],[116.2057350355584,40.62734788475277],[116.1918201428544,40.63711549968688],[116.1620943683162,40.67718601843949],[116.1800941720574,40.71559680443163],[116.178272452474,40.72254118562019],[116.1537723053721,40.78625235185035],[116.11140154227,40.81455592792592],[116.1133127752224,40.86309688299238],[116.0367916250346,40.91859799721481],[116.0111944711138,40.9753883020696],[116.0033854324759,41.01163575417586],[115.9819361629388,41.01811344517154],[115.9792577628366,41.05588791798299],[115.9431766795297,41.08029483826578],[115.9148721671715,41.08426622802913],[115.9311982206856,41.14840329439341],[115.8732906021565,41.19753881805028],[115.8636661466707,41.19583364117786],[115.8338037549565,41.2493391700628],[115.8276326250181,41.27247636087902],[115.789109172953,41.32992774349974],[115.7438430539688,41.36696118111751],[115.7191110406086,41.36908034561108],[115.7086897949362,41.35802991362254],[115.6553235781716,41.31727626432559],[115.6207459414073,41.31880541035001],[115.5882594815198,41.28693568621791],[115.5557407311005,41.2489469484134],[115.5100594989368,41.24144307473416],[115.4823955057089,41.21314329646841],[115.4855972216623,41.20685508823401],[115.5086654555151,41.11306113657149],[115.5062553349146,41.11130248016657],[115.4628395741156,41.1014836514988],[115.463541090798,41.09733517445768],[115.4952796904703,41.07363158060318],[115.5027784455299,41.06958003357916],[115.471529734706,40.9907043880856],[115.4990017597308,40.92539736872997],[115.4995484412156,40.91670375534309],[115.4298469275184,40.85670845557109],[115.431287041,40.79808313002582],[115.4277647335585,40.79249251778196],[115.3723889005436,40.77514443842286],[115.2714952382153,40.80847247412476],[115.2311177603461,40.79084495694644],[115.1605756780399,40.79578894811979],[115.1028206192028,40.83118571633874],[115.0970517380792,40.83099620554119],[114.9783437681108,40.81397380995858],[114.9689829378092,40.81299994034692],[114.8943575990999,40.84663897125839],[114.8108015073386,40.85903197188314],[114.7914601582413,40.90143870060505],[114.7995284572044,40.94879868828377],[114.8027946950046,40.95018104825383],[114.7889523010388,40.99012819977649],[114.7848378088709,40.99651525463145],[114.6785996835748,41.01921308695739],[114.6652494532733,41.02032719698943],[114.5835213786596,40.99321698888626],[114.5260959558888,40.99697183242097],[114.4811793484354,40.95463468662305],[114.4408938720039,40.94933566302739],[114.3940857474482,40.87851188641768],[114.3626414671705,40.86477408123063],[114.3731144238253,40.74514016042136],[114.3213821202147,40.73307495983809],[114.3195699800547,40.73212059872286],[114.3165947166149,40.7334289561694],[114.2019453587296,40.76398127771304],[114.1986678275363,40.76835821165493],[114.1957235887349,40.76860746043105],[114.1155036309237,40.73679034562659],[114.1140152909913,40.73709928774072],[114.1103044285196,40.73359836450877],[114.0879226901025,40.74010562017867],[114.0563450747874,40.72241098632879],[114.0533503964998,40.71738776295477],[114.0606014142923,40.65943931356517],[114.0611423835736,40.64151446316282],[114.0346774256817,40.60802965822806],[114.0964664948666,40.52870783491488],[114.0908495297793,40.52106118079827],[114.0718662655105,40.49739163168098],[114.0690034201568,40.49510616216085],[114.0692529720584,40.49522545594734],[114.0650020385018,40.49620227455596],[114.060978377452,40.49899129617637],[114.0563601177623,40.49891931590285],[114.0070062131226,40.48132863792095],[113.9852259980004,40.47833472282896],[113.9147869064751,40.47176998115631],[113.8406239673464,40.44068698475995],[113.8224585281785,40.42874485884474],[113.759147016633,40.42250686829677],[113.7251295442042,40.43205055513706],[113.6936344574934,40.42907965819508],[113.6324686319125,40.40770219973313],[113.5725597406676,40.36033898901503],[113.5734995514202,40.35670783779059],[113.5717190667337,40.35202040368565],[113.5294183287137,40.33252407114384],[113.5070684787731,40.3357928495365],[113.3624315284714,40.31150394135224],[113.3529206799545,40.31697859060185],[113.2884360246793,40.32014262387365],[113.2835696021779,40.31750969111242],[113.2726860135889,40.29489816140682],[113.2625621164575,40.29466130483691],[113.2428883496901,40.27584293726117],[113.2073193795412,40.27042058308852],[113.1387912756792,40.26538722169696],[113.0938835608471,40.25045096174717],[113.0038400442474,40.24722553631579],[112.8455520016442,40.20288353910433],[112.7383862791448,40.16161689508066],[112.67722233477,40.19236173121999],[112.6500251842621,40.21808552000387],[112.6365057536806,40.22084349084454],[112.5966341291183,40.24432393970969],[112.5032444418498,40.26865332678884],[112.4569335352136,40.29922911272234],[112.4054266252036,40.29443415508471],[112.3847197919036,40.27134083859592],[112.3556965580672,40.25618857741539],[112.3230446424757,40.25327610384133],[112.2837372992135,40.22275512865308],[112.2928299927968,40.2100303649764],[112.2648251741837,40.18764155444342],[112.2263789468039,40.16899331222422],[112.2251815562513,40.13150769205561],[112.1781951631029,40.08482007513088],[112.135859290289,40.0263807734238],[112.1217124409937,39.9907321668701],[112.1150398850581,39.98840502657531],[112.0867940678189,39.95253445814082],[112.0728045336746,39.92195189131055],[112.0468898498241,39.90126765165698],[112.0250579614652,39.8484272254233],[111.9643292214081,39.79474248062846],[111.9587034788325,39.7200860460727],[111.9651896979423,39.70954175761113],[111.9479454033365,39.68488679398128],[111.9276491272235,39.67010229123482],[111.8976472764001,39.66349892420221],[111.8761032368168,39.64899933360819],[111.855180984104,39.6111247073062],[111.8300831385453,39.62089255991304],[111.776604478248,39.58632543585832],[111.7330820795029,39.60096611822657],[111.7094293829826,39.60446204813955],[111.707242358992,39.61404120716396],[111.6821234687527,39.62974098790891],[111.6316661286026,39.64294916559138],[111.6175015228921,39.62897305383085],[111.5827318057487,39.64236591639227],[111.580276075325,39.64198957436409],[111.5601400394687,39.64039050392525],[111.5558830983325,39.6506873959585],[111.5196583358248,39.65979964780613],[111.4833344938068,39.66019671960567],[111.4411453421285,39.64153587081815],[111.4400474290123,39.63817241414759],[111.4354735642562,39.63896488136339],[111.4365742075108,39.63563944758826],[111.4569210549473,39.62737080462989],[111.4628069432186,39.62713917186884],[111.4583765318708,39.62468811504178],[111.4623298618011,39.62073578276451],[111.4252945830736,39.61476138417899],[111.4384035691486,39.5958896543362],[111.4193803704901,39.54119477150184],[111.4178400754703,39.48936147650378],[111.3673035349302,39.47813625173088],[111.3559494014326,39.42826053824215],[111.2979284491406,39.41868664696971],[111.2835610642421,39.41254937694259],[111.0681078078366,39.37899925183366],[111.0101520163331,39.35983101219021],[111.0082922807085,39.36008908631406],[111.0090721581583,39.35483124405168],[111.0186730367806,39.32267122165665],[110.9968051421413,39.31391171895435],[110.9991249659826,39.31137934148025],[110.9637592531506,39.30746339389996],[110.9575073099739,39.29734146338706],[110.9116250430539,39.2916324522024],[110.8812455950832,39.25658543254102],[110.8489356999158,39.26483480893307],[110.8091188559941,39.2131813202922],[110.7998957511121,39.1946342026486],[110.7821820280692,39.19503852155742],[110.6533412621415,39.0944689889925],[110.62769702695,39.05431271287415],[110.5496087090895,38.98745450389105],[110.5177571575501,38.98370034880715],[110.4633027983534,38.94826523257245],[110.4751686376735,38.90008320464953],[110.4991441149553,38.871018611225],[110.4965938407297,38.86866537715172],[110.4825108773731,38.84661530652169],[110.4512331362448,38.84348436749816],[110.4229155401815,38.72709980816012],[110.3384954078777,38.67097788991968],[110.3317274194589,38.65740853918756],[110.3106119549026,38.65130964033561],[110.3036459186451,38.64492351413739],[110.0175888975363,38.48488968980413],[109.995179162555,38.47734578714735],[109.8578839715386,38.42784892486356],[109.6747348648132,38.28695752448724],[109.5783140275422,38.24860271103216],[109.4946063488719,38.15000595801392],[109.372146002468,38.06312599938839],[109.3052795813291,38.05744663720745],[109.2399667746025,38.01474783754288],[109.2042742641122,37.91160571927586],[109.1916086714196,37.89342111912185],[109.1230775498848,37.82506581849849],[109.1126984308337,37.81454979109113],[109.0736642660949,37.71182979938947],[109.0519827839919,37.69756913669698],[109.0416257718916,37.66957390321586],[109.0462816644192,37.65295399819785],[108.996734405579,37.57377078127878],[108.9715654798273,37.55858896183028],[108.9467581930291,37.52843545867263],[108.8526519859066,37.53592112418816],[108.7912922713896,37.53788225231451],[108.7932196662881,37.52315935881479],[108.6639328700111,37.30623012022328],[108.5854582323474,37.30082824194975],[108.5560232176428,37.30868733245799],[108.5299184233405,37.29564461197863],[108.4571535103307,37.29286483390668],[108.4366772764313,37.30789384736683],[108.3904079905623,37.314955764568],[108.3663944853081,37.32276278168563],[108.2444040218232,37.38597467989831],[108.2272383524665,37.40199084260262],[108.193356690029,37.40896173976892],[108.1034860686919,37.46259903047199],[108.0643673660609,37.52997109298303],[108.0074092294454,37.52302667415167],[107.8180323547432,37.53384619131754],[107.7088503935866,37.54786572828145],[107.692105929301,37.57992646545683],[107.6879303889196,37.60878106981247],[107.6704250263551,37.61264650853688],[107.6139402616631,37.68510688637288],[107.6035325794082,37.74232209278434],[107.5600400093891,37.75124043360302],[107.3260273837546,37.93511661824161],[107.1654490237096,38.04358311563488],[107.1240731640004,38.07378904988737],[107.0404256549762,38.10954272605398],[106.9715013467369,38.1256992903596],[106.539722097069,38.26584819562903],[106.4387696961337,38.37200202784846],[106.5112542148077,38.40329383067781],[106.5329874065927,38.46091881292778],[106.5740694681321,38.51032762148432],[106.5578893571334,38.6251972983497],[106.6073766597686,38.67583196597595],[106.6238782196375,38.74200400833236],[106.882195588547,39.00718184291834],[106.9068574794925,39.0740263139402],[106.8203556608186,39.16621619216508],[106.7121008559672,39.16896443997631],[106.6440663795065,39.20349844022483],[106.5316232635502,39.10852901994209],[106.4813217030077,39.07797693269077],[106.4238467287555,39.10204069859071],[106.3909841357332,39.05493980315758],[106.349579231271,39.06253945554955],[106.3198684986687,39.05543062811578],[106.3020944330351,39.04287862405224],[106.2793361566805,39.00504065400806],[106.1946068318726,38.91587906915921],[106.1689422684569,38.90670126639684],[106.1509170921069,38.86015703217986],[106.1318238071077,38.82583411203987],[106.0519642355287,38.80497826273779],[105.8974666890374,38.53591538238],[105.989582797051,38.5236760173442],[105.9818219169839,38.46158668196809],[105.8202038621251,38.36398255867463],[105.8621704330934,38.29605568936807],[105.8273304743886,38.22251220993908],[105.773701636646,38.20746225604157],[105.7609850615133,38.12048265277036],[105.7875482115195,38.06748896648509],[105.841662708786,38.00438180533702],[105.7941916824597,37.95805722797513],[105.7908187987471,37.90811997005437],[105.8016193131018,37.86114190599871],[105.7684322553778,37.80895725234684],[105.7846668204844,37.7283372858236],[105.7342339245201,37.67542075129255],[105.7250170764143,37.64117780042786],[105.6512664910765,37.60843045417172],[105.5979413003853,37.61543774127801],[105.5723492109002,37.59384696577708],[105.5506492063485,37.51698629769229],[105.4528259782679,37.51151002983738],[105.3975664875207,37.52675742311684],[105.3591983284106,37.56404427135995],[105.2195408101456,37.5938551373498],[105.1297108870837,37.57171140479617],[105.1204104462387,37.52327515930305],[105.0313308272067,37.4350045128328],[104.9029698723899,37.38965746199487],[104.8347976537378,37.3787965908012],[104.8175260324707,37.38348135322165],[104.8283936273219,37.36924578525372],[104.8032635217185,37.35468985040358],[104.7736705467483,37.36063872310081],[104.7550054847008,37.33975431339283],[104.7211087445972,37.34813908836777],[104.7160046670731,37.32815579568867],[104.6734812295535,37.31423758612917],[104.6443631019312,37.28520135072529],[104.6229962217564,37.29390057699885],[104.6274004055958,37.28003700029448],[104.573567840513,37.25926319045537],[104.558235709395,37.26325017411394],[104.5124995535306,37.22213360549499],[104.4858338143317,37.22210549114948],[104.4667990442133,37.19710283657058],[104.4271069447439,37.19585509643579],[104.4154412203809,37.1903849277418],[104.4024826277689,37.19337352422021],[104.3795363489568,37.17780721534533],[104.3169612490528,37.17467568621905],[104.2956512906161,37.16243202210836],[104.3266732869706,37.15667557392366],[104.3406887942027,37.13757087627625],[104.3552020377288,37.11960695839754],[104.3039926722359,37.13364048039492],[104.3008647991524,37.12964622983633],[104.2917271509567,37.09189687762891],[104.2824739179131,37.1009733297005],[104.2639428795937,37.12925532252517],[104.2251067861808,37.13078063598952],[104.2057134079685,37.1510552490675],[104.1267582142949,37.1808847549433],[104.0209144606673,37.2754304280983],[103.9805099547679,37.31202496751754],[103.9074964129561,37.43500774080768],[103.78455631931,37.45467498415659],[103.702488441944,37.47864613432313],[103.5745335583794,37.48243322023954],[103.4453736128948,37.48803763142929],[103.3409215407555,37.52342487312824],[103.2661835473331,37.55894280119453],[103.2101203094326,37.56272584104875],[103.1871226181927,37.57562856670935],[103.1543058634277,37.57309376391163],[103.1135448502387,37.60319092328642],[103.0825853093825,37.61654833587602],[103.0134790250366,37.64056912747063],[102.987134451465,37.61053820913654],[102.8943386618438,37.74365019694305],[102.9178887236165,37.87331109335521],[102.893388444304,37.91144325180399],[102.9039273742365,37.9466659350436],[102.8091102093992,38.05611732041519],[102.8185913331519,38.11240483158027],[102.7508987544136,38.19751036805487],[102.7808547567706,38.21050448904779],[102.8369989352678,38.34461646323378],[102.8930725364243,38.36677077317267],[102.9183039175325,38.43260409620089],[102.9998379698523,38.50340626191128],[103.2170985184965,38.58010216386914],[103.2575953671254,38.63314842244852],[103.2303550534529,38.64162814214283],[103.2260292736916,38.68953717273828],[103.1534246868244,38.69862092371729],[103.135128292027,38.68349465099865],[103.0305960691696,38.69294772583302],[102.9921328628053,38.66275458890728],[102.9805027060984,38.63388791084547],[102.9549678956357,38.55084382263385],[102.9589056981322,38.51509631375247],[102.9370098653022,38.47277622572793],[102.9098207213213,38.45899205787755],[102.8568374497758,38.41116210930922],[102.8558707958602,38.40079743397748],[102.7923076392546,38.36088169101924],[102.7283061559442,38.36400573042942],[102.6817024133417,38.34422157009154],[102.6081975300302,38.31462045583157],[102.5746767350117,38.28458536156168],[102.5392852031377,38.2505184951472],[102.4659324418921,38.25056701209694],[102.4031244602869,38.26971627160425],[102.2605561502857,38.31418482579284],[102.2364819184657,38.3169984036541],[102.1124786061821,38.38781932459825],[102.064523265759,38.39534437632074],[102.0512676496246,38.38440289840232],[101.9765181232214,38.32187154922956],[101.7764544857031,38.36173639969431],[101.7130943105841,38.34852594601231],[101.6609945901816,38.39946511361717],[101.5753458816313,38.40663599514463],[101.4408377255682,38.47440947397891],[101.3394779261627,38.58777371122657],[101.2441697345783,38.63358483090401],[101.1274450313275,38.76355468164174],[101.0229949726665,38.83334959122089],[101.0082852439776,38.81620511306937],[100.76111,38.86645],[100.8213822049176,39.00111107972135],[100.7861139280461,39.01824641300215],[100.7748877413284,39.00729409888412],[100.7247400911297,39.02677046077768],[100.7195454576428,39.02380666920854],[100.7084988495211,39.02624820508171],[100.6644718079026,39.03877199779905],[100.667108173467,39.04680513738382],[100.6462873707794,39.07041767268051],[100.6164560886389,39.08615892761028],[100.5773924958491,39.08241707896117],[100.5658589395885,39.08210120349722],[100.5325135172529,39.09313753579148],[100.518714194702,39.11860676805352],[100.4961999251799,39.12798044838642],[100.4631489100922,39.14342160148082],[100.4475093381566,39.14744533834514],[100.4438927563555,39.16186917104871],[100.4339862253549,39.18522591779506],[100.3610392022112,39.20859538063114],[100.3385576058369,39.20552256082497],[100.2925164786488,39.25727040775347],[100.2732214535321,39.29163299622229],[100.1549481447413,39.33093815121729],[100.1321845095065,39.34831255180427],[100.0059661820245,39.39089690844673],[99.94238747328052,39.37474169230315],[99.92176507772695,39.37725670032082],[99.85596880401982,39.40982600881438],[99.81914617047207,39.40701847878346],[99.76275029907828,39.43358405027039],[99.66473352115838,39.5215321914328],[99.61864060617525,39.67797112551901],[99.55280977805045,39.71759419339703],[99.45041208476003,39.81224824402499],[99.43021216807777,39.81165372466832],[99.32499795043566,39.76579374558462],[99.20314891291629,39.80022292989762],[99.09366086280441,39.7976914536191],[98.90223772204601,39.8583061945828],[98.8281137219053,39.8143165129035],[98.80686979807682,39.83084284001924],[98.72793152787945,39.81518017610833],[98.6355840484248,39.84293134540354],[98.48531177096427,39.86819965302676],[98.39089733462401,39.91941038848776],[98.2067829386649,39.82501254657364],[98.19988143155118,39.74275734581934]]}},{"type":"Feature","id":"wiki-history-31","properties":{"name":"明代长城 · 02","category":"wall","originalPath":"万里の長城 wikipedia/明代","comment":"","originalName":"02","originalId":31,"nameEn":"Ming Great Wall · 02","source":"wikipedia-kmz","dynasty":"ming","dynastyZh":"明代","dynastyEn":"Ming","approximate":true},"geometry":{"type":"LineString","coordinates":[[119.74673,40.16968888888889],[119.77717,40.16863888888889],[119.85166,40.19276944444444],[119.88015,40.19068055555555],[119.91447,40.19933055555556],[119.94468,40.23341111111111],[119.9726559543886,40.25637014151655],[119.9708117538072,40.26453358222748]]}},{"type":"Feature","id":"wiki-history-32","properties":{"name":"明代长城 · 03","category":"wall","originalPath":"万里の長城 wikipedia/明代","comment":"","originalName":"03","originalId":32,"nameEn":"Ming Great Wall · 03","source":"wikipedia-kmz","dynasty":"ming","dynastyZh":"明代","dynastyEn":"Ming","approximate":true},"geometry":{"type":"LineString","coordinates":[[119.7375,40.20556111111112],[119.74703,40.16943888888888],[119.75475,40.14621944444444],[119.72849,40.10488055555556],[119.7654,40.08071944444445],[119.7266956008866,40.04469366160217],[119.7341695341924,40.0367412907693],[119.7462906758907,40.02064652266412],[119.7508348689296,40.01112074381926],[119.7717398515892,39.99820663364437],[119.7879068763574,39.99225092740261],[119.79509,39.96583055555556]]}},{"type":"Feature","id":"wiki-history-33","properties":{"name":"明代长城支线 · 01","category":"wall","originalPath":"万里の長城 wikipedia/明代","comment":"","originalName":"01_支線","originalId":33,"nameEn":"Ming Great Wall branch · 01","source":"wikipedia-kmz","dynasty":"ming","dynastyZh":"明代","dynastyEn":"Ming","approximate":true},"geometry":{"type":"LineString","coordinates":[[114.0344732494668,40.6078766030533],[113.79982,40.56756111111111],[113.40569,40.71136111111112],[113.11798,40.5733],[112.91748,40.53938888888889],[112.83234,40.56546944444444],[112.51167,40.42658055555555],[112.00287,40.01871111111111],[111.71448,39.96821111111111],[111.63414,39.87341944444444]]}},{"type":"Feature","id":"wiki-history-34","properties":{"name":"明代长城 · 03","category":"wall","originalPath":"万里の長城 wikipedia/明代","comment":"","originalName":"03","originalId":34,"nameEn":"Ming Great Wall · 03","source":"wikipedia-kmz","dynasty":"ming","dynastyZh":"明代","dynastyEn":"Ming","approximate":true},"geometry":{"type":"LineString","coordinates":[[116.5016,40.48155],[116.43242,40.49446944444445],[116.37199,40.49421111111111],[116.31981,40.49813055555556],[116.28685,40.4822],[116.25732,40.49996111111111],[116.18591,40.48271944444445],[116.15295,40.46523055555556],[116.1272,40.46313888888889],[116.07296,40.43726944444444],[116.04927,40.42106944444444],[116.04412,40.40851944444444],[116.00086,40.38786944444444],[116.01048,40.37086944444444],[116.0194,40.37165],[116.0159,40.36086111111111],[116.01365,40.35995],[116.01138,40.356],[116.00683,40.35458888888889],[116.00275,40.34356944444445],[115.9964,40.33755],[115.98357,40.33088055555556],[115.97649,40.33356111111112],[115.97056,40.33068055555556],[115.97005,40.32841944444445],[115.96357,40.32498888888889],[115.96387,40.32106111111111],[115.94876,40.31621944444444],[115.95245,40.31176944444444],[115.94245,40.30943888888888],[115.94091,40.31141111111111],[115.92821,40.30171944444444],[115.954,40.27115],[115.93838,40.26748055555556],[115.90954,40.24325],[115.89375,40.25006111111111],[115.88568,40.23775],[115.8601,40.25241944444444],[115.85306,40.246],[115.83195,40.24481944444445],[115.79865,40.26171944444445],[115.78714,40.24743888888889],[115.80122,40.23696111111111],[115.79847,40.22201944444445],[115.78766,40.21821944444444],[115.78165,40.17718055555555],[115.76672,40.17456111111111],[115.76157,40.1638],[115.74818,40.16275]]}},{"type":"Feature","id":"wiki-history-35","properties":{"name":"明代长城 · 04","category":"wall","originalPath":"万里の長城 wikipedia/明代","comment":"","originalName":"04","originalId":35,"nameEn":"Ming Great Wall · 04","source":"wikipedia-kmz","dynasty":"ming","dynastyZh":"明代","dynastyEn":"Ming","approximate":true},"geometry":{"type":"LineString","coordinates":[[115.0185547467759,39.63882706206801],[115.0198084546314,39.62998092005346],[115.0085655471844,39.6166630479256],[114.9974167571136,39.60732724138583],[114.9976123530155,39.59576710671433],[114.9867172542825,39.57071861502163],[114.9722940370888,39.57160559030852],[114.9677335522152,39.56378102163671],[114.975801536987,39.55958621662539],[114.9747178660822,39.54846914986864],[114.9686215880542,39.52727756412334],[114.961082792604,39.52065450851084],[114.9594346264246,39.51210108472079],[114.9593415907456,39.51220371810973],[114.9493744118695,39.49567324491285],[114.9400956758923,39.49093822675729],[114.9343701851176,39.48325933942284],[114.9284923381957,39.48421370283978],[114.9280065497257,39.47808564163179],[114.9336515211475,39.46914780193783],[114.9264001699511,39.46636137157201],[114.9147787293751,39.46749505257608],[114.9088738410394,39.46316815773215],[114.8984705009741,39.46538880569939],[114.9038761966995,39.45175076977065],[114.8925586674821,39.4358914917692],[114.8786949587599,39.4367790399798],[114.8738052523896,39.4216978897574],[114.8695102199469,39.42278925540911],[114.8621372899567,39.41480015238496],[114.8540288646565,39.3922820152467],[114.848946702265,39.39041487753672],[114.846146674869,39.38255930338021],[114.8403381972659,39.38054209489481],[114.8406006073787,39.37374038130944],[114.8351155889285,39.36949111470223],[114.8335579771665,39.35591389304714],[114.8284356858734,39.34106835224641],[114.827808746705,39.33103911778739],[114.8380614860085,39.32320322824306],[114.8425186656143,39.31856832668779],[114.8394751192672,39.29322847107247],[114.8204248900282,39.27335260950866],[114.7849009287738,39.27591596039595],[114.7801541350916,39.27299885888979],[114.7654209630103,39.27528936937067],[114.7576798307613,39.26667230408664],[114.7482578540959,39.26335879579543],[114.7431447914678,39.25903010909126],[114.7393811261069,39.25806699256425],[114.7352216283267,39.2587315465615],[114.7336056686878,39.25813564837194],[114.7306864856919,39.25925284620926],[114.7238303629011,39.25834345319804],[114.7214690021535,39.2605653546901],[114.7181127850144,39.25969208461543],[114.7005381756904,39.26572962670224],[114.6967455305775,39.26497166867138],[114.6937435494112,39.26607078351231],[114.6877563887538,39.26494399189301],[114.6833784138005,39.26004555970719],[114.6826364467242,39.25147448925056],[114.679404168532,39.24783257620492],[114.6739185461259,39.23893293572855],[114.6557912318751,39.23736324171094],[114.6473225151878,39.23994981559657],[114.6412259564527,39.23645917631369],[114.6400513968269,39.24138987771126],[114.6338887543852,39.24266640586185],[114.6292870666428,39.23784301364076],[114.6267960225349,39.23796167957804],[114.625300809804,39.23590928741469],[114.6214769404698,39.23701383090532],[114.6121468146355,39.23496295706963],[114.6049552908847,39.23076672968534],[114.603908330477,39.22533573528879],[114.607690581565,39.21495736217432],[114.6036112930953,39.20844346713553],[114.5903365879618,39.19917259249831],[114.5801176975513,39.20055268789947],[114.5749151751963,39.21575072235876],[114.5714291002617,39.21650363454013],[114.5642132621303,39.21496334960157],[114.5561680044865,39.22472804868553],[114.5504542995459,39.22030350334094],[114.5497696663734,39.21599361928275],[114.5459957199594,39.21182071549862],[114.5340443851957,39.21054470080713],[114.532662518029,39.21714391536973],[114.5262521029232,39.2161353561292],[114.5222569439582,39.21182118014577],[114.5122622286919,39.21020741730634],[114.5072078920292,39.2232497519024],[114.4973176712227,39.21707029484917],[114.4933811255065,39.2178796001891],[114.4898206825645,39.21626932960174],[114.4864012237807,39.21729194529766],[114.4816255878531,39.21307955916832],[114.4773523309093,39.2041965478784],[114.4690651257185,39.20001199849523],[114.4670822897074,39.20070001533651],[114.4637723632573,39.1919596065685],[114.4603130412502,39.19138090687471],[114.4587867375985,39.18648433244217],[114.4462289507422,39.19144836445582],[114.4410617225029,39.19034125126798],[114.4382110090278,39.18458974993445],[114.4290814167328,39.18162070323135],[114.4271951851395,39.17422685890813],[114.4245820821195,39.17128389034642],[114.4194223847714,39.17283580408256],[114.4147980715712,39.17147459326399],[114.4073393701407,39.17684709352824],[114.4021728175988,39.17750141566037],[114.3966255729448,39.17579019322048],[114.3956947327981,39.17631312534434],[114.3921441275654,39.17426757357732],[114.3854544492461,39.17538854006114],[114.3770608356794,39.17261432049491],[114.3725369338069,39.16523897840907],[114.3727345132803,39.1611121398057],[114.3693115755867,39.15675443047935],[114.3701632955877,39.15168840436436],[114.373718138287,39.14746858624924],[114.3698329430642,39.1468529011169],[114.3661060510313,39.14189946424721]]}},{"type":"Feature","id":"wiki-history-36","properties":{"name":"明代长城 · 05","category":"wall","originalPath":"万里の長城 wikipedia/明代","comment":"","originalName":"05","originalId":36,"nameEn":"Ming Great Wall · 05","source":"wikipedia-kmz","dynasty":"ming","dynastyZh":"明代","dynastyEn":"Ming","approximate":true},"geometry":{"type":"LineString","coordinates":[[113.9651243845216,39.12422306795514],[113.960743467426,39.11129953072736],[113.955804212817,39.10680997354881],[113.9489143084416,39.11389130603602],[113.948407601547,39.12391760439478],[113.9417286802296,39.13167878517137],[113.9454300943684,39.15354901912472],[113.9405448838316,39.15860476955805],[113.936813646458,39.1750775901434],[113.9399672803192,39.18191552841856],[113.9288678832149,39.18751055142135],[113.9322520219544,39.19685786741233],[113.9279552435188,39.20719690632108],[113.9193700257646,39.21630920810032],[113.920520242271,39.22341813428286],[113.9310537452503,39.23400317457305],[113.9373758428437,39.23681474781932],[113.9378512638248,39.23962680999571],[113.9506447026065,39.24581204461829],[113.950361054949,39.25101109239896],[113.9586167837141,39.25626298273237],[113.961510790588,39.26637234234232],[113.958658075055,39.26958754261695],[113.9569842315402,39.27727000782743],[113.9569150304768,39.27707193488324],[113.9586103857723,39.27918255644988],[113.9517873861861,39.28538127244725],[113.9529348854618,39.28956361621638],[113.9474989684802,39.28993760957695],[113.9433783986854,39.29189358648452],[113.943151742516,39.29410222890288],[113.9394694888163,39.29571118162252],[113.9345747994152,39.3005521212277],[113.9320868646442,39.30808040344233],[113.9330852261269,39.31119724391338],[113.9272835294191,39.31432173835304],[113.9244473290913,39.31739382060636],[113.923618294679,39.32193307955676],[113.9165133104549,39.32109436803384],[113.9069420691997,39.32754409251096],[113.9015039394287,39.33022064045338],[113.8957005569366,39.33802580057427],[113.8875928024319,39.34440957285869],[113.8849819399983,39.34789814645563],[113.8852597673745,39.35047676968783],[113.8889043648522,39.35375756437906],[113.8889936654262,39.35669990822901],[113.8926606671046,39.35892396360495],[113.8822084208788,39.3723469125739],[113.8684066080563,39.37130389309842],[113.8668502635244,39.38399352982853],[113.868303535168,39.38611819068115],[113.8618910842159,39.39355979060235],[113.8587494719592,39.39195637437072],[113.8471347888586,39.39593044335997],[113.8415655243438,39.40553903371536],[113.8359700291416,39.40707311120842],[113.8367841378091,39.40928451476167],[113.8279247720594,39.41484547633648],[113.825835826156,39.41457383523444],[113.8229332692433,39.4209291241344],[113.8142250428262,39.42429880450629],[113.8112113724385,39.42765225079507],[113.8129341318321,39.43443578333284],[113.8115109918323,39.44012280661728],[113.8092127456555,39.44098772706043],[113.7974942008561,39.47015808657753],[113.7932122309048,39.47637965666877],[113.7951109405532,39.49695261275462],[113.7979586015102,39.49965341105273],[113.8002602975356,39.50870018019522],[113.7966908037144,39.50979629207286],[113.7913985268044,39.50724740325976],[113.787813592289,39.50645034759489],[113.783777022106,39.50943605896992],[113.7770543437927,39.51068158732901],[113.7721178440644,39.50987694179712],[113.7651816378337,39.50476260376684],[113.7582629435553,39.50284836175101],[113.7554456588737,39.49972303612782],[113.746898846085,39.50702126398811],[113.7468758152403,39.51550934793545],[113.7512967740481,39.51654652218139],[113.7528026155704,39.51722274322128],[113.7554815983383,39.52195829876524],[113.7545544500033,39.52578950782676],[113.7582170428402,39.52948691094073],[113.759300816388,39.53340695572575],[113.7578440690895,39.53678909438771],[113.7539134065308,39.53812106005294],[113.7479527471851,39.54709470864405],[113.7395016370896,39.5495559522421],[113.7399474797546,39.56665475741416],[113.7417130109304,39.56919538775325],[113.7383148642378,39.57150137954847],[113.738138615255,39.57729653209878],[113.7408517304655,39.58051563503992],[113.723237643433,39.59350586173629],[113.7165658108183,39.59211958175595],[113.7141750886458,39.59060472577769],[113.7032118363366,39.58946687447115],[113.7015219876117,39.58506398005514],[113.6952677388181,39.58360345503149],[113.6923970132167,39.58467235472954],[113.6803777352252,39.58250276347307],[113.6785769544673,39.58318949768424],[113.6754453494959,39.57903185604283],[113.672435103268,39.57843058851319],[113.670827338153,39.5800284481066],[113.6698678441301,39.58505866542655],[113.6709959451224,39.59081894445163],[113.6686605067835,39.59498062850034],[113.6695202514033,39.59704177285248],[113.6774394471646,39.59902486170598],[113.676985157761,39.60290788293977],[113.6820074659596,39.60717453853728],[113.6916364416779,39.60944086691315],[113.7017732198913,39.62003850045569],[113.70810552743,39.62116754641115],[113.7111701320102,39.62325771232852],[113.709784910872,39.62583637332008],[113.7042176824936,39.63097080200168],[113.6899661156346,39.63893536121549],[113.685668665012,39.63827023243671],[113.6727443991627,39.64317122783245],[113.6601978855149,39.63335649462466],[113.6421797209889,39.62545827530987],[113.6382987599285,39.6201521720288],[113.6335386769723,39.62096762377755],[113.6128770198707,39.59888855342776],[113.6005923361791,39.58901327594799],[113.5878009433255,39.58664444803147],[113.5803328277076,39.5811709943101],[113.5640036600088,39.58304790073822],[113.5546394917013,39.57787769716794],[113.5542099166069,39.56258205990981],[113.5493175441271,39.55967454134833],[113.5389989060112,39.5333995742649],[113.5237559269525,39.53545399156698],[113.5105609734185,39.52447337263374],[113.4966310727858,39.53071060700763],[113.4862106702614,39.54771993119515],[113.4796617424244,39.54288144207072],[113.4887389273483,39.53113010190408],[113.480622982902,39.53076243217975],[113.4688646971514,39.52550330163186],[113.4708812980312,39.51894292613931],[113.4579678467221,39.51546581235129],[113.4601630679432,39.5090279565766],[113.4568173522679,39.507239432299],[113.4522639673776,39.50800757262671],[113.4466630801804,39.51834173081797],[113.4379297635051,39.51933126953457],[113.4303512616954,39.51634923551234],[113.4319729957944,39.50391207342897],[113.4215589653131,39.50501553702332],[113.4195155254991,39.51076780148906],[113.4082428204784,39.5113755426087],[113.4087842624391,39.50394513709806],[113.4022800238239,39.50766930283144],[113.3953201446938,39.50038309316074],[113.3887258879349,39.51312333495768],[113.3754043603878,39.50881725430294],[113.3731673947368,39.50452280605297],[113.3683387679922,39.50667710945343],[113.3677644994103,39.5049357170026],[113.3631311618387,39.50139817321221],[113.3620074185411,39.49864792858168],[113.3603012624713,39.49829806667642],[113.3551386159705,39.5038399302497],[113.3486973405016,39.50404123318965],[113.3485500162168,39.50691465003921],[113.3449399864759,39.50332914394912],[113.3495397745206,39.49364612025071],[113.3433592498795,39.49492112590629],[113.3366238649709,39.4939676280504],[113.3349935473467,39.49217636108407],[113.338366706993,39.4884189700328],[113.3324975688046,39.48345901815242],[113.3294345072243,39.48362955985039],[113.3238899246844,39.48016380672847],[113.3263606792961,39.47478541698014],[113.3340315633994,39.47168622098943],[113.3286621567173,39.46883880437649],[113.3207695174583,39.45805089913794],[113.3161174818181,39.45693455929545],[113.3122089978481,39.46070560116655],[113.310681655792,39.45982896653781],[113.3100774975256,39.45606768624794],[113.3062792082628,39.45197900341393],[113.302479481932,39.45159903770281],[113.2995206419752,39.45339800798717],[113.2848589601673,39.44861575103236],[113.2872132106366,39.44518865033371],[113.2760222074147,39.42883751056858],[113.2746978766405,39.42321309138215],[113.2626394280826,39.40598200239872],[113.2577134241439,39.40321923528845],[113.2584229275307,39.39668631985509],[113.2508714636059,39.39664937695527],[113.2429060799252,39.39816770671368],[113.2385381171379,39.39667517549967],[113.2373063079003,39.39306576354454],[113.2257874337082,39.39193655221065],[113.2213665005169,39.39354691737783],[113.2172214158017,39.39120010418013],[113.2184950218266,39.38722882655937],[113.213355685104,39.38361067736117],[113.2070282850651,39.38222274899761],[113.2054116227865,39.37947071850979],[113.1992754301426,39.37756602521664],[113.1920515531401,39.37375697772679],[113.1886056836593,39.37396753521597],[113.0740748837442,39.35840885566167],[113.0622969523689,39.35134026454416],[113.0549186196261,39.35602775714343],[113.0497386820271,39.35594243289675],[113.0457778046543,39.3493452335011],[113.048170282876,39.33776275834963],[113.042235094135,39.33693699644522],[113.0367378134586,39.34190113024931],[113.0312950448539,39.34245995842761],[113.0217044175863,39.33756473705354],[113.0211315884456,39.33241367273011],[113.0167907215708,39.33321707959012],[113.0131175754746,39.3323807831952],[113.0094194019855,39.33568639419155],[113.0060392417849,39.33618370849863],[113.0025275061351,39.33347868624286],[113.0068028061637,39.32645255757077],[113.0034335397305,39.32684405424101],[113.0013816522308,39.32532705034041],[113.0003560146676,39.32538540408187],[112.9999957617769,39.32274549993303],[112.9988876749139,39.32263805538049],[112.9984727690693,39.32151165962782],[112.9970747229726,39.32096709443253],[112.9920252775866,39.32132847541827],[112.9896335288776,39.32004409482652],[112.9894397086798,39.31856645323466],[112.991754085728,39.31654256411117],[112.9913796956394,39.31349574485108],[112.989121162459,39.31426907363237],[112.9857334605159,39.312850487396],[112.9819024122719,39.31308881489668],[112.9764910458661,39.31072631629043],[112.9686052282459,39.30980904850902],[112.9639712865666,39.3085808085113],[112.9632227419389,39.30545358616992],[112.9580236817907,39.3041219770219],[112.9585586036697,39.30169047823033],[112.9574953995844,39.30012793225887],[112.9543888099537,39.29925950442816],[112.9572788818768,39.29240898093963],[112.9562492832335,39.29172968455322],[112.9525080520242,39.29201990739464],[112.9512298259318,39.29138036432468],[112.9491295367376,39.28574398701626],[112.9470990182726,39.27947786275458],[112.9461652150758,39.27885640357945],[112.9414479355694,39.2793041007992],[112.9382135548463,39.27752432135036],[112.9365404705406,39.27843711106844],[112.9288664521127,39.27745249199224],[112.9232870383738,39.27570598754533],[112.9187901915134,39.26901623406292],[112.9195380827505,39.26605762290373],[112.9136118132748,39.2640468181322],[112.9183683422239,39.2592945818525],[112.9213530430217,39.25330667777485],[112.9190057850026,39.25228308975547],[112.9153036922281,39.25306711326174],[112.9132554220234,39.25229422370003],[112.9097330876044,39.25340019948481],[112.9082803997439,39.2554727580904],[112.9064811200915,39.25523025235707],[112.9031455013154,39.24970368886472],[112.9049579007405,39.24756956856409],[112.8962639343268,39.24388085485897],[112.8953225886444,39.24528217899545],[112.8885824980394,39.24232529589243],[112.8874618263877,39.24019085430646],[112.8858907958104,39.24042692167567],[112.8860709323952,39.24391797769795],[112.8828089896566,39.24207361050976],[112.8759449350585,39.23742191275154],[112.8723068577795,39.23874396897997],[112.8675105118644,39.2344417487839],[112.8628592685545,39.24005631821839],[112.8581568136376,39.23804688097469],[112.8582824860916,39.23568440416653],[112.8538037987659,39.23837720166642],[112.8524610934079,39.23745241722948],[112.8499601764621,39.23861541339141],[112.8450078932107,39.2386294400695],[112.8426487801254,39.24222255674781],[112.8344191444985,39.23586641488082],[112.8233168281183,39.23153120254597],[112.8187659452892,39.22544753700038],[112.8188755336294,39.22342401342716],[112.8155826217296,39.22414287095574],[112.8108474887528,39.22380316372066],[112.8058084134164,39.21917248155419],[112.7999883361853,39.21690179743182],[112.7937868327047,39.21784756442524],[112.790717851261,39.21486684819386],[112.7901364121225,39.20769194543927],[112.7880398234286,39.20656642049877],[112.7864645280773,39.19606007418997],[112.7959973684164,39.18622135644517],[112.7948330935036,39.18351147792534],[112.7841009237293,39.18246958583511],[112.7817154324973,39.1791526175871],[112.7771689762347,39.18021883767582],[112.7713833603891,39.17675376862459],[112.7661350122506,39.17728019553214],[112.7606716593367,39.17489924884325],[112.7506994859586,39.17458805874681],[112.7394691945691,39.16085067146136],[112.7387491647169,39.15273523225405],[112.7144076053921,39.13523057048081],[112.6833882285482,39.12206063490987],[112.6841733264939,39.11904089111209],[112.678709461852,39.11042920180071],[112.674271143327,39.11021808361005],[112.640640205672,39.09277345266226],[112.622316513052,39.08579931687657],[112.6117532026649,39.09006186035538],[112.5948717640832,39.08530212285967],[112.5829155596078,39.08495998860689],[112.5771265903461,39.07962934730892],[112.5661271056113,39.08197967441357],[112.5470708609649,39.08101340414376],[112.5440001844921,39.0730023052641],[112.5315264821039,39.07521773191544],[112.5211467882076,39.07129671444976],[112.5131618750135,39.0748390211613],[112.5021533332743,39.06419781744531],[112.4815582765934,39.06211515641607],[112.47521346465,39.07085630272583],[112.4626928445372,39.07108610646549],[112.4536496702299,39.06749010489339],[112.431731481118,39.06618966395276],[112.4225305744304,39.05373310078044],[112.4114843010907,39.05129975159453],[112.4018017964246,39.05532877492988],[112.3996440536367,39.06258264685729],[112.3870781540438,39.07094185204209],[112.3856430388116,39.07833134161898],[112.3474900901367,39.09950532254495],[112.2900021618102,39.09900074828406],[112.2725837589628,39.11848373967113],[112.2607493941165,39.1206931462913],[112.2607502574792,39.14494378979782],[112.237451319219,39.17051863682048],[112.23757974623,39.1926281998095],[112.226768387806,39.21390141068584],[112.2224827785556,39.22675407928362],[112.209959947216,39.23450008484123],[112.2058194733818,39.2505544371296],[112.2007537958742,39.25250130007465],[112.1963564946745,39.26138967396395],[112.1731281463546,39.26503244854104],[112.1662804456501,39.27661895445615],[112.1393676508537,39.28717505304457],[112.1236099988183,39.2989509612995],[112.0828161210844,39.31358101431344],[112.0706204428624,39.3069498070186],[112.0593378124254,39.30659851706948],[112.0427677520262,39.32070050320672],[112.0442145487316,39.32801779974801],[112.0350181880654,39.33402645426881],[112.0351805142409,39.3457546678078],[112.030053928318,39.3610525476855],[112.0150251578467,39.36421707042206],[111.996064906867,39.38239896965797],[111.9780162568491,39.38895432316742],[111.9599605619014,39.38779550859483],[111.9595088731317,39.39965266247287],[111.951750377893,39.40649705632281],[111.949541410548,39.41295048329447],[111.927620473939,39.42767871066057],[111.927787152179,39.43308932786052],[111.9154744606313,39.43686533167903],[111.9043799230216,39.43539027454469],[111.8780947625281,39.44500991614764],[111.8838524054244,39.45056941350377],[111.8794361052432,39.47852785576421],[111.8749995793303,39.48158989545136],[111.8799887020906,39.48831754626588],[111.8755114527781,39.50093489048195],[111.8736847518472,39.51355266450432],[111.8555125690901,39.5186874892831],[111.8458148674809,39.53364326188797],[111.8462932456943,39.54358647731387],[111.8665310949959,39.55452618958645],[111.8707446638617,39.55970929133254],[111.8635570463809,39.57084882068619],[111.8675948046236,39.58633105118675],[111.8841768098396,39.59297971000494],[111.8740261136967,39.60680850734981],[111.872446683295,39.60163869452359],[111.8588181275368,39.61045027571283],[111.8554406840358,39.61106821546836]]}},{"type":"Feature","id":"wiki-history-37","properties":{"name":"明代长城 · 07","category":"wall","originalPath":"万里の長城 wikipedia/明代","comment":"","originalName":"07","originalId":37,"nameEn":"Ming Great Wall · 07","source":"wikipedia-kmz","dynasty":"ming","dynastyZh":"明代","dynastyEn":"Ming","approximate":true},"geometry":{"type":"LineString","coordinates":[[116.49387,40.46315000000001],[116.45817,40.45296111111112],[116.44855,40.46236111111111],[116.42796,40.45505],[116.41697,40.46758888888889],[116.40118,40.44929999999999],[116.37543,40.44408055555555],[116.37165,40.41951111111111],[116.31535,40.41611944444444],[116.30161,40.40801111111111],[116.26316,40.40958055555556],[116.24325,40.38553055555555]]}},{"type":"Feature","id":"wiki-history-38","properties":{"name":"明代长城 · 08","category":"wall","originalPath":"万里の長城 wikipedia/明代","comment":"","originalName":"08","originalId":38,"nameEn":"Ming Great Wall · 08","source":"wikipedia-kmz","dynasty":"ming","dynastyZh":"明代","dynastyEn":"Ming","approximate":true},"geometry":{"type":"LineString","coordinates":[[116.01593,40.36058055555556],[116.01631,40.35806111111111],[116.01567,40.35165],[116.02103,40.34746111111112],[116.02481,40.34815],[116.02305,40.33928055555556],[116.03421,40.33621111111111],[116.04524,40.33466944444444]]}},{"type":"Feature","id":"wiki-history-39","properties":{"name":"明代长城 · 09","category":"wall","originalPath":"万里の長城 wikipedia/明代","comment":"","originalName":"09","originalId":39,"nameEn":"Ming Great Wall · 09","source":"wikipedia-kmz","dynasty":"ming","dynastyZh":"明代","dynastyEn":"Ming","approximate":true},"geometry":{"type":"LineString","coordinates":[[111.13083,39.37996944444445],[111.18576,39.35131111111112],[111.05804,39.23971944444445],[110.99625,39.23866111111111],[110.89737,39.07253888888889],[110.70786,39.07893055555556],[110.49774,38.86648055555555],[110.56091,38.72203888888889],[110.43182,38.71775],[110.3302,38.50743888888889],[110.02258,38.42571944444444],[109.76715,38.28358055555555],[109.83856,37.97896944444445],[109.45953,38.05253055555556],[109.3222,37.98546111111111],[109.06677,37.53383055555555],[108.89374,37.49025],[108.80035,37.51858055555555],[108.88,37.40521944444444],[108.82782,37.23923055555556],[107.66327,37.21516944444445],[107.27325,37.36375]]}},{"type":"Feature","id":"wiki-history-40","properties":{"name":"明代长城 · 10","category":"wall","originalPath":"万里の長城 wikipedia/明代","comment":"","originalName":"10","originalId":40,"nameEn":"Ming Great Wall · 10","source":"wikipedia-kmz","dynasty":"ming","dynastyZh":"明代","dynastyEn":"Ming","approximate":true},"geometry":{"type":"LineString","coordinates":[[107.62756,37.25888888888889],[107.6041073835284,37.5331893575541],[107.5930673726316,37.55639189239189],[107.5914279678358,37.56656411089696],[107.5973928352535,37.58927476612985],[107.5602502592883,37.66211507848691],[107.4941983144058,37.72854655952529],[107.3818640862758,37.80595940299558],[107.2567907732423,37.86770662354103],[107.2322189513865,37.93953809047341],[107.2223304006721,37.93799843186226],[107.1348466579423,37.99449045014713],[107.04529,38.09793055555556]]}},{"type":"Feature","id":"wiki-history-41","properties":{"name":"明代长城 · 11","category":"wall","originalPath":"万里の長城 wikipedia/明代","comment":"","originalName":"11","originalId":41,"nameEn":"Ming Great Wall · 11","source":"wikipedia-kmz","dynasty":"ming","dynastyZh":"明代","dynastyEn":"Ming","approximate":true},"geometry":{"type":"LineString","coordinates":[[104.28772,37.09025],[104.73816,36.55601111111111],[104.02405,36.05358888888889],[103.43903,36.23546111111111],[103.36212,36.59351111111111],[103.11768,37.01133888888889],[102.87872,37.16688888888888],[102.99408,37.60986944444445]]}},{"type":"Feature","id":"wiki-history-42","properties":{"name":"明代长城 · 12","category":"wall","originalPath":"万里の長城 wikipedia/明代","comment":"","originalName":"12","originalId":42,"nameEn":"Ming Great Wall · 12","source":"wikipedia-kmz","dynasty":"ming","dynastyZh":"明代","dynastyEn":"Ming","approximate":true},"geometry":{"type":"LineString","coordinates":[[116.13922,40.72851944444444],[116.0788,40.70458055555556],[116.04034,40.7306],[115.76294,40.72643055555556],[115.67368,40.79508055555555],[115.4306,40.78885]]}},{"type":"Feature","id":"wiki-history-43","properties":{"name":"明代长城 · 13","category":"wall","originalPath":"万里の長城 wikipedia/明代","comment":"","originalName":"13","originalId":43,"nameEn":"Ming Great Wall · 13","source":"wikipedia-kmz","dynasty":"ming","dynastyZh":"明代","dynastyEn":"Ming","approximate":true},"geometry":{"type":"LineString","coordinates":[[107.2640104532277,37.10008396514054],[107.2452627380253,37.10746571438658],[107.2317866992437,37.09554720521],[107.1749932389145,37.14082276849899],[107.1055184610313,37.12912819209738],[107.0914963385727,37.11480352852756],[107.0725488831099,37.12927674006183],[107.0725654289375,37.1294153851642],[107.056994312234,37.12268964694898],[107.0281574533766,37.13778066786689],[107.0252422362459,37.10724521245585],[106.9891024528376,37.12230669929124],[106.9571132236893,37.1127475767834],[106.8836054368033,37.10207993459049],[106.764917594324,37.17054652573335],[106.7178707716392,37.11900597763143],[106.6785138006315,37.15058090306295],[106.6654780841877,37.13060838257247],[106.5734538765848,37.09133523755509],[106.4493631099848,37.11504067844392]]}},{"type":"Feature","id":"wiki-history-44","properties":{"name":"明代长城 · 14","category":"wall","originalPath":"万里の長城 wikipedia/明代","comment":"","originalName":"14","originalId":44,"nameEn":"Ming Great Wall · 14","source":"wikipedia-kmz","dynasty":"ming","dynastyZh":"明代","dynastyEn":"Ming","approximate":true},"geometry":{"type":"LineString","coordinates":[[102.8460108135651,36.46001312489845],[102.745132935497,36.51571422420947],[102.6870081676779,36.47084694223247],[102.6421829266297,36.48823968779204],[102.5645565486579,36.4586644689503],[102.4695325270895,36.48761209728625],[102.4274326977104,36.64682672400536],[102.301589139273,36.68428912301136],[102.3150746489634,36.78753887461679],[102.1215467245701,37.02043108202624],[102.0164430246796,37.02543632920643],[101.9626369875411,36.97102250148114],[101.9628991350142,36.97187507735992],[101.6119998791667,36.91890322026323],[101.5620830463915,36.86993422706541],[101.5213538991429,36.90671177326718],[101.3846769888473,36.76477292991568],[101.4464678358409,36.6194934994827],[101.5497857675872,36.56339358113732],[101.5919956380991,36.37356793599799]]}},{"type":"Feature","id":"wiki-history-45","properties":{"name":"明代长城 · 15","category":"wall","originalPath":"万里の長城 wikipedia/明代","comment":"","originalName":"15","originalId":45,"nameEn":"Ming Great Wall · 15","source":"wikipedia-kmz","dynasty":"ming","dynastyZh":"明代","dynastyEn":"Ming","approximate":true},"geometry":{"type":"LineString","coordinates":[[113.8788674464159,38.61771225009851],[113.7294803597653,38.5856871448918],[113.5322033005515,38.2678513864462],[113.8266741146679,38.15450167356141],[113.9353192629441,37.85846959547441],[114.0741949557666,37.81708242935655],[114.1364808575059,37.67526178930142],[113.770938695361,37.13893553107187],[113.8018040321668,36.86452290098443],[113.5159406971121,36.69317932740562],[113.5080560917987,36.50356102134921]]}},{"type":"Feature","id":"wiki-history-46","properties":{"name":"明代长城 · 18","category":"wall","originalPath":"万里の長城 wikipedia/明代","comment":"","originalName":"18","originalId":46,"nameEn":"Ming Great Wall · 18","source":"wikipedia-kmz","dynasty":"ming","dynastyZh":"明代","dynastyEn":"Ming","approximate":true},"geometry":{"type":"LineString","coordinates":[[112.8466411980423,40.20214599442312],[112.8907914946597,40.30634052919817],[112.8897954391186,40.32872403067909],[113.0207343032694,40.36529011748794],[113.1202579589565,40.37632885334833],[113.1538607829168,40.38970160233217],[113.2238228602568,40.40016389335951],[113.2726551874413,40.43020199055704],[113.3664218143646,40.45796161676905],[113.4681651088126,40.48070610386699]]}},{"type":"Feature","id":"wiki-history-47","properties":{"name":"明代长城 · 19","category":"wall","originalPath":"万里の長城 wikipedia/明代","comment":"","originalName":"19","originalId":47,"nameEn":"Ming Great Wall · 19","source":"wikipedia-kmz","dynasty":"ming","dynastyZh":"明代","dynastyEn":"Ming","approximate":true},"geometry":{"type":"LineString","coordinates":[[113.3065207071663,40.32087937494452],[113.2947377272604,40.33452430805601],[113.2820113989919,40.36831266112188],[113.2741445335178,40.3798470551538],[113.2714702453489,40.38582292728522],[113.2570640955741,40.39275075147783],[113.2478578209526,40.41397649094133]]}},{"type":"Feature","id":"wiki-history-48","properties":{"name":"明代长城 · 20","category":"wall","originalPath":"万里の長城 wikipedia/明代","comment":"","originalName":"20","originalId":48,"nameEn":"Ming Great Wall · 20","source":"wikipedia-kmz","dynasty":"ming","dynastyZh":"明代","dynastyEn":"Ming","approximate":true},"geometry":{"type":"LineString","coordinates":[[114.0348798391916,40.60782897349377],[114.0441519098373,40.60236181637303],[114.0446622289413,40.59843754788682],[114.0523878091821,40.58855792170188],[114.0554793136335,40.58569297282211],[114.06590985998,40.58314896942697],[114.0713701959528,40.57791651872817],[114.0674248349788,40.57415870081808],[114.0700823703895,40.57080695620007],[114.0684252223949,40.56527349084674],[114.0679142032839,40.56181533384504],[114.0728975068061,40.5583391793953],[114.077964053933,40.55722564792818],[114.0775889872898,40.55444442682831],[114.0734740561846,40.55014867511371],[114.0732711508725,40.54842820343813],[114.0813669880249,40.53995936633035],[114.0883825593348,40.53550025699379],[114.0873567402682,40.53366030360365],[114.0913648027217,40.52694299481046],[114.093756430421,40.52544768811594]]}}]}